{"type":"Topology","arcs":[],"objects":{"ne_110m_populated_places":{"type":"GeometryCollection","geometries":[{"type":"Point","coordinates":[168.3166406,-17.7333504],"properties":{"SCALERANK":3,"NATSCALE":110,"LABELRANK":8,"FEATURECLA":"Admin-0 capital","NAME":"Port Vila","NAMEPAR":"","NAMEALT":"","NAMEASCII":"Port Vila","ADM0CAP":1,"CAPIN":"","WORLDCITY":0,"MEGACITY":0,"SOV0NAME":"Vanuatu","SOV_A3":"VUT","ADM0NAME":"Vanuatu","ADM0_A3":"VUT","ADM1NAME":"Shefa","ISO_A2":"VU","NOTE":"","LATITUDE":-17.73335,"LONGITUDE":168.316641,"POP_MAX":44040,"POP_MIN":35901,"POP_OTHER":7702,"RANK_MAX":7,"RANK_MIN":7,"MEGANAME":"","LS_NAME":"Port-Vila","MAX_POP10":7702,"MAX_POP20":7702,"MAX_POP50":7702,"MAX_POP300":7702,"MAX_POP310":0,"MAX_NATSCA":100,"MIN_AREAKM":7,"MAX_AREAKM":7,"MIN_AREAMI":3,"MAX_AREAMI":3,"MIN_PERKM":16,"MAX_PERKM":16,"MIN_PERMI":10,"MAX_PERMI":10,"MIN_BBXMIN":168.3,"MAX_BBXMIN":168.3,"MIN_BBXMAX":168.325,"MAX_BBXMAX":168.325,"MIN_BBYMIN":-17.758333,"MAX_BBYMIN":-17.758333,"MIN_BBYMAX":-17.708333,"MAX_BBYMAX":-17.708333,"MEAN_BBXC":168.3125,"MEAN_BBYC":-17.728125,"TIMEZONE":"Pacific/Efate","UN_FID":0,"POP1950":0,"POP1955":0,"POP1960":0,"POP1965":0,"POP1970":0,"POP1975":0,"POP1980":0,"POP1985":0,"POP1990":0,"POP1995":0,"POP2000":0,"POP2005":0,"POP2010":0,"POP2015":0,"POP2020":0,"POP2025":0,"POP2050":0,"MIN_ZOOM":4,"WIKIDATAID":"Q37806","WOF_ID":890416453,"CAPALT":0,"NAME_EN":"Port Vila","NAME_DE":"Port Vila","NAME_ES":"Port Vila","NAME_FR":"Port-Vila","NAME_PT":"Port Vila","NAME_RU":"Порт-Вила","NAME_ZH":"维拉港","LABEL":"","NAME_AR":"بورت فيلا","NAME_BN":"পোর্ট ভিলা","NAME_EL":"Πορτ Βίλα","NAME_HI":"पोर्ट विला","NAME_HU":"Port Vila","NAME_ID":"Port Vila","NAME_IT":"Port Vila","NAME_JA":"ポートビラ","NAME_KO":"포트빌라","NAME_NL":"Port Vila","NAME_PL":"Port Vila","NAME_SV":"Port Vila","NAME_TR":"Port Vila","NAME_VI":"Port Vila","NE_ID":1159150579,"NAME_FA":"پورت ویلا","NAME_HE":"פורט וילה","NAME_UK":"Порт-Віла","NAME_UR":"پورٹ ولا","NAME_ZHT":"維拉港","GEONAMESID":2135171,"FCLASS_ISO":"","FCLASS_US":"","FCLASS_FR":"","FCLASS_RU":"","FCLASS_ES":"","FCLASS_CN":"","FCLASS_TW":"","FCLASS_IN":"","FCLASS_NP":"","FCLASS_PK":"","FCLASS_DE":"","FCLASS_GB":"","FCLASS_BR":"","FCLASS_IL":"","FCLASS_PS":"","FCLASS_SA":"","FCLASS_EG":"","FCLASS_MA":"","FCLASS_PT":"","FCLASS_AR":"","FCLASS_JP":"","FCLASS_KO":"","FCLASS_VN":"","FCLASS_TR":"","FCLASS_ID":"","FCLASS_PL":"","FCLASS_GR":"","FCLASS_IT":"","FCLASS_NL":"","FCLASS_SE":"","FCLASS_BD":"","FCLASS_UA":"","FCLASS_TLC":""}},{"type":"Point","coordinates":[147.1925036,-9.4647078],"properties":{"SCALERANK":3,"NATSCALE":110,"LABELRANK":8,"FEATURECLA":"Admin-0 capital","NAME":"Port Moresby","NAMEPAR":"","NAMEALT":"","NAMEASCII":"Port Moresby","ADM0CAP":1,"CAPIN":"","WORLDCITY":0,"MEGACITY":0,"SOV0NAME":"Papua New Guinea","SOV_A3":"PNG","ADM0NAME":"Papua New Guinea","ADM0_A3":"PNG","ADM1NAME":"Central","ISO_A2":"PG","NOTE":"","LATITUDE":-9.464708,"LONGITUDE":147.192504,"POP_MAX":283733,"POP_MIN":251136,"POP_OTHER":251304,"RANK_MAX":10,"RANK_MIN":10,"MEGANAME":"","LS_NAME":"Port Moresby","MAX_POP10":251136,"MAX_POP20":251136,"MAX_POP50":251136,"MAX_POP300":251136,"MAX_POP310":0,"MAX_NATSCA":100,"MIN_AREAKM":89,"MAX_AREAKM":89,"MIN_AREAMI":35,"MAX_AREAMI":35,"MIN_PERKM":92,"MAX_PERKM":92,"MIN_PERMI":57,"MAX_PERMI":57,"MIN_BBXMIN":147.141667,"MAX_BBXMIN":147.141667,"MIN_BBXMAX":147.241667,"MAX_BBXMAX":147.241667,"MIN_BBYMIN":-9.508333,"MAX_BBYMIN":-9.508333,"MIN_BBYMAX":-9.358333,"MAX_BBYMAX":-9.358333,"MEAN_BBXC":147.185377,"MEAN_BBYC":-9.433491,"TIMEZONE":"Pacific/Port_Moresby","UN_FID":0,"POP1950":0,"POP1955":0,"POP1960":0,"POP1965":0,"POP1970":0,"POP1975":0,"POP1980":0,"POP1985":0,"POP1990":0,"POP1995":0,"POP2000":0,"POP2005":0,"POP2010":0,"POP2015":0,"POP2020":0,"POP2025":0,"POP2050":0,"MIN_ZOOM":4,"WIKIDATAID":"Q36526","WOF_ID":890444183,"CAPALT":0,"NAME_EN":"Port Moresby","NAME_DE":"Port Moresby","NAME_ES":"Puerto Moresby","NAME_FR":"Port Moresby","NAME_PT":"Port Moresby","NAME_RU":"Порт-Морсби","NAME_ZH":"莫尔兹比港","LABEL":"","NAME_AR":"بورت مورسبي","NAME_BN":"পোর্ট মোর্সবি","NAME_EL":"Πορτ Μόρεσμπι","NAME_HI":"पोर्ट मोरेस्बी","NAME_HU":"Port Moresby","NAME_ID":"Port Moresby","NAME_IT":"Port Moresby","NAME_JA":"ポートモレスビー","NAME_KO":"포트모르즈비","NAME_NL":"Port Moresby","NAME_PL":"Port Moresby","NAME_SV":"Port Moresby","NAME_TR":"Port Moresby","NAME_VI":"Port Moresby","NE_ID":1159150663,"NAME_FA":"پورت مورسبی","NAME_HE":"פורט מורסבי","NAME_UK":"Порт-Морсбі","NAME_UR":"پورٹ مورسبی","NAME_ZHT":"莫士比港","GEONAMESID":2088122,"FCLASS_ISO":"","FCLASS_US":"","FCLASS_FR":"","FCLASS_RU":"","FCLASS_ES":"","FCLASS_CN":"","FCLASS_TW":"","FCLASS_IN":"","FCLASS_NP":"","FCLASS_PK":"","FCLASS_DE":"","FCLASS_GB":"","FCLASS_BR":"","FCLASS_IL":"","FCLASS_PS":"","FCLASS_SA":"","FCLASS_EG":"","FCLASS_MA":"","FCLASS_PT":"","FCLASS_AR":"","FCLASS_JP":"","FCLASS_KO":"","FCLASS_VN":"","FCLASS_TR":"","FCLASS_ID":"","FCLASS_PL":"","FCLASS_GR":"","FCLASS_IT":"","FCLASS_NL":"","FCLASS_SE":"","FCLASS_BD":"","FCLASS_UA":"","FCLASS_TLC":""}},{"type":"Point","coordinates":[159.9497657,-9.4379943],"properties":{"SCALERANK":3,"NATSCALE":110,"LABELRANK":8,"FEATURECLA":"Admin-0 capital","NAME":"Honiara","NAMEPAR":"","NAMEALT":"","NAMEASCII":"Honiara","ADM0CAP":1,"CAPIN":"","WORLDCITY":0,"MEGACITY":0,"SOV0NAME":"Solomon Islands","SOV_A3":"SLB","ADM0NAME":"Solomon Islands","ADM0_A3":"SLB","ADM1NAME":"Guadalcanal","ISO_A2":"SB","NOTE":"","LATITUDE":-9.437994,"LONGITUDE":159.949766,"POP_MAX":76328,"POP_MIN":56298,"POP_OTHER":76328,"RANK_MAX":8,"RANK_MIN":8,"MEGANAME":"","LS_NAME":"Honiara","MAX_POP10":76328,"MAX_POP20":76328,"MAX_POP50":76328,"MAX_POP300":76328,"MAX_POP310":0,"MAX_NATSCA":100,"MIN_AREAKM":18,"MAX_AREAKM":18,"MIN_AREAMI":7,"MAX_AREAMI":7,"MIN_PERKM":33,"MAX_PERKM":33,"MIN_PERMI":21,"MAX_PERMI":21,"MIN_BBXMIN":159.916667,"MAX_BBXMIN":159.916667,"MIN_BBXMAX":160.016667,"MAX_BBXMAX":160.016667,"MIN_BBYMIN":-9.441667,"MAX_BBYMIN":-9.441667,"MIN_BBYMAX":-9.408333,"MAX_BBYMAX":-9.408333,"MEAN_BBXC":159.966865,"MEAN_BBYC":-9.42996,"TIMEZONE":"Pacific/Guadalcanal","UN_FID":0,"POP1950":0,"POP1955":0,"POP1960":0,"POP1965":0,"POP1970":0,"POP1975":0,"POP1980":0,"POP1985":0,"POP1990":0,"POP1995":0,"POP2000":0,"POP2005":0,"POP2010":0,"POP2015":0,"POP2020":0,"POP2025":0,"POP2050":0,"MIN_ZOOM":5,"WIKIDATAID":"Q40921","WOF_ID":890444217,"CAPALT":0,"NAME_EN":"Honiara","NAME_DE":"Honiara","NAME_ES":"Honiara","NAME_FR":"Honiara","NAME_PT":"Honiara","NAME_RU":"Хониара","NAME_ZH":"霍尼亚拉","LABEL":"","NAME_AR":"هونيارا","NAME_BN":"হোনিয়ারা","NAME_EL":"Ονιάρα","NAME_HI":"होनिअरा","NAME_HU":"Honiara","NAME_ID":"Honiara","NAME_IT":"Honiara","NAME_JA":"ホニアラ","NAME_KO":"호니아라","NAME_NL":"Honiara","NAME_PL":"Honiara","NAME_SV":"Honiara","NAME_TR":"Honiara","NAME_VI":"Honiara","NE_ID":1159150665,"NAME_FA":"هونیارا","NAME_HE":"הוניארה","NAME_UK":"Хоніара","NAME_UR":"ہونیارا","NAME_ZHT":"荷尼阿拉","GEONAMESID":2108502,"FCLASS_ISO":"","FCLASS_US":"","FCLASS_FR":"","FCLASS_RU":"","FCLASS_ES":"","FCLASS_CN":"","FCLASS_TW":"","FCLASS_IN":"","FCLASS_NP":"","FCLASS_PK":"","FCLASS_DE":"","FCLASS_GB":"","FCLASS_BR":"","FCLASS_IL":"","FCLASS_PS":"","FCLASS_SA":"","FCLASS_EG":"","FCLASS_MA":"","FCLASS_PT":"","FCLASS_AR":"","FCLASS_JP":"","FCLASS_KO":"","FCLASS_VN":"","FCLASS_TR":"","FCLASS_ID":"","FCLASS_PL":"","FCLASS_GR":"","FCLASS_IT":"","FCLASS_NL":"","FCLASS_SE":"","FCLASS_BD":"","FCLASS_UA":"","FCLASS_TLC":""}},{"type":"Point","coordinates":[178.4417073,-18.1330159],"properties":{"SCALERANK":3,"NATSCALE":110,"LABELRANK":8,"FEATURECLA":"Admin-0 capital","NAME":"Suva","NAMEPAR":"","NAMEALT":"","NAMEASCII":"Suva","ADM0CAP":1,"CAPIN":"","WORLDCITY":0,"MEGACITY":0,"SOV0NAME":"Fiji","SOV_A3":"FJI","ADM0NAME":"Fiji","ADM0_A3":"FJI","ADM1NAME":"Central","ISO_A2":"FJ","NOTE":"","LATITUDE":-18.133016,"LONGITUDE":178.441707,"POP_MAX":175399,"POP_MIN":88271,"POP_OTHER":0,"RANK_MAX":9,"RANK_MIN":8,"MEGANAME":"","LS_NAME":"Suva","MAX_POP10":143230,"MAX_POP20":143230,"MAX_POP50":143230,"MAX_POP300":143230,"MAX_POP310":0,"MAX_NATSCA":100,"MIN_AREAKM":53,"MAX_AREAKM":53,"MIN_AREAMI":20,"MAX_AREAMI":20,"MIN_PERKM":56,"MAX_PERKM":56,"MIN_PERMI":35,"MAX_PERMI":35,"MIN_BBXMIN":178.425,"MAX_BBXMIN":178.425,"MIN_BBXMAX":178.533333,"MAX_BBXMAX":178.533333,"MIN_BBYMIN":-18.166667,"MAX_BBYMIN":-18.166667,"MIN_BBYMAX":-18.025,"MAX_BBYMAX":-18.025,"MEAN_BBXC":178.472885,"MEAN_BBYC":-18.106731,"TIMEZONE":"Pacific/Fiji","UN_FID":0,"POP1950":0,"POP1955":0,"POP1960":0,"POP1965":0,"POP1970":0,"POP1975":0,"POP1980":0,"POP1985":0,"POP1990":0,"POP1995":0,"POP2000":0,"POP2005":0,"POP2010":0,"POP2015":0,"POP2020":0,"POP2025":0,"POP2050":0,"MIN_ZOOM":5,"WIKIDATAID":"Q38807","WOF_ID":421188977,"CAPALT":0,"NAME_EN":"Suva","NAME_DE":"Suva","NAME_ES":"Suva","NAME_FR":"Suva","NAME_PT":"Suva","NAME_RU":"Сува","NAME_ZH":"苏瓦","LABEL":"","NAME_AR":"سوفا","NAME_BN":"সুভা","NAME_EL":"Σούβα","NAME_HI":"सुवा","NAME_HU":"Suva","NAME_ID":"Suva","NAME_IT":"Suva","NAME_JA":"スバ","NAME_KO":"수바","NAME_NL":"Suva","NAME_PL":"Suva","NAME_SV":"Suva","NAME_TR":"Suva","NAME_VI":"Suva","NE_ID":1159150917,"NAME_FA":"سووا","NAME_HE":"סובה","NAME_UK":"Сува","NAME_UR":"سووا","NAME_ZHT":"蘇瓦","GEONAMESID":2198148,"FCLASS_ISO":"","FCLASS_US":"","FCLASS_FR":"","FCLASS_RU":"","FCLASS_ES":"","FCLASS_CN":"","FCLASS_TW":"","FCLASS_IN":"","FCLASS_NP":"","FCLASS_PK":"","FCLASS_DE":"","FCLASS_GB":"","FCLASS_BR":"","FCLASS_IL":"","FCLASS_PS":"","FCLASS_SA":"","FCLASS_EG":"","FCLASS_MA":"","FCLASS_PT":"","FCLASS_AR":"","FCLASS_JP":"","FCLASS_KO":"","FCLASS_VN":"","FCLASS_TR":"","FCLASS_ID":"","FCLASS_PL":"","FCLASS_GR":"","FCLASS_IT":"","FCLASS_NL":"","FCLASS_SE":"","FCLASS_BD":"","FCLASS_UA":"","FCLASS_TLC":""}},{"type":"Point","coordinates":[149.1290262,-35.2830285],"properties":{"SCALERANK":3,"NATSCALE":110,"LABELRANK":3,"FEATURECLA":"Admin-0 capital","NAME":"Canberra","NAMEPAR":"","NAMEALT":"","NAMEASCII":"Canberra","ADM0CAP":1,"CAPIN":"","WORLDCITY":0,"MEGACITY":0,"SOV0NAME":"Australia","SOV_A3":"AUS","ADM0NAME":"Australia","ADM0_A3":"AUS","ADM1NAME":"Australian Capital Territory","ISO_A2":"AU","NOTE":"","LATITUDE":-35.283029,"LONGITUDE":149.129026,"POP_MAX":327700,"POP_MIN":234032,"POP_OTHER":0,"RANK_MAX":10,"RANK_MIN":10,"MEGANAME":"","LS_NAME":"Canberra","MAX_POP10":234032,"MAX_POP20":244896,"MAX_POP50":244896,"MAX_POP300":244896,"MAX_POP310":0,"MAX_NATSCA":100,"MIN_AREAKM":226,"MAX_AREAKM":251,"MIN_AREAMI":87,"MAX_AREAMI":97,"MIN_PERKM":175,"MAX_PERKM":202,"MIN_PERMI":109,"MAX_PERMI":126,"MIN_BBXMIN":149,"MAX_BBXMIN":149,"MIN_BBXMAX":149.2,"MAX_BBXMAX":149.2,"MIN_BBYMIN":-35.483333,"MAX_BBYMIN":-35.455764,"MIN_BBYMAX":-35.183333,"MAX_BBYMAX":-35.183333,"MEAN_BBXC":149.094107,"MEAN_BBYC":-35.309627,"TIMEZONE":"Australia/Sydney","UN_FID":0,"POP1950":0,"POP1955":0,"POP1960":0,"POP1965":0,"POP1970":0,"POP1975":0,"POP1980":0,"POP1985":0,"POP1990":0,"POP1995":0,"POP2000":0,"POP2005":0,"POP2010":0,"POP2015":0,"POP2020":0,"POP2025":0,"POP2050":0,"MIN_ZOOM":4,"WIKIDATAID":"Q3114","WOF_ID":1141909401,"CAPALT":0,"NAME_EN":"Canberra","NAME_DE":"Canberra","NAME_ES":"Canberra","NAME_FR":"Canberra","NAME_PT":"Camberra","NAME_RU":"Канберра","NAME_ZH":"堪培拉","LABEL":"","NAME_AR":"كانبرا","NAME_BN":"ক্যানবেরা","NAME_EL":"Καμπέρα","NAME_HI":"कैनबरा","NAME_HU":"Canberra","NAME_ID":"Canberra","NAME_IT":"Canberra","NAME_JA":"キャンベラ","NAME_KO":"캔버라","NAME_NL":"Canberra","NAME_PL":"Canberra","NAME_SV":"Canberra","NAME_TR":"Canberra","NAME_VI":"Canberra","NE_ID":1159151161,"NAME_FA":"کانبرا","NAME_HE":"קנברה","NAME_UK":"Канберра","NAME_UR":"کینبرا","NAME_ZHT":"坎培拉","GEONAMESID":2172517,"FCLASS_ISO":"","FCLASS_US":"","FCLASS_FR":"","FCLASS_RU":"","FCLASS_ES":"","FCLASS_CN":"","FCLASS_TW":"","FCLASS_IN":"","FCLASS_NP":"","FCLASS_PK":"","FCLASS_DE":"","FCLASS_GB":"","FCLASS_BR":"","FCLASS_IL":"","FCLASS_PS":"","FCLASS_SA":"","FCLASS_EG":"","FCLASS_MA":"","FCLASS_PT":"","FCLASS_AR":"","FCLASS_JP":"","FCLASS_KO":"","FCLASS_VN":"","FCLASS_TR":"","FCLASS_ID":"","FCLASS_PL":"","FCLASS_GR":"","FCLASS_IT":"","FCLASS_NL":"","FCLASS_SE":"","FCLASS_BD":"","FCLASS_UA":"","FCLASS_TLC":""}},{"type":"Point","coordinates":[174.77720094690068,-41.2920679923151],"properties":{"SCALERANK":3,"NATSCALE":110,"LABELRANK":8,"FEATURECLA":"Admin-0 capital","NAME":"Wellington","NAMEPAR":"","NAMEALT":"","NAMEASCII":"Wellington","ADM0CAP":1,"CAPIN":"","WORLDCITY":0,"MEGACITY":0,"SOV0NAME":"New Zealand","SOV_A3":"NZL","ADM0NAME":"New Zealand","ADM0_A3":"NZL","ADM1NAME":"Manawatu-Wanganui","ISO_A2":"NZ","NOTE":"Wellington metropolitan area","LATITUDE":-41.299988,"LONGITUDE":174.783266,"POP_MAX":393400,"POP_MIN":393400,"POP_OTHER":0,"RANK_MAX":10,"RANK_MIN":9,"MEGANAME":"","LS_NAME":"Wellington","MAX_POP10":144164,"MAX_POP20":144164,"MAX_POP50":144164,"MAX_POP300":144164,"MAX_POP310":0,"MAX_NATSCA":100,"MIN_AREAKM":77,"MAX_AREAKM":77,"MIN_AREAMI":30,"MAX_AREAMI":30,"MIN_PERKM":79,"MAX_PERKM":79,"MIN_PERMI":49,"MAX_PERMI":49,"MIN_BBXMIN":174.725,"MAX_BBXMIN":174.725,"MIN_BBXMAX":174.841667,"MAX_BBXMAX":174.841667,"MIN_BBYMIN":-41.35,"MAX_BBYMIN":-41.35,"MIN_BBYMAX":-41.2,"MAX_BBYMAX":-41.2,"MEAN_BBXC":174.78792,"MEAN_BBYC":-41.285539,"TIMEZONE":"Pacific/Auckland","UN_FID":0,"POP1950":0,"POP1955":0,"POP1960":0,"POP1965":0,"POP1970":0,"POP1975":0,"POP1980":0,"POP1985":0,"POP1990":0,"POP1995":0,"POP2000":0,"POP2005":0,"POP2010":0,"POP2015":0,"POP2020":0,"POP2025":0,"POP2050":0,"MIN_ZOOM":4,"WIKIDATAID":"Q23661","WOF_ID":101932275,"CAPALT":0,"NAME_EN":"Wellington","NAME_DE":"Wellington","NAME_ES":"Wellington","NAME_FR":"Wellington","NAME_PT":"Wellington","NAME_RU":"Веллингтон","NAME_ZH":"惠灵顿","LABEL":"","NAME_AR":"ويلينغتون","NAME_BN":"ওয়েলিংটন","NAME_EL":"Ουέλλινγκτον","NAME_HI":"वेलिंग्टन","NAME_HU":"Wellington","NAME_ID":"Wellington","NAME_IT":"Wellington","NAME_JA":"ウェリントン","NAME_KO":"웰링턴","NAME_NL":"Wellington","NAME_PL":"Wellington","NAME_SV":"Wellington","NAME_TR":"Wellington","NAME_VI":"Wellington","NE_ID":1159151699,"NAME_FA":"ولینگتون","NAME_HE":"ולינגטון","NAME_UK":"Веллінгтон","NAME_UR":"ویلنگٹن","NAME_ZHT":"威靈頓","GEONAMESID":2144168,"FCLASS_ISO":"","FCLASS_US":"","FCLASS_FR":"","FCLASS_RU":"","FCLASS_ES":"","FCLASS_CN":"","FCLASS_TW":"","FCLASS_IN":"","FCLASS_NP":"","FCLASS_PK":"","FCLASS_DE":"","FCLASS_GB":"","FCLASS_BR":"","FCLASS_IL":"","FCLASS_PS":"","FCLASS_SA":"","FCLASS_EG":"","FCLASS_MA":"","FCLASS_PT":"","FCLASS_AR":"","FCLASS_JP":"","FCLASS_KO":"","FCLASS_VN":"","FCLASS_TR":"","FCLASS_ID":"","FCLASS_PL":"","FCLASS_GR":"","FCLASS_IT":"","FCLASS_NL":"","FCLASS_SE":"","FCLASS_BD":"","FCLASS_UA":"","FCLASS_TLC":""}},{"type":"Point","coordinates":[144.9730704,-37.8180855],"properties":{"SCALERANK":1,"NATSCALE":300,"LABELRANK":3,"FEATURECLA":"Admin-1 capital","NAME":"Melbourne","NAMEPAR":"","NAMEALT":"","NAMEASCII":"Melbourne","ADM0CAP":0,"CAPIN":"","WORLDCITY":1,"MEGACITY":1,"SOV0NAME":"Australia","SOV_A3":"AUS","ADM0NAME":"Australia","ADM0_A3":"AUS","ADM1NAME":"Victoria","ISO_A2":"AU","NOTE":"","LATITUDE":-37.818086,"LONGITUDE":144.97307,"POP_MAX":4170000,"POP_MIN":93625,"POP_OTHER":1805353,"RANK_MAX":12,"RANK_MIN":8,"MEGANAME":"Melbourne","LS_NAME":"Melbourne2","MAX_POP10":1904377,"MAX_POP20":2545035,"MAX_POP50":2564188,"MAX_POP300":2564188,"MAX_POP310":0,"MAX_NATSCA":100,"MIN_AREAKM":1010,"MAX_AREAKM":1554,"MIN_AREAMI":390,"MAX_AREAMI":600,"MIN_PERKM":360,"MAX_PERKM":843,"MIN_PERMI":224,"MAX_PERMI":524,"MIN_BBXMIN":144.608333,"MAX_BBXMIN":144.728637,"MIN_BBXMAX":145.327433,"MAX_BBXMAX":145.4,"MIN_BBYMIN":-38.208333,"MAX_BBYMIN":-38.0105,"MIN_BBYMAX":-37.589905,"MAX_BBYMAX":-37.566667,"MEAN_BBXC":145.053821,"MEAN_BBYC":-37.835257,"TIMEZONE":"","UN_FID":274,"POP1950":1332,"POP1955":1574,"POP1960":1851,"POP1965":2068,"POP1970":2334,"POP1975":2561,"POP1980":2765,"POP1985":2935,"POP1990":3117,"POP1995":3257,"POP2000":3433,"POP2005":3641,"POP2010":3728,"POP2015":3851,"POP2020":4013,"POP2025":4137,"POP2050":4238,"MIN_ZOOM":3,"WIKIDATAID":"Q3141","WOF_ID":101933229,"CAPALT":0,"NAME_EN":"Melbourne","NAME_DE":"Melbourne","NAME_ES":"Melbourne","NAME_FR":"Melbourne","NAME_PT":"Melbourne","NAME_RU":"Мельбурн","NAME_ZH":"墨尔本","LABEL":"","NAME_AR":"ملبورن","NAME_BN":"মেলবোর্ন","NAME_EL":"Μελβούρνη","NAME_HI":"मेलबॉर्न","NAME_HU":"Melbourne","NAME_ID":"Melbourne","NAME_IT":"Melbourne","NAME_JA":"メルボルン","NAME_KO":"멜버른","NAME_NL":"Melbourne","NAME_PL":"Melbourne","NAME_SV":"Melbourne","NAME_TR":"Melbourne","NAME_VI":"Melbourne","NE_ID":1159151565,"NAME_FA":"ملبورن","NAME_HE":"מלבורן","NAME_UK":"Мельбурн","NAME_UR":"ملبورن","NAME_ZHT":"墨爾本","GEONAMESID":2158177,"FCLASS_ISO":"","FCLASS_US":"","FCLASS_FR":"","FCLASS_RU":"","FCLASS_ES":"","FCLASS_CN":"","FCLASS_TW":"","FCLASS_IN":"","FCLASS_NP":"","FCLASS_PK":"","FCLASS_DE":"","FCLASS_GB":"","FCLASS_BR":"","FCLASS_IL":"","FCLASS_PS":"","FCLASS_SA":"","FCLASS_EG":"","FCLASS_MA":"","FCLASS_PT":"","FCLASS_AR":"","FCLASS_JP":"","FCLASS_KO":"","FCLASS_VN":"","FCLASS_TR":"","FCLASS_ID":"","FCLASS_PL":"","FCLASS_GR":"","FCLASS_IT":"","FCLASS_NL":"","FCLASS_SE":"","FCLASS_BD":"","FCLASS_UA":"","FCLASS_TLC":""}},{"type":"Point","coordinates":[174.763027,-36.8480549],"properties":{"SCALERANK":1,"NATSCALE":300,"LABELRANK":8,"FEATURECLA":"Admin-1 capital","NAME":"Auckland","NAMEPAR":"","NAMEALT":"","NAMEASCII":"Auckland","ADM0CAP":0,"CAPIN":"","WORLDCITY":1,"MEGACITY":1,"SOV0NAME":"New Zealand","SOV_A3":"NZL","ADM0NAME":"New Zealand","ADM0_A3":"NZL","ADM1NAME":"Auckland","ISO_A2":"NZ","NOTE":"Auckland metropolitan area","LATITUDE":-36.848055,"LONGITUDE":174.763027,"POP_MAX":1377200,"POP_MIN":395982,"POP_OTHER":0,"RANK_MAX":12,"RANK_MIN":10,"MEGANAME":"Auckland","LS_NAME":"Auckland","MAX_POP10":274020,"MAX_POP20":354233,"MAX_POP50":350364,"MAX_POP300":638000,"MAX_POP310":0,"MAX_NATSCA":100,"MIN_AREAKM":169,"MAX_AREAKM":399,"MIN_AREAMI":65,"MAX_AREAMI":154,"MIN_PERKM":105,"MAX_PERKM":266,"MIN_PERMI":65,"MAX_PERMI":166,"MIN_BBXMIN":174.583333,"MAX_BBXMIN":174.657483,"MIN_BBXMAX":174.883333,"MAX_BBXMAX":174.983333,"MIN_BBYMIN":-37.091667,"MAX_BBYMIN":-36.964958,"MIN_BBYMAX":-36.825,"MAX_BBYMAX":-36.8,"MEAN_BBXC":174.755045,"MEAN_BBYC":-36.896818,"TIMEZONE":"Pacific/Auckland","UN_FID":381,"POP1950":319,"POP1955":387,"POP1960":440,"POP1965":532,"POP1970":635,"POP1975":729,"POP1980":774,"POP1985":812,"POP1990":870,"POP1995":976,"POP2000":1063,"POP2005":1189,"POP2010":1245,"POP2015":1321,"POP2020":1398,"POP2025":1441,"POP2050":1475,"MIN_ZOOM":3,"WIKIDATAID":"Q37100","WOF_ID":101914257,"CAPALT":0,"NAME_EN":"Auckland","NAME_DE":"Auckland","NAME_ES":"Auckland","NAME_FR":"Auckland","NAME_PT":"Auckland","NAME_RU":"Окленд","NAME_ZH":"奥克兰都会区","LABEL":"","NAME_AR":"أوكلاند","NAME_BN":"অকল্যান্ড","NAME_EL":"Ώκλαντ","NAME_HI":"ऑक्लैण्ड","NAME_HU":"Auckland","NAME_ID":"Auckland","NAME_IT":"Auckland","NAME_JA":"オークランド","NAME_KO":"오클랜드","NAME_NL":"Auckland","NAME_PL":"Auckland","NAME_SV":"Auckland","NAME_TR":"Auckland","NAME_VI":"Auckland","NE_ID":1159151703,"NAME_FA":"آوکلند","NAME_HE":"אוקלנד","NAME_UK":"Окленд","NAME_UR":"آکلینڈ","NAME_ZHT":"奧克蘭市","GEONAMESID":2193733,"FCLASS_ISO":"","FCLASS_US":"","FCLASS_FR":"","FCLASS_RU":"","FCLASS_ES":"","FCLASS_CN":"","FCLASS_TW":"","FCLASS_IN":"","FCLASS_NP":"","FCLASS_PK":"","FCLASS_DE":"","FCLASS_GB":"","FCLASS_BR":"","FCLASS_IL":"","FCLASS_PS":"","FCLASS_SA":"","FCLASS_EG":"","FCLASS_MA":"","FCLASS_PT":"","FCLASS_AR":"","FCLASS_JP":"","FCLASS_KO":"","FCLASS_VN":"","FCLASS_TR":"","FCLASS_ID":"","FCLASS_PL":"","FCLASS_GR":"","FCLASS_IT":"","FCLASS_NL":"","FCLASS_SE":"","FCLASS_BD":"","FCLASS_UA":"","FCLASS_TLC":""}},{"type":"Point","coordinates":[151.2125477744749,-33.87137339218338],"properties":{"SCALERANK":0,"NATSCALE":600,"LABELRANK":3,"FEATURECLA":"Admin-1 capital","NAME":"Sydney","NAMEPAR":"","NAMEALT":"","NAMEASCII":"Sydney","ADM0CAP":0,"CAPIN":"","WORLDCITY":1,"MEGACITY":1,"SOV0NAME":"Australia","SOV_A3":"AUS","ADM0NAME":"Australia","ADM0_A3":"AUS","ADM1NAME":"New South Wales","ISO_A2":"AU","NOTE":"","LATITUDE":-33.918065,"LONGITUDE":151.183234,"POP_MAX":4630000,"POP_MIN":3641422,"POP_OTHER":2669348,"RANK_MAX":12,"RANK_MIN":12,"MEGANAME":"Sydney","LS_NAME":"Sydney1","MAX_POP10":2731457,"MAX_POP20":2731457,"MAX_POP50":3164008,"MAX_POP300":3164008,"MAX_POP310":3164008,"MAX_NATSCA":300,"MIN_AREAKM":1078,"MAX_AREAKM":1409,"MIN_AREAMI":416,"MAX_AREAMI":544,"MIN_PERKM":468,"MAX_PERKM":717,"MIN_PERMI":291,"MAX_PERMI":445,"MIN_BBXMIN":150.533333,"MAX_BBXMIN":150.831963,"MIN_BBXMAX":151.308333,"MAX_BBXMAX":151.341667,"MIN_BBYMIN":-34.091667,"MAX_BBYMIN":-34.091667,"MIN_BBYMAX":-33.641667,"MAX_BBYMAX":-33.6,"MEAN_BBXC":151.051024,"MEAN_BBYC":-33.846724,"TIMEZONE":"","UN_FID":276,"POP1950":1690,"POP1955":1906,"POP1960":2135,"POP1965":2390,"POP1970":2667,"POP1975":2960,"POP1980":3227,"POP1985":3432,"POP1990":3632,"POP1995":3839,"POP2000":4078,"POP2005":4260,"POP2010":4327,"POP2015":4427,"POP2020":4582,"POP2025":4716,"POP2050":4826,"MIN_ZOOM":1.7,"WIKIDATAID":"Q3130","WOF_ID":101932003,"CAPALT":0,"NAME_EN":"Sydney","NAME_DE":"Sydney","NAME_ES":"Sídney","NAME_FR":"Sydney","NAME_PT":"Sydney","NAME_RU":"Сидней","NAME_ZH":"悉尼","LABEL":"","NAME_AR":"سيدني","NAME_BN":"সিডনি","NAME_EL":"Σίδνεϊ","NAME_HI":"सिडनी","NAME_HU":"Sydney","NAME_ID":"Sydney","NAME_IT":"Sydney","NAME_JA":"シドニー","NAME_KO":"시드니","NAME_NL":"Sydney","NAME_PL":"Sydney","NAME_SV":"Sydney","NAME_TR":"Sidney","NAME_VI":"Sydney","NE_ID":1159151623,"NAME_FA":"سیدنی","NAME_HE":"סידני","NAME_UK":"Сідней","NAME_UR":"سڈنی","NAME_ZHT":"雪梨","GEONAMESID":2147714,"FCLASS_ISO":"","FCLASS_US":"","FCLASS_FR":"","FCLASS_RU":"","FCLASS_ES":"","FCLASS_CN":"","FCLASS_TW":"","FCLASS_IN":"","FCLASS_NP":"","FCLASS_PK":"","FCLASS_DE":"","FCLASS_GB":"","FCLASS_BR":"","FCLASS_IL":"","FCLASS_PS":"","FCLASS_SA":"","FCLASS_EG":"","FCLASS_MA":"","FCLASS_PT":"","FCLASS_AR":"","FCLASS_JP":"","FCLASS_KO":"","FCLASS_VN":"","FCLASS_TR":"","FCLASS_ID":"","FCLASS_PL":"","FCLASS_GR":"","FCLASS_IT":"","FCLASS_NL":"","FCLASS_SE":"","FCLASS_BD":"","FCLASS_UA":"","FCLASS_TLC":""}}]}}}