{"type":"Topology","arcs":[],"objects":{"ne_110m_populated_places":{"type":"GeometryCollection","geometries":[{"type":"Point","coordinates":[12.4533865,41.9032822],"properties":{"SCALERANK":8,"NATSCALE":10,"LABELRANK":3,"FEATURECLA":"Admin-0 capital","NAME":"Vatican City","NAMEPAR":"","NAMEALT":"","NAMEASCII":"Vatican City","ADM0CAP":1,"CAPIN":"","WORLDCITY":1,"MEGACITY":0,"SOV0NAME":"Vatican","SOV_A3":"VAT","ADM0NAME":"Vatican","ADM0_A3":"VAT","ADM1NAME":"Lazio","ISO_A2":"VA","NOTE":"","LATITUDE":41.903282,"LONGITUDE":12.453387,"POP_MAX":832,"POP_MIN":832,"POP_OTHER":562430,"RANK_MAX":2,"RANK_MIN":2,"MEGANAME":"","LS_NAME":"Vatican City","MAX_POP10":636762,"MAX_POP20":636762,"MAX_POP50":0,"MAX_POP300":0,"MAX_POP310":0,"MAX_NATSCA":20,"MIN_AREAKM":177,"MAX_AREAKM":177,"MIN_AREAMI":68,"MAX_AREAMI":68,"MIN_PERKM":160,"MAX_PERKM":160,"MIN_PERMI":99,"MAX_PERMI":99,"MIN_BBXMIN":12.333333,"MAX_BBXMIN":12.333333,"MIN_BBXMAX":12.481009,"MAX_BBXMAX":12.481009,"MIN_BBYMIN":41.766667,"MAX_BBYMIN":41.766667,"MIN_BBYMAX":42.05,"MAX_BBYMAX":42.05,"MEAN_BBXC":12.419907,"MEAN_BBYC":41.903477,"TIMEZONE":"Europe/Vatican","UN_FID":0,"POP1950":0,"POP1955":0,"POP1960":0,"POP1965":0,"POP1970":0,"POP1975":0,"POP1980":0,"POP1985":0,"POP1990":0,"POP1995":0,"POP2000":0,"POP2005":0,"POP2010":0,"POP2015":0,"POP2020":0,"POP2025":0,"POP2050":0,"MIN_ZOOM":7,"WIKIDATAID":"Q237","WOF_ID":101914185,"CAPALT":0,"NAME_EN":"Vatican City","NAME_DE":"Vatikanstadt","NAME_ES":"Ciudad del Vaticano","NAME_FR":"Cité du Vatican","NAME_PT":"Vaticano","NAME_RU":"Ватикан","NAME_ZH":"梵蒂冈","LABEL":"","NAME_AR":"الفاتيكان","NAME_BN":"ভ্যাটিকান সিটি","NAME_EL":"Βατικανό","NAME_HI":"वैटिकन नगर","NAME_HU":"Vatikán","NAME_ID":"Vatikan","NAME_IT":"Città del Vaticano","NAME_JA":"バチカン","NAME_KO":"바티칸 시국","NAME_NL":"Vaticaanstad","NAME_PL":"Watykan","NAME_SV":"Vatikanstaten","NAME_TR":"Vatikan","NAME_VI":"Thành Vatican","NE_ID":1159127243,"NAME_FA":"واتیکان","NAME_HE":"קריית הוותיקן","NAME_UK":"Ватикан","NAME_UR":"ویٹیکن سٹی","NAME_ZHT":"梵蒂岡","GEONAMESID":6691831,"FCLASS_ISO":"","FCLASS_US":"","FCLASS_FR":"","FCLASS_RU":"","FCLASS_ES":"","FCLASS_CN":"","FCLASS_TW":"","FCLASS_IN":"","FCLASS_NP":"","FCLASS_PK":"","FCLASS_DE":"","FCLASS_GB":"","FCLASS_BR":"","FCLASS_IL":"","FCLASS_PS":"","FCLASS_SA":"","FCLASS_EG":"","FCLASS_MA":"","FCLASS_PT":"","FCLASS_AR":"","FCLASS_JP":"","FCLASS_KO":"","FCLASS_VN":"","FCLASS_TR":"","FCLASS_ID":"","FCLASS_PL":"","FCLASS_GR":"","FCLASS_IT":"","FCLASS_NL":"","FCLASS_SE":"","FCLASS_BD":"","FCLASS_UA":"","FCLASS_TLC":""}},{"type":"Point","coordinates":[12.4417702,43.9360958],"properties":{"SCALERANK":7,"NATSCALE":20,"LABELRANK":0,"FEATURECLA":"Admin-0 capital","NAME":"San Marino","NAMEPAR":"","NAMEALT":"","NAMEASCII":"San Marino","ADM0CAP":1,"CAPIN":"","WORLDCITY":0,"MEGACITY":0,"SOV0NAME":"San Marino","SOV_A3":"SMR","ADM0NAME":"San Marino","ADM0_A3":"SMR","ADM1NAME":"","ISO_A2":"SM","NOTE":"","LATITUDE":43.936096,"LONGITUDE":12.44177,"POP_MAX":29579,"POP_MIN":29000,"POP_OTHER":0,"RANK_MAX":7,"RANK_MIN":7,"MEGANAME":"","LS_NAME":"San Marino","MAX_POP10":29088,"MAX_POP20":29579,"MAX_POP50":0,"MAX_POP300":0,"MAX_POP310":0,"MAX_NATSCA":20,"MIN_AREAKM":30,"MAX_AREAKM":30,"MIN_AREAMI":11,"MAX_AREAMI":11,"MIN_PERKM":63,"MAX_PERKM":63,"MIN_PERMI":39,"MAX_PERMI":39,"MIN_BBXMIN":12.391667,"MAX_BBXMIN":12.391667,"MIN_BBXMAX":12.541667,"MAX_BBXMAX":12.541667,"MIN_BBYMIN":43.9,"MAX_BBYMIN":43.9,"MIN_BBYMAX":44,"MAX_BBYMAX":44,"MEAN_BBXC":12.462153,"MEAN_BBYC":43.953472,"TIMEZONE":"Europe/San_Marino","UN_FID":0,"POP1950":0,"POP1955":0,"POP1960":0,"POP1965":0,"POP1970":0,"POP1975":0,"POP1980":0,"POP1985":0,"POP1990":0,"POP1995":0,"POP2000":0,"POP2005":0,"POP2010":0,"POP2015":0,"POP2020":0,"POP2025":0,"POP2050":0,"MIN_ZOOM":6.1,"WIKIDATAID":"Q1848","WOF_ID":101837381,"CAPALT":0,"NAME_EN":"San Marino","NAME_DE":"San Marino","NAME_ES":"San Marino","NAME_FR":"Saint-Marin","NAME_PT":"San Marino","NAME_RU":"Сан-Марино","NAME_ZH":"圣马力诺","LABEL":"","NAME_AR":"مدينة سان مارينو","NAME_BN":"সান মারিনো","NAME_EL":"Άγιος Μαρίνος","NAME_HI":"सैन मारिनो नगर","NAME_HU":"San Marino","NAME_ID":"San Marino","NAME_IT":"Città di San Marino","NAME_JA":"サンマリノ市","NAME_KO":"산마리노","NAME_NL":"San Marino","NAME_PL":"San Marino","NAME_SV":"San Marino","NAME_TR":"San Marino","NAME_VI":"Thành phố San Marino","NE_ID":1159146051,"NAME_FA":"سن مارینو","NAME_HE":"סן מרינו","NAME_UK":"Сан-Марино","NAME_UR":"سان مارینو شہر","NAME_ZHT":"聖馬力諾","GEONAMESID":3168070,"FCLASS_ISO":"","FCLASS_US":"","FCLASS_FR":"","FCLASS_RU":"","FCLASS_ES":"","FCLASS_CN":"","FCLASS_TW":"","FCLASS_IN":"","FCLASS_NP":"","FCLASS_PK":"","FCLASS_DE":"","FCLASS_GB":"","FCLASS_BR":"","FCLASS_IL":"","FCLASS_PS":"","FCLASS_SA":"","FCLASS_EG":"","FCLASS_MA":"","FCLASS_PT":"","FCLASS_AR":"","FCLASS_JP":"","FCLASS_KO":"","FCLASS_VN":"","FCLASS_TR":"","FCLASS_ID":"","FCLASS_PL":"","FCLASS_GR":"","FCLASS_IT":"","FCLASS_NL":"","FCLASS_SE":"","FCLASS_BD":"","FCLASS_UA":"","FCLASS_TLC":""}},{"type":"Point","coordinates":[9.5166695,47.1337238],"properties":{"SCALERANK":7,"NATSCALE":20,"LABELRANK":0,"FEATURECLA":"Admin-0 capital","NAME":"Vaduz","NAMEPAR":"","NAMEALT":"","NAMEASCII":"Vaduz","ADM0CAP":1,"CAPIN":"","WORLDCITY":0,"MEGACITY":0,"SOV0NAME":"Liechtenstein","SOV_A3":"LIE","ADM0NAME":"Liechtenstein","ADM0_A3":"LIE","ADM1NAME":"","ISO_A2":"LI","NOTE":"","LATITUDE":47.133724,"LONGITUDE":9.51667,"POP_MAX":36281,"POP_MIN":5342,"POP_OTHER":33009,"RANK_MAX":7,"RANK_MIN":5,"MEGANAME":"","LS_NAME":"Vaduz","MAX_POP10":45442,"MAX_POP20":45442,"MAX_POP50":0,"MAX_POP300":0,"MAX_POP310":0,"MAX_NATSCA":20,"MIN_AREAKM":45,"MAX_AREAKM":45,"MIN_AREAMI":17,"MAX_AREAMI":17,"MIN_PERKM":90,"MAX_PERKM":90,"MIN_PERMI":56,"MAX_PERMI":56,"MIN_BBXMIN":9.433333,"MAX_BBXMIN":9.433333,"MIN_BBXMAX":9.558333,"MAX_BBXMAX":9.558333,"MIN_BBYMIN":47.091667,"MAX_BBYMIN":47.091667,"MIN_BBYMAX":47.233333,"MAX_BBYMAX":47.233333,"MEAN_BBXC":9.503734,"MEAN_BBYC":47.167478,"TIMEZONE":"Europe/Vaduz","UN_FID":0,"POP1950":0,"POP1955":0,"POP1960":0,"POP1965":0,"POP1970":0,"POP1975":0,"POP1980":0,"POP1985":0,"POP1990":0,"POP1995":0,"POP2000":0,"POP2005":0,"POP2010":0,"POP2015":0,"POP2020":0,"POP2025":0,"POP2050":0,"MIN_ZOOM":6.7,"WIKIDATAID":"Q1844","WOF_ID":101828603,"CAPALT":0,"NAME_EN":"Vaduz","NAME_DE":"Vaduz","NAME_ES":"Vaduz","NAME_FR":"Vaduz","NAME_PT":"Vaduz","NAME_RU":"Вадуц","NAME_ZH":"瓦都兹","LABEL":"","NAME_AR":"فادوتس","NAME_BN":"ফাডুৎস","NAME_EL":"Βαντούζ","NAME_HI":"वादुज़","NAME_HU":"Vaduz","NAME_ID":"Vaduz","NAME_IT":"Vaduz","NAME_JA":"ファドゥーツ","NAME_KO":"파두츠","NAME_NL":"Vaduz","NAME_PL":"Vaduz","NAME_SV":"Vaduz","NAME_TR":"Vaduz","NAME_VI":"Vaduz","NE_ID":1159146061,"NAME_FA":"فادوتس","NAME_HE":"ואדוץ","NAME_UK":"Вадуц","NAME_UR":"واڈوز","NAME_ZHT":"華杜茲","GEONAMESID":3042030,"FCLASS_ISO":"","FCLASS_US":"","FCLASS_FR":"","FCLASS_RU":"","FCLASS_ES":"","FCLASS_CN":"","FCLASS_TW":"","FCLASS_IN":"","FCLASS_NP":"","FCLASS_PK":"","FCLASS_DE":"","FCLASS_GB":"","FCLASS_BR":"","FCLASS_IL":"","FCLASS_PS":"","FCLASS_SA":"","FCLASS_EG":"","FCLASS_MA":"","FCLASS_PT":"","FCLASS_AR":"","FCLASS_JP":"","FCLASS_KO":"","FCLASS_VN":"","FCLASS_TR":"","FCLASS_ID":"","FCLASS_PL":"","FCLASS_GR":"","FCLASS_IT":"","FCLASS_NL":"","FCLASS_SE":"","FCLASS_BD":"","FCLASS_UA":"","FCLASS_TLC":""}},{"type":"Point","coordinates":[6.1300028,49.6116604],"properties":{"SCALERANK":6,"NATSCALE":30,"LABELRANK":8,"FEATURECLA":"Admin-0 capital","NAME":"Luxembourg","NAMEPAR":"","NAMEALT":"","NAMEASCII":"Luxembourg","ADM0CAP":1,"CAPIN":"","WORLDCITY":0,"MEGACITY":0,"SOV0NAME":"Luxembourg","SOV_A3":"LUX","ADM0NAME":"Luxembourg","ADM0_A3":"LUX","ADM1NAME":"Luxembourg","ISO_A2":"LU","NOTE":"","LATITUDE":49.61166,"LONGITUDE":6.130003,"POP_MAX":107260,"POP_MIN":76684,"POP_OTHER":106219,"RANK_MAX":9,"RANK_MIN":8,"MEGANAME":"","LS_NAME":"Luxembourg","MAX_POP10":107260,"MAX_POP20":107260,"MAX_POP50":107260,"MAX_POP300":0,"MAX_POP310":0,"MAX_NATSCA":50,"MIN_AREAKM":60,"MAX_AREAKM":60,"MIN_AREAMI":23,"MAX_AREAMI":23,"MIN_PERKM":71,"MAX_PERKM":71,"MIN_PERMI":44,"MAX_PERMI":44,"MIN_BBXMIN":6.041667,"MAX_BBXMIN":6.041667,"MIN_BBXMAX":6.183333,"MAX_BBXMAX":6.183333,"MIN_BBYMIN":49.558333,"MAX_BBYMIN":49.558333,"MIN_BBYMAX":49.708333,"MAX_BBYMAX":49.708333,"MEAN_BBXC":6.125273,"MEAN_BBYC":49.620833,"TIMEZONE":"Europe/Luxembourg","UN_FID":0,"POP1950":0,"POP1955":0,"POP1960":0,"POP1965":0,"POP1970":0,"POP1975":0,"POP1980":0,"POP1985":0,"POP1990":0,"POP1995":0,"POP2000":0,"POP2005":0,"POP2010":0,"POP2015":0,"POP2020":0,"POP2025":0,"POP2050":0,"MIN_ZOOM":6,"WIKIDATAID":"Q1842","WOF_ID":101751765,"CAPALT":0,"NAME_EN":"Luxembourg","NAME_DE":"Luxemburg","NAME_ES":"Luxemburgo","NAME_FR":"Luxembourg","NAME_PT":"Luxemburgo","NAME_RU":"Люксембург","NAME_ZH":"卢森堡","LABEL":"","NAME_AR":"مدينة لوكسمبورغ","NAME_BN":"লুক্সেমবুর্গ শহর","NAME_EL":"Λουξεμβούργο","NAME_HI":"लक्ज़मबर्ग नगर","NAME_HU":"Luxembourg","NAME_ID":"Luksemburg","NAME_IT":"Lussemburgo","NAME_JA":"ルクセンブルク市","NAME_KO":"룩셈부르크","NAME_NL":"Luxemburg","NAME_PL":"Luksemburg","NAME_SV":"Luxemburg","NAME_TR":"Lüksemburg","NAME_VI":"Luxembourg","NE_ID":1159146437,"NAME_FA":"لوکزامبورگ","NAME_HE":"לוקסמבורג","NAME_UK":"Люксембург","NAME_UR":"لکسمبرگ","NAME_ZHT":"盧森堡市","GEONAMESID":2960316,"FCLASS_ISO":"","FCLASS_US":"","FCLASS_FR":"","FCLASS_RU":"","FCLASS_ES":"","FCLASS_CN":"","FCLASS_TW":"","FCLASS_IN":"","FCLASS_NP":"","FCLASS_PK":"","FCLASS_DE":"","FCLASS_GB":"","FCLASS_BR":"","FCLASS_IL":"","FCLASS_PS":"","FCLASS_SA":"","FCLASS_EG":"","FCLASS_MA":"","FCLASS_PT":"","FCLASS_AR":"","FCLASS_JP":"","FCLASS_KO":"","FCLASS_VN":"","FCLASS_TR":"","FCLASS_ID":"","FCLASS_PL":"","FCLASS_GR":"","FCLASS_IT":"","FCLASS_NL":"","FCLASS_SE":"","FCLASS_BD":"","FCLASS_UA":"","FCLASS_TLC":""}},{"type":"Point","coordinates":[7.4069132,43.7396457],"properties":{"SCALERANK":6,"NATSCALE":30,"LABELRANK":0,"FEATURECLA":"Admin-0 capital","NAME":"Monaco","NAMEPAR":"","NAMEALT":"","NAMEASCII":"Monaco","ADM0CAP":1,"CAPIN":"","WORLDCITY":0,"MEGACITY":0,"SOV0NAME":"Monaco","SOV_A3":"MCO","ADM0NAME":"Monaco","ADM0_A3":"MCO","ADM1NAME":"","ISO_A2":"MC","NOTE":"","LATITUDE":43.739646,"LONGITUDE":7.406913,"POP_MAX":36371,"POP_MIN":36371,"POP_OTHER":102371,"RANK_MAX":7,"RANK_MIN":7,"MEGANAME":"","LS_NAME":"Monaco","MAX_POP10":108543,"MAX_POP20":108543,"MAX_POP50":108543,"MAX_POP300":0,"MAX_POP310":0,"MAX_NATSCA":50,"MIN_AREAKM":36,"MAX_AREAKM":36,"MIN_AREAMI":14,"MAX_AREAMI":14,"MIN_PERKM":57,"MAX_PERKM":57,"MIN_PERMI":35,"MAX_PERMI":35,"MIN_BBXMIN":7.35,"MAX_BBXMIN":7.35,"MIN_BBXMAX":7.533333,"MAX_BBXMAX":7.533333,"MIN_BBYMIN":43.716667,"MAX_BBYMIN":43.716667,"MIN_BBYMAX":43.8,"MAX_BBYMAX":43.8,"MEAN_BBXC":7.442529,"MEAN_BBYC":43.754167,"TIMEZONE":"Europe/Monaco","UN_FID":0,"POP1950":0,"POP1955":0,"POP1960":0,"POP1965":0,"POP1970":0,"POP1975":0,"POP1980":0,"POP1985":0,"POP1990":0,"POP1995":0,"POP2000":0,"POP2005":0,"POP2010":0,"POP2015":0,"POP2020":0,"POP2025":0,"POP2050":0,"MIN_ZOOM":5.1,"WIKIDATAID":"Q235","WOF_ID":101831917,"CAPALT":0,"NAME_EN":"Monaco","NAME_DE":"Monaco","NAME_ES":"Mónaco","NAME_FR":"Monaco","NAME_PT":"Mónaco","NAME_RU":"Монако","NAME_ZH":"摩纳哥","LABEL":"","NAME_AR":"موناكو","NAME_BN":"মোনাকো","NAME_EL":"Μονακό","NAME_HI":"मोनैको","NAME_HU":"Monaco","NAME_ID":"Monako","NAME_IT":"Principato di Monaco","NAME_JA":"モナコ","NAME_KO":"모나코","NAME_NL":"Monaco","NAME_PL":"Monako","NAME_SV":"Monaco","NAME_TR":"Monako","NAME_VI":"Monaco","NE_ID":1159149077,"NAME_FA":"موناکو","NAME_HE":"מונקו","NAME_UK":"Монако","NAME_UR":"موناکو","NAME_ZHT":"摩納哥","GEONAMESID":2993458,"FCLASS_ISO":"","FCLASS_US":"","FCLASS_FR":"","FCLASS_RU":"","FCLASS_ES":"","FCLASS_CN":"","FCLASS_TW":"","FCLASS_IN":"","FCLASS_NP":"","FCLASS_PK":"","FCLASS_DE":"","FCLASS_GB":"","FCLASS_BR":"","FCLASS_IL":"","FCLASS_PS":"","FCLASS_SA":"","FCLASS_EG":"","FCLASS_MA":"","FCLASS_PT":"","FCLASS_AR":"","FCLASS_JP":"","FCLASS_KO":"","FCLASS_VN":"","FCLASS_TR":"","FCLASS_ID":"","FCLASS_PL":"","FCLASS_GR":"","FCLASS_IT":"","FCLASS_NL":"","FCLASS_SE":"","FCLASS_BD":"","FCLASS_UA":"","FCLASS_TLC":""}},{"type":"Point","coordinates":[1.5265942551654812,42.5107534941671],"properties":{"SCALERANK":6,"NATSCALE":30,"LABELRANK":0,"FEATURECLA":"Admin-0 capital","NAME":"Andorra","NAMEPAR":"","NAMEALT":"","NAMEASCII":"Andorra","ADM0CAP":1,"CAPIN":"","WORLDCITY":0,"MEGACITY":0,"SOV0NAME":"Andorra","SOV_A3":"AND","ADM0NAME":"Andorra","ADM0_A3":"AND","ADM1NAME":"","ISO_A2":"AD","NOTE":"","LATITUDE":42.500001,"LONGITUDE":1.516486,"POP_MAX":53998,"POP_MIN":22256,"POP_OTHER":53371,"RANK_MAX":8,"RANK_MIN":7,"MEGANAME":"","LS_NAME":"Andorra","MAX_POP10":53998,"MAX_POP20":53998,"MAX_POP50":53998,"MAX_POP300":0,"MAX_POP310":0,"MAX_NATSCA":50,"MIN_AREAKM":23,"MAX_AREAKM":23,"MIN_AREAMI":9,"MAX_AREAMI":9,"MIN_PERKM":49,"MAX_PERKM":49,"MIN_PERMI":31,"MAX_PERMI":31,"MIN_BBXMIN":1.483333,"MAX_BBXMIN":1.483333,"MIN_BBXMAX":1.591667,"MAX_BBXMAX":1.591667,"MIN_BBYMIN":42.483333,"MAX_BBYMIN":42.483333,"MIN_BBYMAX":42.55,"MAX_BBYMAX":42.55,"MEAN_BBXC":1.535473,"MEAN_BBYC":42.518131,"TIMEZONE":"Europe/Madrid","UN_FID":0,"POP1950":0,"POP1955":0,"POP1960":0,"POP1965":0,"POP1970":0,"POP1975":0,"POP1980":0,"POP1985":0,"POP1990":0,"POP1995":0,"POP2000":0,"POP2005":0,"POP2010":0,"POP2015":0,"POP2020":0,"POP2025":0,"POP2050":0,"MIN_ZOOM":6,"WIKIDATAID":"Q1863","WOF_ID":101775449,"CAPALT":0,"NAME_EN":"Andorra la Vella","NAME_DE":"Andorra la Vella","NAME_ES":"Andorra la Vieja","NAME_FR":"Andorre-la-Vieille","NAME_PT":"Andorra-a-Velha","NAME_RU":"Андорра-ла-Велья","NAME_ZH":"安道尔城","LABEL":"","NAME_AR":"أندورا لا فيلا","NAME_BN":"আন্দরা লা ভেলিয়া","NAME_EL":"Ανδόρρα λα Βέλια","NAME_HI":"अण्डोरा ला वेला","NAME_HU":"Andorra la Vella","NAME_ID":"Andorra la Vella","NAME_IT":"Andorra la Vella","NAME_JA":"アンドラ・ラ・ベリャ","NAME_KO":"안도라라베야","NAME_NL":"Andorra la Vella","NAME_PL":"Andora","NAME_SV":"Andorra la Vella","NAME_TR":"Andorra la Vella","NAME_VI":"Andorra la Vella","NE_ID":1159149089,"NAME_FA":"آندورا لاولا","NAME_HE":"אנדורה לה ולה","NAME_UK":"Андорра-ла-Велья","NAME_UR":"انڈورا لا ویلا","NAME_ZHT":"老安道爾","GEONAMESID":3130067,"FCLASS_ISO":"","FCLASS_US":"","FCLASS_FR":"","FCLASS_RU":"","FCLASS_ES":"","FCLASS_CN":"","FCLASS_TW":"","FCLASS_IN":"","FCLASS_NP":"","FCLASS_PK":"","FCLASS_DE":"","FCLASS_GB":"","FCLASS_BR":"","FCLASS_IL":"","FCLASS_PS":"","FCLASS_SA":"","FCLASS_EG":"","FCLASS_MA":"","FCLASS_PT":"","FCLASS_AR":"","FCLASS_JP":"","FCLASS_KO":"","FCLASS_VN":"","FCLASS_TR":"","FCLASS_ID":"","FCLASS_PL":"","FCLASS_GR":"","FCLASS_IT":"","FCLASS_NL":"","FCLASS_SE":"","FCLASS_BD":"","FCLASS_UA":"","FCLASS_TLC":""}},{"type":"Point","coordinates":[4.2699613,52.0800368],"properties":{"SCALERANK":4,"NATSCALE":50,"LABELRANK":8,"FEATURECLA":"Admin-0 capital alt","NAME":"The Hague","NAMEPAR":"","NAMEALT":"","NAMEASCII":"The Hague","ADM0CAP":0,"CAPIN":"Official, legis","WORLDCITY":0,"MEGACITY":0,"SOV0NAME":"Kingdom of the Netherlands","SOV_A3":"NLD","ADM0NAME":"Netherlands","ADM0_A3":"NLD","ADM1NAME":"Zuid-Holland","ISO_A2":"NL","NOTE":"","LATITUDE":52.080037,"LONGITUDE":4.269961,"POP_MAX":1406000,"POP_MIN":501725,"POP_OTHER":688599,"RANK_MAX":12,"RANK_MIN":11,"MEGANAME":"","LS_NAME":"The Hague","MAX_POP10":708489,"MAX_POP20":708489,"MAX_POP50":2312867,"MAX_POP300":0,"MAX_POP310":0,"MAX_NATSCA":50,"MIN_AREAKM":195,"MAX_AREAKM":710,"MIN_AREAMI":75,"MAX_AREAMI":274,"MIN_PERKM":217,"MAX_PERKM":764,"MIN_PERMI":135,"MAX_PERMI":475,"MIN_BBXMIN":4.15,"MAX_BBXMIN":4.15,"MIN_BBXMAX":4.45,"MAX_BBXMAX":4.749141,"MIN_BBYMIN":51.766667,"MAX_BBYMIN":51.958333,"MIN_BBYMAX":52.158333,"MAX_BBYMAX":52.158333,"MEAN_BBXC":4.355912,"MEAN_BBYC":52.021475,"TIMEZONE":"Europe/Amsterdam","UN_FID":0,"POP1950":0,"POP1955":0,"POP1960":0,"POP1965":0,"POP1970":0,"POP1975":0,"POP1980":0,"POP1985":0,"POP1990":0,"POP1995":0,"POP2000":0,"POP2005":0,"POP2010":0,"POP2015":0,"POP2020":0,"POP2025":0,"POP2050":0,"MIN_ZOOM":5.6,"WIKIDATAID":"Q36600","WOF_ID":101752763,"CAPALT":1,"NAME_EN":"The Hague","NAME_DE":"Den Haag","NAME_ES":"La Haya","NAME_FR":"La Haye","NAME_PT":"Haia","NAME_RU":"Гаага","NAME_ZH":"海牙","LABEL":"","NAME_AR":"لاهاي","NAME_BN":"হেগ","NAME_EL":"Χάγη","NAME_HI":"हेग","NAME_HU":"Hága","NAME_ID":"Den Haag","NAME_IT":"L'Aia","NAME_JA":"ハーグ","NAME_KO":"헤이그","NAME_NL":"Den Haag","NAME_PL":"Haga","NAME_SV":"Haag","NAME_TR":"Lahey","NAME_VI":"Den Haag","NE_ID":1159149457,"NAME_FA":"لاهه","NAME_HE":"האג","NAME_UK":"Гаага","NAME_UR":"ہیگ","NAME_ZHT":"海牙","GEONAMESID":2747373,"FCLASS_ISO":"","FCLASS_US":"","FCLASS_FR":"","FCLASS_RU":"","FCLASS_ES":"","FCLASS_CN":"","FCLASS_TW":"","FCLASS_IN":"","FCLASS_NP":"","FCLASS_PK":"","FCLASS_DE":"","FCLASS_GB":"","FCLASS_BR":"","FCLASS_IL":"","FCLASS_PS":"","FCLASS_SA":"","FCLASS_EG":"","FCLASS_MA":"","FCLASS_PT":"","FCLASS_AR":"","FCLASS_JP":"","FCLASS_KO":"","FCLASS_VN":"","FCLASS_TR":"","FCLASS_ID":"","FCLASS_PL":"","FCLASS_GR":"","FCLASS_IT":"","FCLASS_NL":"","FCLASS_SE":"","FCLASS_BD":"","FCLASS_UA":"","FCLASS_TLC":""}},{"type":"Point","coordinates":[14.514969,46.0552883],"properties":{"SCALERANK":4,"NATSCALE":50,"LABELRANK":8,"FEATURECLA":"Admin-0 capital","NAME":"Ljubljana","NAMEPAR":"","NAMEALT":"","NAMEASCII":"Ljubljana","ADM0CAP":1,"CAPIN":"","WORLDCITY":0,"MEGACITY":0,"SOV0NAME":"Slovenia","SOV_A3":"SVN","ADM0NAME":"Slovenia","ADM0_A3":"SVN","ADM1NAME":"Osrednjeslovenska","ISO_A2":"SI","NOTE":"","LATITUDE":46.055288,"LONGITUDE":14.514969,"POP_MAX":314807,"POP_MIN":255115,"POP_OTHER":256316,"RANK_MAX":10,"RANK_MIN":10,"MEGANAME":"","LS_NAME":"Ljubljana","MAX_POP10":314807,"MAX_POP20":314807,"MAX_POP50":314807,"MAX_POP300":314807,"MAX_POP310":0,"MAX_NATSCA":100,"MIN_AREAKM":145,"MAX_AREAKM":145,"MIN_AREAMI":56,"MAX_AREAMI":56,"MIN_PERKM":208,"MAX_PERKM":208,"MIN_PERMI":129,"MAX_PERMI":129,"MIN_BBXMIN":14.433333,"MAX_BBXMIN":14.433333,"MIN_BBXMAX":14.633333,"MAX_BBXMAX":14.633333,"MIN_BBYMIN":46,"MAX_BBYMIN":46,"MIN_BBYMAX":46.241667,"MAX_BBYMAX":46.241667,"MEAN_BBXC":14.541032,"MEAN_BBYC":46.091958,"TIMEZONE":"Europe/Ljubljana","UN_FID":0,"POP1950":0,"POP1955":0,"POP1960":0,"POP1965":0,"POP1970":0,"POP1975":0,"POP1980":0,"POP1985":0,"POP1990":0,"POP1995":0,"POP2000":0,"POP2005":0,"POP2010":0,"POP2015":0,"POP2020":0,"POP2025":0,"POP2050":0,"MIN_ZOOM":5.6,"WIKIDATAID":"Q437","WOF_ID":101752073,"CAPALT":0,"NAME_EN":"Ljubljana","NAME_DE":"Ljubljana","NAME_ES":"Liubliana","NAME_FR":"Ljubljana","NAME_PT":"Liubliana","NAME_RU":"Любляна","NAME_ZH":"卢布尔雅那","LABEL":"","NAME_AR":"ليوبليانا","NAME_BN":"লিউব্লিয়ানা","NAME_EL":"Λιουμπλιάνα","NAME_HI":"लुब्लियाना","NAME_HU":"Ljubljana","NAME_ID":"Ljubljana","NAME_IT":"Lubiana","NAME_JA":"リュブリャナ","NAME_KO":"류블랴나","NAME_NL":"Ljubljana","NAME_PL":"Lublana","NAME_SV":"Ljubljana","NAME_TR":"Ljubljana","NAME_VI":"Ljubljana","NE_ID":1159149461,"NAME_FA":"لیوبلیانا","NAME_HE":"ליובליאנה","NAME_UK":"Любляна","NAME_UR":"لیوبلیانا","NAME_ZHT":"盧比安納","GEONAMESID":3196359,"FCLASS_ISO":"","FCLASS_US":"","FCLASS_FR":"","FCLASS_RU":"","FCLASS_ES":"","FCLASS_CN":"","FCLASS_TW":"","FCLASS_IN":"","FCLASS_NP":"","FCLASS_PK":"","FCLASS_DE":"","FCLASS_GB":"","FCLASS_BR":"","FCLASS_IL":"","FCLASS_PS":"","FCLASS_SA":"","FCLASS_EG":"","FCLASS_MA":"","FCLASS_PT":"","FCLASS_AR":"","FCLASS_JP":"","FCLASS_KO":"","FCLASS_VN":"","FCLASS_TR":"","FCLASS_ID":"","FCLASS_PL":"","FCLASS_GR":"","FCLASS_IT":"","FCLASS_NL":"","FCLASS_SE":"","FCLASS_BD":"","FCLASS_UA":"","FCLASS_TLC":""}},{"type":"Point","coordinates":[17.1169808,48.1500183],"properties":{"SCALERANK":4,"NATSCALE":50,"LABELRANK":7,"FEATURECLA":"Admin-0 capital","NAME":"Bratislava","NAMEPAR":"","NAMEALT":"","NAMEASCII":"Bratislava","ADM0CAP":1,"CAPIN":"","WORLDCITY":0,"MEGACITY":0,"SOV0NAME":"Slovakia","SOV_A3":"SVK","ADM0NAME":"Slovakia","ADM0_A3":"SVK","ADM1NAME":"Bratislavský","ISO_A2":"SK","NOTE":"","LATITUDE":48.150018,"LONGITUDE":17.116981,"POP_MAX":423737,"POP_MIN":373687,"POP_OTHER":361489,"RANK_MAX":10,"RANK_MIN":10,"MEGANAME":"","LS_NAME":"Bratislava","MAX_POP10":373687,"MAX_POP20":373687,"MAX_POP50":373687,"MAX_POP300":373687,"MAX_POP310":0,"MAX_NATSCA":100,"MIN_AREAKM":113,"MAX_AREAKM":113,"MIN_AREAMI":43,"MAX_AREAMI":43,"MIN_PERKM":121,"MAX_PERKM":121,"MIN_PERMI":75,"MAX_PERMI":75,"MIN_BBXMIN":17.016667,"MAX_BBXMIN":17.016667,"MIN_BBXMAX":17.233333,"MAX_BBXMAX":17.233333,"MIN_BBYMIN":48.091667,"MAX_BBYMIN":48.091667,"MIN_BBYMAX":48.225,"MAX_BBYMAX":48.225,"MEAN_BBXC":17.131335,"MEAN_BBYC":48.159311,"TIMEZONE":"Europe/Bratislava","UN_FID":0,"POP1950":0,"POP1955":0,"POP1960":0,"POP1965":0,"POP1970":0,"POP1975":0,"POP1980":0,"POP1985":0,"POP1990":0,"POP1995":0,"POP2000":0,"POP2005":0,"POP2010":0,"POP2015":0,"POP2020":0,"POP2025":0,"POP2050":0,"MIN_ZOOM":5.1,"WIKIDATAID":"Q1780","WOF_ID":101913495,"CAPALT":0,"NAME_EN":"Bratislava","NAME_DE":"Bratislava","NAME_ES":"Bratislava","NAME_FR":"Bratislava","NAME_PT":"Bratislava","NAME_RU":"Братислава","NAME_ZH":"布拉迪斯拉发","LABEL":"","NAME_AR":"براتيسلافا","NAME_BN":"ব্রাতিস্লাভা","NAME_EL":"Μπρατισλάβα","NAME_HI":"ब्रातिस्लावा","NAME_HU":"Pozsony","NAME_ID":"Bratislava","NAME_IT":"Bratislava","NAME_JA":"ブラチスラヴァ","NAME_KO":"브라티슬라바","NAME_NL":"Bratislava","NAME_PL":"Bratysława","NAME_SV":"Bratislava","NAME_TR":"Bratislava","NAME_VI":"Bratislava","NE_ID":1159149463,"NAME_FA":"براتیسلاوا","NAME_HE":"ברטיסלאבה","NAME_UK":"Братислава","NAME_UR":"براٹیسلاوا","NAME_ZHT":"布拉提斯拉瓦","GEONAMESID":3060972,"FCLASS_ISO":"","FCLASS_US":"","FCLASS_FR":"","FCLASS_RU":"","FCLASS_ES":"","FCLASS_CN":"","FCLASS_TW":"","FCLASS_IN":"","FCLASS_NP":"","FCLASS_PK":"","FCLASS_DE":"","FCLASS_GB":"","FCLASS_BR":"","FCLASS_IL":"","FCLASS_PS":"","FCLASS_SA":"","FCLASS_EG":"","FCLASS_MA":"","FCLASS_PT":"","FCLASS_AR":"","FCLASS_JP":"","FCLASS_KO":"","FCLASS_VN":"","FCLASS_TR":"","FCLASS_ID":"","FCLASS_PL":"","FCLASS_GR":"","FCLASS_IT":"","FCLASS_NL":"","FCLASS_SE":"","FCLASS_BD":"","FCLASS_UA":"","FCLASS_TLC":""}},{"type":"Point","coordinates":[19.2663069,42.4659725],"properties":{"SCALERANK":4,"NATSCALE":50,"LABELRANK":8,"FEATURECLA":"Admin-0 capital","NAME":"Podgorica","NAMEPAR":"","NAMEALT":"","NAMEASCII":"Podgorica","ADM0CAP":1,"CAPIN":"","WORLDCITY":0,"MEGACITY":0,"SOV0NAME":"Montenegro","SOV_A3":"MNE","ADM0NAME":"Montenegro","ADM0_A3":"MNE","ADM1NAME":"Podgorica","ISO_A2":"ME","NOTE":"","LATITUDE":42.465973,"LONGITUDE":19.266307,"POP_MAX":145850,"POP_MIN":136473,"POP_OTHER":0,"RANK_MAX":9,"RANK_MIN":9,"MEGANAME":"","LS_NAME":"Podgorica","MAX_POP10":145850,"MAX_POP20":145850,"MAX_POP50":145850,"MAX_POP300":145850,"MAX_POP310":0,"MAX_NATSCA":100,"MIN_AREAKM":41,"MAX_AREAKM":41,"MIN_AREAMI":16,"MAX_AREAMI":16,"MIN_PERKM":44,"MAX_PERKM":44,"MIN_PERMI":27,"MAX_PERMI":27,"MIN_BBXMIN":19.208333,"MAX_BBXMIN":19.208333,"MIN_BBXMAX":19.316667,"MAX_BBXMAX":19.316667,"MIN_BBYMIN":42.408333,"MAX_BBYMIN":42.408333,"MIN_BBYMAX":42.475,"MAX_BBYMAX":42.475,"MEAN_BBXC":19.263397,"MEAN_BBYC":42.442115,"TIMEZONE":"Europe/Podgorica","UN_FID":0,"POP1950":0,"POP1955":0,"POP1960":0,"POP1965":0,"POP1970":0,"POP1975":0,"POP1980":0,"POP1985":0,"POP1990":0,"POP1995":0,"POP2000":0,"POP2005":0,"POP2010":0,"POP2015":0,"POP2020":0,"POP2025":0,"POP2050":0,"MIN_ZOOM":5.6,"WIKIDATAID":"Q23564","WOF_ID":1141909195,"CAPALT":0,"NAME_EN":"Podgorica","NAME_DE":"Podgorica","NAME_ES":"Podgorica","NAME_FR":"Podgorica","NAME_PT":"Podgorica","NAME_RU":"Подгорица","NAME_ZH":"波德戈里察","LABEL":"","NAME_AR":"بودغوريتسا","NAME_BN":"পোডগোরিকা","NAME_EL":"Ποντγκόριτσα","NAME_HI":"पॉडगिरिट्सा","NAME_HU":"Podgorica","NAME_ID":"Podgorica","NAME_IT":"Podgorica","NAME_JA":"ポドゴリツァ","NAME_KO":"포드고리차","NAME_NL":"Podgorica","NAME_PL":"Podgorica","NAME_SV":"Podgorica","NAME_TR":"Podgorica","NAME_VI":"Podgorica","NE_ID":1159149511,"NAME_FA":"پودگوریتسا","NAME_HE":"פודגוריצה","NAME_UK":"Подгориця","NAME_UR":"پوڈگوریکا","NAME_ZHT":"波德里查","GEONAMESID":3193044,"FCLASS_ISO":"","FCLASS_US":"","FCLASS_FR":"","FCLASS_RU":"","FCLASS_ES":"","FCLASS_CN":"","FCLASS_TW":"","FCLASS_IN":"","FCLASS_NP":"","FCLASS_PK":"","FCLASS_DE":"","FCLASS_GB":"","FCLASS_BR":"","FCLASS_IL":"","FCLASS_PS":"","FCLASS_SA":"","FCLASS_EG":"","FCLASS_MA":"","FCLASS_PT":"","FCLASS_AR":"","FCLASS_JP":"","FCLASS_KO":"","FCLASS_VN":"","FCLASS_TR":"","FCLASS_ID":"","FCLASS_PL":"","FCLASS_GR":"","FCLASS_IT":"","FCLASS_NL":"","FCLASS_SE":"","FCLASS_BD":"","FCLASS_UA":"","FCLASS_TLC":""}},{"type":"Point","coordinates":[7.4669755,46.9166828],"properties":{"SCALERANK":4,"NATSCALE":50,"LABELRANK":7,"FEATURECLA":"Admin-0 capital","NAME":"Bern","NAMEPAR":"","NAMEALT":"","NAMEASCII":"Bern","ADM0CAP":1,"CAPIN":"","WORLDCITY":0,"MEGACITY":0,"SOV0NAME":"Switzerland","SOV_A3":"CHE","ADM0NAME":"Switzerland","ADM0_A3":"CHE","ADM1NAME":"Bern","ISO_A2":"CH","NOTE":"","LATITUDE":46.916683,"LONGITUDE":7.466976,"POP_MAX":275329,"POP_MIN":121631,"POP_OTHER":267814,"RANK_MAX":10,"RANK_MIN":9,"MEGANAME":"","LS_NAME":"Bern","MAX_POP10":275329,"MAX_POP20":275329,"MAX_POP50":275329,"MAX_POP300":275329,"MAX_POP310":0,"MAX_NATSCA":100,"MIN_AREAKM":78,"MAX_AREAKM":78,"MIN_AREAMI":30,"MAX_AREAMI":30,"MIN_PERKM":85,"MAX_PERKM":85,"MIN_PERMI":53,"MAX_PERMI":53,"MIN_BBXMIN":7.375,"MAX_BBXMIN":7.375,"MIN_BBXMAX":7.533333,"MAX_BBXMAX":7.533333,"MIN_BBYMIN":46.9,"MAX_BBYMIN":46.9,"MIN_BBYMAX":47.041667,"MAX_BBYMAX":47.041667,"MEAN_BBXC":7.453227,"MEAN_BBYC":46.958239,"TIMEZONE":"Europe/Zurich","UN_FID":0,"POP1950":0,"POP1955":0,"POP1960":0,"POP1965":0,"POP1970":0,"POP1975":0,"POP1980":0,"POP1985":0,"POP1990":0,"POP1995":0,"POP2000":0,"POP2005":0,"POP2010":0,"POP2015":0,"POP2020":0,"POP2025":0,"POP2050":0,"MIN_ZOOM":5.6,"WIKIDATAID":"Q70","WOF_ID":101748453,"CAPALT":0,"NAME_EN":"Bern","NAME_DE":"Bern","NAME_ES":"Berna","NAME_FR":"Berne","NAME_PT":"Berna","NAME_RU":"Берн","NAME_ZH":"伯尔尼","LABEL":"","NAME_AR":"برن","NAME_BN":"বের্ন","NAME_EL":"Βέρνη","NAME_HI":"बर्न","NAME_HU":"Bern","NAME_ID":"Bern","NAME_IT":"Berna","NAME_JA":"ベルン","NAME_KO":"베른","NAME_NL":"Bern","NAME_PL":"Berno","NAME_SV":"Bern","NAME_TR":"Bern","NAME_VI":"Bern","NE_ID":1159149737,"NAME_FA":"برن","NAME_HE":"ברן","NAME_UK":"Берн","NAME_UR":"برن","NAME_ZHT":"伯恩","GEONAMESID":2661552,"FCLASS_ISO":"","FCLASS_US":"","FCLASS_FR":"","FCLASS_RU":"","FCLASS_ES":"","FCLASS_CN":"","FCLASS_TW":"","FCLASS_IN":"","FCLASS_NP":"","FCLASS_PK":"","FCLASS_DE":"","FCLASS_GB":"","FCLASS_BR":"","FCLASS_IL":"","FCLASS_PS":"","FCLASS_SA":"","FCLASS_EG":"","FCLASS_MA":"","FCLASS_PT":"","FCLASS_AR":"","FCLASS_JP":"","FCLASS_KO":"","FCLASS_VN":"","FCLASS_TR":"","FCLASS_ID":"","FCLASS_PL":"","FCLASS_GR":"","FCLASS_IT":"","FCLASS_NL":"","FCLASS_SE":"","FCLASS_BD":"","FCLASS_UA":"","FCLASS_TLC":""}},{"type":"Point","coordinates":[21.1659843,42.6667096],"properties":{"SCALERANK":4,"NATSCALE":50,"LABELRANK":8,"FEATURECLA":"Admin-0 capital","NAME":"Pristina","NAMEPAR":"","NAMEALT":"","NAMEASCII":"Pristina","ADM0CAP":1,"CAPIN":"","WORLDCITY":0,"MEGACITY":0,"SOV0NAME":"Kosovo","SOV_A3":"KOS","ADM0NAME":"Kosovo","ADM0_A3":"KOS","ADM1NAME":"Pristina","ISO_A2":"-99","NOTE":"","LATITUDE":42.66671,"LONGITUDE":21.165984,"POP_MAX":465186,"POP_MIN":198214,"POP_OTHER":261783,"RANK_MAX":10,"RANK_MIN":9,"MEGANAME":"","LS_NAME":"Pristina","MAX_POP10":265361,"MAX_POP20":265361,"MAX_POP50":265361,"MAX_POP300":265361,"MAX_POP310":0,"MAX_NATSCA":100,"MIN_AREAKM":41,"MAX_AREAKM":41,"MIN_AREAMI":16,"MAX_AREAMI":16,"MIN_PERKM":69,"MAX_PERKM":69,"MIN_PERMI":43,"MAX_PERMI":43,"MIN_BBXMIN":21.066667,"MAX_BBXMIN":21.066667,"MIN_BBXMAX":21.208333,"MAX_BBXMAX":21.208333,"MIN_BBYMIN":42.625,"MAX_BBYMIN":42.625,"MIN_BBYMAX":42.733333,"MAX_BBYMAX":42.733333,"MEAN_BBXC":21.146346,"MEAN_BBYC":42.666218,"TIMEZONE":"Europe/Belgrade","UN_FID":0,"POP1950":0,"POP1955":0,"POP1960":0,"POP1965":0,"POP1970":0,"POP1975":0,"POP1980":0,"POP1985":0,"POP1990":0,"POP1995":0,"POP2000":0,"POP2005":0,"POP2010":0,"POP2015":0,"POP2020":0,"POP2025":0,"POP2050":0,"MIN_ZOOM":5.6,"WIKIDATAID":"Q25270","WOF_ID":890492875,"CAPALT":0,"NAME_EN":"Pristina","NAME_DE":"Pristina","NAME_ES":"Pristina","NAME_FR":"Pristina","NAME_PT":"Pristina","NAME_RU":"Приштина","NAME_ZH":"普里什蒂纳","LABEL":"","NAME_AR":"بريشتينا","NAME_BN":"প্রিস্টিনা","NAME_EL":"Πρίστινα","NAME_HI":"प्रिस्टिना","NAME_HU":"Pristina","NAME_ID":"Pristina","NAME_IT":"Pristina","NAME_JA":"プリシュティナ","NAME_KO":"프리슈티나","NAME_NL":"Pristina","NAME_PL":"Prisztina","NAME_SV":"Pristina","NAME_TR":"Priştine","NAME_VI":"Priština","NE_ID":1159149757,"NAME_FA":"پریشتینا","NAME_HE":"פרישטינה","NAME_UK":"Приштина","NAME_UR":"پریسٹینہ","NAME_ZHT":"普里斯提納","GEONAMESID":786714,"FCLASS_ISO":"Admin-1 capital","FCLASS_US":"Admin-0 capital","FCLASS_FR":"Admin-0 capital","FCLASS_RU":"Admin-1 capital","FCLASS_ES":"Admin-1 capital","FCLASS_CN":"Admin-1 capital","FCLASS_TW":"Admin-0 capital","FCLASS_IN":"Admin-1 capital","FCLASS_NP":"Admin-1 capital","FCLASS_PK":"Admin-0 capital","FCLASS_DE":"Admin-0 capital","FCLASS_GB":"Admin-0 capital","FCLASS_BR":"Admin-1 capital","FCLASS_IL":"Admin-0 capital","FCLASS_PS":"Admin-1 capital","FCLASS_SA":"Admin-0 capital","FCLASS_EG":"Admin-0 capital","FCLASS_MA":"Admin-1 capital","FCLASS_PT":"Admin-0 capital","FCLASS_AR":"Admin-1 capital","FCLASS_JP":"Admin-0 capital","FCLASS_KO":"Admin-0 capital","FCLASS_VN":"Admin-1 capital","FCLASS_TR":"Admin-0 capital","FCLASS_ID":"Admin-1 capital","FCLASS_PL":"Admin-0 capital","FCLASS_GR":"Admin-1 capital","FCLASS_IT":"Admin-0 capital","FCLASS_NL":"Admin-0 capital","FCLASS_SE":"Admin-0 capital","FCLASS_BD":"Admin-0 capital","FCLASS_UA":"Admin-1 capital","FCLASS_TLC":"Admin-0 capital"}},{"type":"Point","coordinates":[21.4334615,42.0000061],"properties":{"SCALERANK":4,"NATSCALE":50,"LABELRANK":8,"FEATURECLA":"Admin-0 capital","NAME":"Skopje","NAMEPAR":"","NAMEALT":"","NAMEASCII":"Skopje","ADM0CAP":1,"CAPIN":"","WORLDCITY":0,"MEGACITY":0,"SOV0NAME":"North Macedonia","SOV_A3":"MKD","ADM0NAME":"North Macedonia","ADM0_A3":"MKD","ADM1NAME":"Centar","ISO_A2":"MK","NOTE":"","LATITUDE":42.000006,"LONGITUDE":21.433462,"POP_MAX":494087,"POP_MIN":474889,"POP_OTHER":491890,"RANK_MAX":10,"RANK_MIN":10,"MEGANAME":"","LS_NAME":"Skopje","MAX_POP10":494087,"MAX_POP20":494087,"MAX_POP50":494087,"MAX_POP300":494087,"MAX_POP310":0,"MAX_NATSCA":100,"MIN_AREAKM":114,"MAX_AREAKM":114,"MIN_AREAMI":44,"MAX_AREAMI":44,"MIN_PERKM":98,"MAX_PERKM":98,"MIN_PERMI":61,"MAX_PERMI":61,"MIN_BBXMIN":21.3,"MAX_BBXMIN":21.3,"MIN_BBXMAX":21.533333,"MAX_BBXMAX":21.533333,"MIN_BBYMIN":41.95,"MAX_BBYMIN":41.95,"MIN_BBYMAX":42.066667,"MAX_BBYMAX":42.066667,"MEAN_BBXC":21.430243,"MEAN_BBYC":42.007257,"TIMEZONE":"Europe/Skopje","UN_FID":0,"POP1950":0,"POP1955":0,"POP1960":0,"POP1965":0,"POP1970":0,"POP1975":0,"POP1980":0,"POP1985":0,"POP1990":0,"POP1995":0,"POP2000":0,"POP2005":0,"POP2010":0,"POP2015":0,"POP2020":0,"POP2025":0,"POP2050":0,"MIN_ZOOM":5.6,"WIKIDATAID":"Q384","WOF_ID":890491957,"CAPALT":0,"NAME_EN":"Skopje","NAME_DE":"Skopje","NAME_ES":"Skopie","NAME_FR":"Skopje","NAME_PT":"Skopje","NAME_RU":"Скопье","NAME_ZH":"斯科普里","LABEL":"","NAME_AR":"إسكوبية","NAME_BN":"স্কপিয়ে","NAME_EL":"Σκόπια","NAME_HI":"स्कोपिये","NAME_HU":"Szkopje","NAME_ID":"Skopje","NAME_IT":"Skopje","NAME_JA":"スコピエ","NAME_KO":"스코페","NAME_NL":"Skopje","NAME_PL":"Skopje","NAME_SV":"Skopje","NAME_TR":"Üsküp","NAME_VI":"Skopje","NE_ID":1159150073,"NAME_FA":"اسکوپیه","NAME_HE":"סקופיה","NAME_UK":"Скоп'є","NAME_UR":"اسکوپیہ","NAME_ZHT":"史高比耶","GEONAMESID":785842,"FCLASS_ISO":"","FCLASS_US":"","FCLASS_FR":"","FCLASS_RU":"","FCLASS_ES":"","FCLASS_CN":"","FCLASS_TW":"","FCLASS_IN":"","FCLASS_NP":"","FCLASS_PK":"","FCLASS_DE":"","FCLASS_GB":"","FCLASS_BR":"","FCLASS_IL":"","FCLASS_PS":"","FCLASS_SA":"","FCLASS_EG":"","FCLASS_MA":"","FCLASS_PT":"","FCLASS_AR":"","FCLASS_JP":"","FCLASS_KO":"","FCLASS_VN":"","FCLASS_TR":"","FCLASS_ID":"","FCLASS_PL":"","FCLASS_GR":"","FCLASS_IT":"","FCLASS_NL":"","FCLASS_SE":"","FCLASS_BD":"","FCLASS_UA":"","FCLASS_TLC":""}},{"type":"Point","coordinates":[10.1796781,36.8027781],"properties":{"SCALERANK":3,"NATSCALE":110,"LABELRANK":7,"FEATURECLA":"Admin-0 capital","NAME":"Tunis","NAMEPAR":"","NAMEALT":"","NAMEASCII":"Tunis","ADM0CAP":1,"CAPIN":"","WORLDCITY":0,"MEGACITY":0,"SOV0NAME":"Tunisia","SOV_A3":"TUN","ADM0NAME":"Tunisia","ADM0_A3":"TUN","ADM1NAME":"Tunis","ISO_A2":"TN","NOTE":"","LATITUDE":36.802778,"LONGITUDE":10.179678,"POP_MAX":2412500,"POP_MIN":728453,"POP_OTHER":1675117,"RANK_MAX":12,"RANK_MIN":11,"MEGANAME":"","LS_NAME":"Tunis","MAX_POP10":1831176,"MAX_POP20":1831176,"MAX_POP50":1838972,"MAX_POP300":1838972,"MAX_POP310":0,"MAX_NATSCA":100,"MIN_AREAKM":480,"MAX_AREAKM":502,"MIN_AREAMI":185,"MAX_AREAMI":194,"MIN_PERKM":485,"MAX_PERKM":524,"MIN_PERMI":302,"MAX_PERMI":326,"MIN_BBXMIN":9.95,"MAX_BBXMIN":9.95,"MIN_BBXMAX":10.497585,"MAX_BBXMAX":10.575,"MIN_BBYMIN":36.633333,"MAX_BBYMIN":36.633333,"MIN_BBYMAX":36.966667,"MAX_BBYMAX":36.966667,"MEAN_BBXC":10.202041,"MEAN_BBYC":36.802974,"TIMEZONE":"Africa/Tunis","UN_FID":0,"POP1950":0,"POP1955":0,"POP1960":0,"POP1965":0,"POP1970":0,"POP1975":0,"POP1980":0,"POP1985":0,"POP1990":0,"POP1995":0,"POP2000":0,"POP2005":0,"POP2010":0,"POP2015":0,"POP2020":0,"POP2025":0,"POP2050":0,"MIN_ZOOM":5,"WIKIDATAID":"Q3572","WOF_ID":421195703,"CAPALT":0,"NAME_EN":"Tunis","NAME_DE":"Tunis","NAME_ES":"Túnez","NAME_FR":"Tunis","NAME_PT":"Tunes","NAME_RU":"Тунис","NAME_ZH":"突尼斯","LABEL":"","NAME_AR":"تونس العاصمة","NAME_BN":"তিউনিস","NAME_EL":"Τύνιδα","NAME_HI":"तूनिस","NAME_HU":"Tunisz","NAME_ID":"Tunis","NAME_IT":"Tunisi","NAME_JA":"チュニス","NAME_KO":"튀니스","NAME_NL":"Tunis","NAME_PL":"Tunis","NAME_SV":"Tunis","NAME_TR":"Tunus","NAME_VI":"Tunis","NE_ID":1159150537,"NAME_FA":"تونس","NAME_HE":"תוניס","NAME_UK":"Туніс","NAME_UR":"تونس شہر","NAME_ZHT":"突尼斯市","GEONAMESID":2464470,"FCLASS_ISO":"","FCLASS_US":"","FCLASS_FR":"","FCLASS_RU":"","FCLASS_ES":"","FCLASS_CN":"","FCLASS_TW":"","FCLASS_IN":"","FCLASS_NP":"","FCLASS_PK":"","FCLASS_DE":"","FCLASS_GB":"","FCLASS_BR":"","FCLASS_IL":"","FCLASS_PS":"","FCLASS_SA":"","FCLASS_EG":"","FCLASS_MA":"","FCLASS_PT":"","FCLASS_AR":"","FCLASS_JP":"","FCLASS_KO":"","FCLASS_VN":"","FCLASS_TR":"","FCLASS_ID":"","FCLASS_PL":"","FCLASS_GR":"","FCLASS_IT":"","FCLASS_NL":"","FCLASS_SE":"","FCLASS_BD":"","FCLASS_UA":"","FCLASS_TLC":""}},{"type":"Point","coordinates":[-6.8364082,34.0253073],"properties":{"SCALERANK":3,"NATSCALE":110,"LABELRANK":5,"FEATURECLA":"Admin-0 capital","NAME":"Rabat","NAMEPAR":"","NAMEALT":"","NAMEASCII":"Rabat","ADM0CAP":1,"CAPIN":"","WORLDCITY":0,"MEGACITY":1,"SOV0NAME":"Morocco","SOV_A3":"MAR","ADM0NAME":"Morocco","ADM0_A3":"MAR","ADM1NAME":"Rabat - Salé - Zemmour - Zaer","ISO_A2":"MA","NOTE":"","LATITUDE":34.025307,"LONGITUDE":-6.836408,"POP_MAX":1705000,"POP_MIN":1655753,"POP_OTHER":2029349,"RANK_MAX":12,"RANK_MIN":12,"MEGANAME":"Rabat","LS_NAME":"Rabat","MAX_POP10":2037124,"MAX_POP20":2037124,"MAX_POP50":2037124,"MAX_POP300":2037124,"MAX_POP310":0,"MAX_NATSCA":100,"MIN_AREAKM":428,"MAX_AREAKM":428,"MIN_AREAMI":165,"MAX_AREAMI":165,"MIN_PERKM":475,"MAX_PERKM":475,"MIN_PERMI":295,"MAX_PERMI":295,"MIN_BBXMIN":-7.116667,"MAX_BBXMIN":-7.116667,"MIN_BBXMAX":-6.725,"MAX_BBXMAX":-6.725,"MIN_BBYMIN":33.741667,"MAX_BBYMIN":33.741667,"MIN_BBYMAX":34.125,"MAX_BBYMAX":34.125,"MEAN_BBXC":-6.87491,"MEAN_BBYC":33.912847,"TIMEZONE":"Africa/Casablanca","UN_FID":375,"POP1950":145,"POP1955":184,"POP1960":233,"POP1965":339,"POP1970":494,"POP1975":641,"POP1980":808,"POP1985":986,"POP1990":1174,"POP1995":1379,"POP2000":1507,"POP2005":1647,"POP2010":1705,"POP2015":1793,"POP2020":1938,"POP2025":2083,"POP2050":2222,"MIN_ZOOM":5,"WIKIDATAID":"Q3551","WOF_ID":890444507,"CAPALT":0,"NAME_EN":"Rabat","NAME_DE":"Rabat","NAME_ES":"Rabat","NAME_FR":"Rabat","NAME_PT":"Rabat","NAME_RU":"Рабат","NAME_ZH":"拉巴特","LABEL":"","NAME_AR":"الرباط","NAME_BN":"রাবাত","NAME_EL":"Ραμπάτ","NAME_HI":"रबात","NAME_HU":"Rabat","NAME_ID":"Rabat","NAME_IT":"Rabat","NAME_JA":"ラバト","NAME_KO":"라바트","NAME_NL":"Rabat","NAME_PL":"Rabat","NAME_SV":"Rabat","NAME_TR":"Rabat","NAME_VI":"Rabat","NE_ID":1159150673,"NAME_FA":"رباط","NAME_HE":"רבאט","NAME_UK":"Рабат","NAME_UR":"رباط","NAME_ZHT":"拉巴特","GEONAMESID":2538475,"FCLASS_ISO":"","FCLASS_US":"","FCLASS_FR":"","FCLASS_RU":"","FCLASS_ES":"","FCLASS_CN":"","FCLASS_TW":"","FCLASS_IN":"","FCLASS_NP":"","FCLASS_PK":"","FCLASS_DE":"","FCLASS_GB":"","FCLASS_BR":"","FCLASS_IL":"","FCLASS_PS":"","FCLASS_SA":"","FCLASS_EG":"","FCLASS_MA":"","FCLASS_PT":"","FCLASS_AR":"","FCLASS_JP":"","FCLASS_KO":"","FCLASS_VN":"","FCLASS_TR":"","FCLASS_ID":"","FCLASS_PL":"","FCLASS_GR":"","FCLASS_IT":"","FCLASS_NL":"","FCLASS_SE":"","FCLASS_BD":"","FCLASS_UA":"","FCLASS_TLC":""}},{"type":"Point","coordinates":[28.8577111,47.0050236],"properties":{"SCALERANK":3,"NATSCALE":110,"LABELRANK":8,"FEATURECLA":"Admin-0 capital","NAME":"Chișinău","NAMEPAR":"","NAMEALT":"","NAMEASCII":"Chisinau","ADM0CAP":1,"CAPIN":"","WORLDCITY":0,"MEGACITY":0,"SOV0NAME":"Moldova","SOV_A3":"MDA","ADM0NAME":"Moldova","ADM0_A3":"MDA","ADM1NAME":"Chisinau","ISO_A2":"MD","NOTE":"","LATITUDE":47.005024,"LONGITUDE":28.857711,"POP_MAX":688134,"POP_MIN":635994,"POP_OTHER":664472,"RANK_MAX":11,"RANK_MIN":11,"MEGANAME":"","LS_NAME":"Chisinau","MAX_POP10":688134,"MAX_POP20":688134,"MAX_POP50":688134,"MAX_POP300":688134,"MAX_POP310":0,"MAX_NATSCA":100,"MIN_AREAKM":109,"MAX_AREAKM":109,"MIN_AREAMI":42,"MAX_AREAMI":42,"MIN_PERKM":85,"MAX_PERKM":85,"MIN_PERMI":53,"MAX_PERMI":53,"MIN_BBXMIN":28.741667,"MAX_BBXMIN":28.741667,"MIN_BBXMAX":28.925,"MAX_BBXMAX":28.925,"MIN_BBYMIN":46.95,"MAX_BBYMIN":46.95,"MIN_BBYMAX":47.075,"MAX_BBYMAX":47.075,"MEAN_BBXC":28.840203,"MEAN_BBYC":47.017185,"TIMEZONE":"Europe/Chisinau","UN_FID":0,"POP1950":0,"POP1955":0,"POP1960":0,"POP1965":0,"POP1970":0,"POP1975":0,"POP1980":0,"POP1985":0,"POP1990":0,"POP1995":0,"POP2000":0,"POP2005":0,"POP2010":0,"POP2015":0,"POP2020":0,"POP2025":0,"POP2050":0,"MIN_ZOOM":5,"WIKIDATAID":"Q21197","WOF_ID":101751793,"CAPALT":0,"NAME_EN":"Chișinău","NAME_DE":"Chișinău","NAME_ES":"Chisináu","NAME_FR":"Chișinău","NAME_PT":"Chișinău","NAME_RU":"Кишинёв","NAME_ZH":"基希讷乌","LABEL":"","NAME_AR":"كيشيناو","NAME_BN":"কিশিনাউ","NAME_EL":"Κισινάου","NAME_HI":"चिशिनाउ","NAME_HU":"Chișinău","NAME_ID":"Kishinev","NAME_IT":"Chișinău","NAME_JA":"キシナウ","NAME_KO":"키시너우","NAME_NL":"Chisinau","NAME_PL":"Kiszyniów","NAME_SV":"Chișinău","NAME_TR":"Kişinev","NAME_VI":"Chișinău","NE_ID":1159150677,"NAME_FA":"کیشیناو","NAME_HE":"קישינב","NAME_UK":"Кишинів","NAME_UR":"کیشیناو","NAME_ZHT":"基希涅夫","GEONAMESID":618426,"FCLASS_ISO":"","FCLASS_US":"","FCLASS_FR":"","FCLASS_RU":"","FCLASS_ES":"","FCLASS_CN":"","FCLASS_TW":"","FCLASS_IN":"","FCLASS_NP":"","FCLASS_PK":"","FCLASS_DE":"","FCLASS_GB":"","FCLASS_BR":"","FCLASS_IL":"","FCLASS_PS":"","FCLASS_SA":"","FCLASS_EG":"","FCLASS_MA":"","FCLASS_PT":"","FCLASS_AR":"","FCLASS_JP":"","FCLASS_KO":"","FCLASS_VN":"","FCLASS_TR":"","FCLASS_ID":"","FCLASS_PL":"","FCLASS_GR":"","FCLASS_IT":"","FCLASS_NL":"","FCLASS_SE":"","FCLASS_BD":"","FCLASS_UA":"","FCLASS_TLC":""}},{"type":"Point","coordinates":[25.3166353,54.6833663],"properties":{"SCALERANK":3,"NATSCALE":110,"LABELRANK":8,"FEATURECLA":"Admin-0 capital","NAME":"Vilnius","NAMEPAR":"","NAMEALT":"","NAMEASCII":"Vilnius","ADM0CAP":1,"CAPIN":"","WORLDCITY":0,"MEGACITY":0,"SOV0NAME":"Lithuania","SOV_A3":"LTU","ADM0NAME":"Lithuania","ADM0_A3":"LTU","ADM1NAME":"Vilniaus","ISO_A2":"LT","NOTE":"","LATITUDE":54.683366,"LONGITUDE":25.316635,"POP_MAX":542366,"POP_MIN":507029,"POP_OTHER":494356,"RANK_MAX":11,"RANK_MIN":11,"MEGANAME":"","LS_NAME":"Vilnius","MAX_POP10":507029,"MAX_POP20":507029,"MAX_POP50":507029,"MAX_POP300":507029,"MAX_POP310":0,"MAX_NATSCA":100,"MIN_AREAKM":126,"MAX_AREAKM":126,"MIN_AREAMI":49,"MAX_AREAMI":49,"MIN_PERKM":162,"MAX_PERKM":162,"MIN_PERMI":101,"MAX_PERMI":101,"MIN_BBXMIN":25.166667,"MAX_BBXMIN":25.166667,"MIN_BBXMAX":25.391667,"MAX_BBXMAX":25.391667,"MIN_BBYMIN":54.575,"MAX_BBYMIN":54.575,"MIN_BBYMAX":54.775,"MAX_BBYMAX":54.775,"MEAN_BBXC":25.259623,"MEAN_BBYC":54.692063,"TIMEZONE":"Europe/Vilnius","UN_FID":0,"POP1950":0,"POP1955":0,"POP1960":0,"POP1965":0,"POP1970":0,"POP1975":0,"POP1980":0,"POP1985":0,"POP1990":0,"POP1995":0,"POP2000":0,"POP2005":0,"POP2010":0,"POP2015":0,"POP2020":0,"POP2025":0,"POP2050":0,"MIN_ZOOM":5,"WIKIDATAID":"Q216","WOF_ID":101753031,"CAPALT":0,"NAME_EN":"Vilnius","NAME_DE":"Vilnius","NAME_ES":"Vilna","NAME_FR":"Vilnius","NAME_PT":"Vilnius","NAME_RU":"Вильнюс","NAME_ZH":"维尔纽斯","LABEL":"","NAME_AR":"فيلنيوس","NAME_BN":"ভিলনিয়াস","NAME_EL":"Βίλνιους","NAME_HI":"विल्नुस","NAME_HU":"Vilnius","NAME_ID":"Vilnius","NAME_IT":"Vilnius","NAME_JA":"ヴィリニュス","NAME_KO":"빌뉴스","NAME_NL":"Vilnius","NAME_PL":"Wilno","NAME_SV":"Vilnius","NAME_TR":"Vilnius","NAME_VI":"Vilnius","NE_ID":1159150809,"NAME_FA":"ویلنیوس","NAME_HE":"וילנה","NAME_UK":"Вільнюс","NAME_UR":"ولنیس","NAME_ZHT":"維爾紐斯","GEONAMESID":593116,"FCLASS_ISO":"","FCLASS_US":"","FCLASS_FR":"","FCLASS_RU":"","FCLASS_ES":"","FCLASS_CN":"","FCLASS_TW":"","FCLASS_IN":"","FCLASS_NP":"","FCLASS_PK":"","FCLASS_DE":"","FCLASS_GB":"","FCLASS_BR":"","FCLASS_IL":"","FCLASS_PS":"","FCLASS_SA":"","FCLASS_EG":"","FCLASS_MA":"","FCLASS_PT":"","FCLASS_AR":"","FCLASS_JP":"","FCLASS_KO":"","FCLASS_VN":"","FCLASS_TR":"","FCLASS_ID":"","FCLASS_PL":"","FCLASS_GR":"","FCLASS_IT":"","FCLASS_NL":"","FCLASS_SE":"","FCLASS_BD":"","FCLASS_UA":"","FCLASS_TLC":""}},{"type":"Point","coordinates":[24.0999654,56.9500238],"properties":{"SCALERANK":3,"NATSCALE":110,"LABELRANK":8,"FEATURECLA":"Admin-0 capital","NAME":"Riga","NAMEPAR":"","NAMEALT":"","NAMEASCII":"Riga","ADM0CAP":1,"CAPIN":"","WORLDCITY":0,"MEGACITY":0,"SOV0NAME":"Latvia","SOV_A3":"LVA","ADM0NAME":"Latvia","ADM0_A3":"LVA","ADM1NAME":"Riga","ISO_A2":"LV","NOTE":"","LATITUDE":56.950024,"LONGITUDE":24.099965,"POP_MAX":742572,"POP_MIN":705033,"POP_OTHER":0,"RANK_MAX":11,"RANK_MIN":11,"MEGANAME":"","LS_NAME":"Riga","MAX_POP10":705033,"MAX_POP20":705033,"MAX_POP50":705033,"MAX_POP300":705033,"MAX_POP310":0,"MAX_NATSCA":100,"MIN_AREAKM":171,"MAX_AREAKM":171,"MIN_AREAMI":66,"MAX_AREAMI":66,"MIN_PERKM":173,"MAX_PERKM":173,"MIN_PERMI":108,"MAX_PERMI":108,"MIN_BBXMIN":23.975,"MAX_BBXMIN":23.975,"MIN_BBXMAX":24.266667,"MAX_BBXMAX":24.266667,"MIN_BBYMIN":56.875,"MAX_BBYMIN":56.875,"MIN_BBYMAX":57.083333,"MAX_BBYMAX":57.083333,"MEAN_BBXC":24.127656,"MEAN_BBYC":56.953571,"TIMEZONE":"Europe/Riga","UN_FID":0,"POP1950":0,"POP1955":0,"POP1960":0,"POP1965":0,"POP1970":0,"POP1975":0,"POP1980":0,"POP1985":0,"POP1990":0,"POP1995":0,"POP2000":0,"POP2005":0,"POP2010":0,"POP2015":0,"POP2020":0,"POP2025":0,"POP2050":0,"MIN_ZOOM":4,"WIKIDATAID":"Q1773","WOF_ID":101751789,"CAPALT":0,"NAME_EN":"Riga","NAME_DE":"Riga","NAME_ES":"Riga","NAME_FR":"Riga","NAME_PT":"Riga","NAME_RU":"Рига","NAME_ZH":"里加","LABEL":"","NAME_AR":"ريغا","NAME_BN":"রিগা","NAME_EL":"Ρίγα","NAME_HI":"रीगा","NAME_HU":"Riga","NAME_ID":"Riga","NAME_IT":"Riga","NAME_JA":"リガ","NAME_KO":"리가","NAME_NL":"Riga","NAME_PL":"Ryga","NAME_SV":"Riga","NAME_TR":"Riga","NAME_VI":"Riga","NE_ID":1159150811,"NAME_FA":"ریگا","NAME_HE":"ריגה","NAME_UK":"Рига","NAME_UR":"ریگا","NAME_ZHT":"裏加","GEONAMESID":456172,"FCLASS_ISO":"","FCLASS_US":"","FCLASS_FR":"","FCLASS_RU":"","FCLASS_ES":"","FCLASS_CN":"","FCLASS_TW":"","FCLASS_IN":"","FCLASS_NP":"","FCLASS_PK":"","FCLASS_DE":"","FCLASS_GB":"","FCLASS_BR":"","FCLASS_IL":"","FCLASS_PS":"","FCLASS_SA":"","FCLASS_EG":"","FCLASS_MA":"","FCLASS_PT":"","FCLASS_AR":"","FCLASS_JP":"","FCLASS_KO":"","FCLASS_VN":"","FCLASS_TR":"","FCLASS_ID":"","FCLASS_PL":"","FCLASS_GR":"","FCLASS_IT":"","FCLASS_NL":"","FCLASS_SE":"","FCLASS_BD":"","FCLASS_UA":"","FCLASS_TLC":""}},{"type":"Point","coordinates":[15.9999947,45.8000067],"properties":{"SCALERANK":3,"NATSCALE":110,"LABELRANK":8,"FEATURECLA":"Admin-0 capital","NAME":"Zagreb","NAMEPAR":"","NAMEALT":"","NAMEASCII":"Zagreb","ADM0CAP":1,"CAPIN":"","WORLDCITY":0,"MEGACITY":0,"SOV0NAME":"Croatia","SOV_A3":"HRV","ADM0NAME":"Croatia","ADM0_A3":"HRV","ADM1NAME":"Grad Zagreb","ISO_A2":"HR","NOTE":"","LATITUDE":45.800007,"LONGITUDE":15.999995,"POP_MAX":722526,"POP_MIN":698966,"POP_OTHER":690638,"RANK_MAX":11,"RANK_MIN":11,"MEGANAME":"","LS_NAME":"Zagreb","MAX_POP10":722526,"MAX_POP20":722526,"MAX_POP50":722526,"MAX_POP300":722526,"MAX_POP310":0,"MAX_NATSCA":100,"MIN_AREAKM":244,"MAX_AREAKM":244,"MIN_AREAMI":94,"MAX_AREAMI":94,"MIN_PERKM":223,"MAX_PERKM":223,"MIN_PERMI":138,"MAX_PERMI":138,"MIN_BBXMIN":15.825,"MAX_BBXMIN":15.825,"MIN_BBXMAX":16.191667,"MAX_BBXMAX":16.191667,"MIN_BBYMIN":45.683333,"MAX_BBYMIN":45.683333,"MIN_BBYMAX":45.908333,"MAX_BBYMAX":45.908333,"MEAN_BBXC":16.005419,"MEAN_BBYC":45.803305,"TIMEZONE":"Europe/Zagreb","UN_FID":0,"POP1950":0,"POP1955":0,"POP1960":0,"POP1965":0,"POP1970":0,"POP1975":0,"POP1980":0,"POP1985":0,"POP1990":0,"POP1995":0,"POP2000":0,"POP2005":0,"POP2010":0,"POP2015":0,"POP2020":0,"POP2025":0,"POP2050":0,"MIN_ZOOM":5,"WIKIDATAID":"Q1435","WOF_ID":101751659,"CAPALT":0,"NAME_EN":"Zagreb","NAME_DE":"Zagreb","NAME_ES":"Zagreb","NAME_FR":"Zagreb","NAME_PT":"Zagreb","NAME_RU":"Загреб","NAME_ZH":"萨格勒布","LABEL":"","NAME_AR":"زغرب","NAME_BN":"জাগরেব","NAME_EL":"Ζάγκρεμπ","NAME_HI":"ज़ाग्रेब","NAME_HU":"Zágráb","NAME_ID":"Zagreb","NAME_IT":"Zagabria","NAME_JA":"ザグレブ","NAME_KO":"자그레브","NAME_NL":"Zagreb","NAME_PL":"Zagrzeb","NAME_SV":"Zagreb","NAME_TR":"Zagreb","NAME_VI":"Zagreb","NE_ID":1159150875,"NAME_FA":"زاگرب","NAME_HE":"זאגרב","NAME_UK":"Загреб","NAME_UR":"زگریب","NAME_ZHT":"札格雷布","GEONAMESID":3186886,"FCLASS_ISO":"","FCLASS_US":"","FCLASS_FR":"","FCLASS_RU":"","FCLASS_ES":"","FCLASS_CN":"","FCLASS_TW":"","FCLASS_IN":"","FCLASS_NP":"","FCLASS_PK":"","FCLASS_DE":"","FCLASS_GB":"","FCLASS_BR":"","FCLASS_IL":"","FCLASS_PS":"","FCLASS_SA":"","FCLASS_EG":"","FCLASS_MA":"","FCLASS_PT":"","FCLASS_AR":"","FCLASS_JP":"","FCLASS_KO":"","FCLASS_VN":"","FCLASS_TR":"","FCLASS_ID":"","FCLASS_PL":"","FCLASS_GR":"","FCLASS_IT":"","FCLASS_NL":"","FCLASS_SE":"","FCLASS_BD":"","FCLASS_UA":"","FCLASS_TLC":""}},{"type":"Point","coordinates":[24.7280407,59.4338774],"properties":{"SCALERANK":3,"NATSCALE":110,"LABELRANK":8,"FEATURECLA":"Admin-0 capital","NAME":"Tallinn","NAMEPAR":"","NAMEALT":"","NAMEASCII":"Tallinn","ADM0CAP":1,"CAPIN":"","WORLDCITY":0,"MEGACITY":0,"SOV0NAME":"Estonia","SOV_A3":"EST","ADM0NAME":"Estonia","ADM0_A3":"EST","ADM1NAME":"Harju","ISO_A2":"EE","NOTE":"","LATITUDE":59.433877,"LONGITUDE":24.728041,"POP_MAX":394024,"POP_MIN":340027,"POP_OTHER":317949,"RANK_MAX":10,"RANK_MIN":10,"MEGANAME":"","LS_NAME":"Tallinn","MAX_POP10":340027,"MAX_POP20":340027,"MAX_POP50":340027,"MAX_POP300":340027,"MAX_POP310":0,"MAX_NATSCA":100,"MIN_AREAKM":130,"MAX_AREAKM":130,"MIN_AREAMI":50,"MAX_AREAMI":50,"MIN_PERKM":164,"MAX_PERKM":164,"MIN_PERMI":102,"MAX_PERMI":102,"MIN_BBXMIN":24.591667,"MAX_BBXMIN":24.591667,"MIN_BBXMAX":24.916667,"MAX_BBXMAX":24.916667,"MIN_BBYMIN":59.333333,"MAX_BBYMIN":59.333333,"MIN_BBYMAX":59.525,"MAX_BBYMAX":59.525,"MEAN_BBXC":24.746591,"MEAN_BBYC":59.42709,"TIMEZONE":"Europe/Tallinn","UN_FID":0,"POP1950":0,"POP1955":0,"POP1960":0,"POP1965":0,"POP1970":0,"POP1975":0,"POP1980":0,"POP1985":0,"POP1990":0,"POP1995":0,"POP2000":0,"POP2005":0,"POP2010":0,"POP2015":0,"POP2020":0,"POP2025":0,"POP2050":0,"MIN_ZOOM":5,"WIKIDATAID":"Q1770","WOF_ID":101748153,"CAPALT":0,"NAME_EN":"Tallinn","NAME_DE":"Tallinn","NAME_ES":"Tallin","NAME_FR":"Tallinn","NAME_PT":"Tallinn","NAME_RU":"Таллин","NAME_ZH":"塔林","LABEL":"","NAME_AR":"تالين","NAME_BN":"তালিন","NAME_EL":"Τάλιν","NAME_HI":"ताल्लिन","NAME_HU":"Tallinn","NAME_ID":"Tallinn","NAME_IT":"Tallinn","NAME_JA":"タリン","NAME_KO":"탈린","NAME_NL":"Tallinn","NAME_PL":"Tallinn","NAME_SV":"Tallinn","NAME_TR":"Tallinn","NAME_VI":"Tallinn","NE_ID":1159150877,"NAME_FA":"تالین","NAME_HE":"טאלין","NAME_UK":"Таллінн","NAME_UR":"ٹالن","NAME_ZHT":"塔林","GEONAMESID":588409,"FCLASS_ISO":"","FCLASS_US":"","FCLASS_FR":"","FCLASS_RU":"","FCLASS_ES":"","FCLASS_CN":"","FCLASS_TW":"","FCLASS_IN":"","FCLASS_NP":"","FCLASS_PK":"","FCLASS_DE":"","FCLASS_GB":"","FCLASS_BR":"","FCLASS_IL":"","FCLASS_PS":"","FCLASS_SA":"","FCLASS_EG":"","FCLASS_MA":"","FCLASS_PT":"","FCLASS_AR":"","FCLASS_JP":"","FCLASS_KO":"","FCLASS_VN":"","FCLASS_TR":"","FCLASS_ID":"","FCLASS_PL":"","FCLASS_GR":"","FCLASS_IT":"","FCLASS_NL":"","FCLASS_SE":"","FCLASS_BD":"","FCLASS_UA":"","FCLASS_TLC":""}},{"type":"Point","coordinates":[20.4660448,44.8205913],"properties":{"SCALERANK":3,"NATSCALE":110,"LABELRANK":8,"FEATURECLA":"Admin-0 capital","NAME":"Belgrade","NAMEPAR":"Beograd","NAMEALT":"","NAMEASCII":"Belgrade","ADM0CAP":1,"CAPIN":"","WORLDCITY":0,"MEGACITY":1,"SOV0NAME":"Republic of Serbia","SOV_A3":"SRB","ADM0NAME":"Serbia","ADM0_A3":"SRB","ADM1NAME":"Grad Beograd","ISO_A2":"RS","NOTE":"","LATITUDE":44.820591,"LONGITUDE":20.466045,"POP_MAX":1099000,"POP_MIN":1099000,"POP_OTHER":1271541,"RANK_MAX":12,"RANK_MIN":12,"MEGANAME":"Beograd","LS_NAME":"Belgrade","MAX_POP10":1291613,"MAX_POP20":1291613,"MAX_POP50":1291613,"MAX_POP300":1291613,"MAX_POP310":0,"MAX_NATSCA":100,"MIN_AREAKM":209,"MAX_AREAKM":209,"MIN_AREAMI":81,"MAX_AREAMI":81,"MIN_PERKM":184,"MAX_PERKM":184,"MIN_PERMI":114,"MAX_PERMI":114,"MIN_BBXMIN":20.316667,"MAX_BBXMIN":20.316667,"MIN_BBXMAX":20.575,"MAX_BBXMAX":20.575,"MIN_BBYMIN":44.691667,"MAX_BBYMIN":44.691667,"MIN_BBYMAX":44.9,"MAX_BBYMAX":44.9,"MEAN_BBXC":20.449561,"MEAN_BBYC":44.794615,"TIMEZONE":"Europe/Belgrade","UN_FID":448,"POP1950":411,"POP1955":501,"POP1960":576,"POP1965":649,"POP1970":729,"POP1975":873,"POP1980":1057,"POP1985":1121,"POP1990":1162,"POP1995":1149,"POP2000":1127,"POP2005":1106,"POP2010":1099,"POP2015":1096,"POP2020":1108,"POP2025":1132,"POP2050":1163,"MIN_ZOOM":5,"WIKIDATAID":"Q3711","WOF_ID":890476941,"CAPALT":0,"NAME_EN":"Belgrade","NAME_DE":"Belgrad","NAME_ES":"Belgrado","NAME_FR":"Belgrade","NAME_PT":"Belgrado","NAME_RU":"Белград","NAME_ZH":"贝尔格莱德","LABEL":"","NAME_AR":"بلغراد","NAME_BN":"বেলগ্রেড","NAME_EL":"Βελιγράδι","NAME_HI":"बॅलग्रेड","NAME_HU":"Belgrád","NAME_ID":"Beograd","NAME_IT":"Belgrado","NAME_JA":"ベオグラード","NAME_KO":"베오그라드","NAME_NL":"Belgrado","NAME_PL":"Belgrad","NAME_SV":"Belgrad","NAME_TR":"Belgrad","NAME_VI":"Beograd","NE_ID":1159151079,"NAME_FA":"بلگراد","NAME_HE":"בלגרד","NAME_UK":"Белград","NAME_UR":"بلغراد","NAME_ZHT":"貝爾格勒","GEONAMESID":792680,"FCLASS_ISO":"","FCLASS_US":"","FCLASS_FR":"","FCLASS_RU":"","FCLASS_ES":"","FCLASS_CN":"","FCLASS_TW":"","FCLASS_IN":"","FCLASS_NP":"","FCLASS_PK":"","FCLASS_DE":"","FCLASS_GB":"","FCLASS_BR":"","FCLASS_IL":"","FCLASS_PS":"","FCLASS_SA":"","FCLASS_EG":"","FCLASS_MA":"","FCLASS_PT":"","FCLASS_AR":"","FCLASS_JP":"","FCLASS_KO":"","FCLASS_VN":"","FCLASS_TR":"","FCLASS_ID":"","FCLASS_PL":"","FCLASS_GR":"","FCLASS_IT":"","FCLASS_NL":"","FCLASS_SE":"","FCLASS_BD":"","FCLASS_UA":"","FCLASS_TLC":""}},{"type":"Point","coordinates":[19.818883,41.3275407],"properties":{"SCALERANK":3,"NATSCALE":110,"LABELRANK":8,"FEATURECLA":"Admin-0 capital","NAME":"Tirana","NAMEPAR":"","NAMEALT":"","NAMEASCII":"Tirana","ADM0CAP":1,"CAPIN":"","WORLDCITY":0,"MEGACITY":0,"SOV0NAME":"Albania","SOV_A3":"ALB","ADM0NAME":"Albania","ADM0_A3":"ALB","ADM1NAME":"Durrës","ISO_A2":"AL","NOTE":"","LATITUDE":41.327541,"LONGITUDE":19.818883,"POP_MAX":895350,"POP_MIN":421286,"POP_OTHER":517792,"RANK_MAX":11,"RANK_MIN":10,"MEGANAME":"","LS_NAME":"Tirana","MAX_POP10":530241,"MAX_POP20":530241,"MAX_POP50":530241,"MAX_POP300":530241,"MAX_POP310":0,"MAX_NATSCA":100,"MIN_AREAKM":74,"MAX_AREAKM":74,"MIN_AREAMI":28,"MAX_AREAMI":28,"MIN_PERKM":80,"MAX_PERKM":80,"MIN_PERMI":50,"MAX_PERMI":50,"MIN_BBXMIN":19.733333,"MAX_BBXMIN":19.733333,"MIN_BBXMAX":19.875,"MAX_BBXMAX":19.875,"MIN_BBYMIN":41.275,"MAX_BBYMIN":41.275,"MIN_BBYMAX":41.4,"MAX_BBYMAX":41.4,"MEAN_BBXC":19.805556,"MEAN_BBYC":41.339474,"TIMEZONE":"Europe/Tirane","UN_FID":0,"POP1950":0,"POP1955":0,"POP1960":0,"POP1965":0,"POP1970":0,"POP1975":0,"POP1980":0,"POP1985":0,"POP1990":0,"POP1995":0,"POP2000":0,"POP2005":0,"POP2010":0,"POP2015":0,"POP2020":0,"POP2025":0,"POP2050":0,"MIN_ZOOM":5,"WIKIDATAID":"Q19689","WOF_ID":890444545,"CAPALT":0,"NAME_EN":"Tirana","NAME_DE":"Tirana","NAME_ES":"Tirana","NAME_FR":"Tirana","NAME_PT":"Tirana","NAME_RU":"Тирана","NAME_ZH":"地拉那","LABEL":"","NAME_AR":"تيرانا","NAME_BN":"তিরানা","NAME_EL":"Τίρανα","NAME_HI":"तिराना","NAME_HU":"Tirana","NAME_ID":"Tirana","NAME_IT":"Tirana","NAME_JA":"ティラナ","NAME_KO":"티라나","NAME_NL":"Tirana","NAME_PL":"Tirana","NAME_SV":"Tirana","NAME_TR":"Tiran","NAME_VI":"Tirana","NE_ID":1159151117,"NAME_FA":"تیرانا","NAME_HE":"טירנה","NAME_UK":"Тирана","NAME_UR":"تیرانا","NAME_ZHT":"地拉那","GEONAMESID":3183875,"FCLASS_ISO":"","FCLASS_US":"","FCLASS_FR":"","FCLASS_RU":"","FCLASS_ES":"","FCLASS_CN":"","FCLASS_TW":"","FCLASS_IN":"","FCLASS_NP":"","FCLASS_PK":"","FCLASS_DE":"","FCLASS_GB":"","FCLASS_BR":"","FCLASS_IL":"","FCLASS_PS":"","FCLASS_SA":"","FCLASS_EG":"","FCLASS_MA":"","FCLASS_PT":"","FCLASS_AR":"","FCLASS_JP":"","FCLASS_KO":"","FCLASS_VN":"","FCLASS_TR":"","FCLASS_ID":"","FCLASS_PL":"","FCLASS_GR":"","FCLASS_IT":"","FCLASS_NL":"","FCLASS_SE":"","FCLASS_BD":"","FCLASS_UA":"","FCLASS_TLC":""}},{"type":"Point","coordinates":[23.3147082,42.6852953],"properties":{"SCALERANK":3,"NATSCALE":110,"LABELRANK":7,"FEATURECLA":"Admin-0 capital","NAME":"Sofia","NAMEPAR":"","NAMEALT":"","NAMEASCII":"Sofia","ADM0CAP":1,"CAPIN":"","WORLDCITY":0,"MEGACITY":1,"SOV0NAME":"Bulgaria","SOV_A3":"BGR","ADM0NAME":"Bulgaria","ADM0_A3":"BGR","ADM1NAME":"Grad Sofiya","ISO_A2":"BG","NOTE":"","LATITUDE":42.685295,"LONGITUDE":23.314708,"POP_MAX":1185000,"POP_MIN":874827,"POP_OTHER":871735,"RANK_MAX":12,"RANK_MIN":11,"MEGANAME":"Sofia","LS_NAME":"Sofia","MAX_POP10":874827,"MAX_POP20":874827,"MAX_POP50":874827,"MAX_POP300":874827,"MAX_POP310":0,"MAX_NATSCA":100,"MIN_AREAKM":217,"MAX_AREAKM":217,"MIN_AREAMI":84,"MAX_AREAMI":84,"MIN_PERKM":174,"MAX_PERKM":174,"MIN_PERMI":108,"MAX_PERMI":108,"MIN_BBXMIN":23.208333,"MAX_BBXMIN":23.208333,"MIN_BBXMAX":23.45,"MAX_BBXMAX":23.45,"MIN_BBYMIN":42.575,"MAX_BBYMIN":42.575,"MIN_BBYMAX":42.8,"MAX_BBYMAX":42.8,"MEAN_BBXC":23.328319,"MEAN_BBYC":42.68234,"TIMEZONE":"Europe/Sofia","UN_FID":0,"POP1950":522,"POP1955":616,"POP1960":708,"POP1965":806,"POP1970":888,"POP1975":977,"POP1980":1074,"POP1985":1181,"POP1990":1191,"POP1995":1168,"POP2000":1128,"POP2005":1166,"POP2010":1185,"POP2015":1212,"POP2020":1233,"POP2025":1236,"POP2050":1236,"MIN_ZOOM":5,"WIKIDATAID":"Q472","WOF_ID":101748887,"CAPALT":0,"NAME_EN":"Sofia","NAME_DE":"Sofia","NAME_ES":"Sofía","NAME_FR":"Sofia","NAME_PT":"Sófia","NAME_RU":"София","NAME_ZH":"索非亚","LABEL":"","NAME_AR":"صوفيا","NAME_BN":"সফিয়া","NAME_EL":"Σόφια","NAME_HI":"सोफिया","NAME_HU":"Szófia","NAME_ID":"Sofia","NAME_IT":"Sofia","NAME_JA":"ソフィア","NAME_KO":"소피아","NAME_NL":"Sofia","NAME_PL":"Sofia","NAME_SV":"Sofia","NAME_TR":"Sofya","NAME_VI":"Sofia","NE_ID":1159151147,"NAME_FA":"صوفیه","NAME_HE":"סופיה","NAME_UK":"Софія","NAME_UR":"صوفیہ","NAME_ZHT":"索菲亞","GEONAMESID":727011,"FCLASS_ISO":"","FCLASS_US":"","FCLASS_FR":"","FCLASS_RU":"","FCLASS_ES":"","FCLASS_CN":"","FCLASS_TW":"","FCLASS_IN":"","FCLASS_NP":"","FCLASS_PK":"","FCLASS_DE":"","FCLASS_GB":"","FCLASS_BR":"","FCLASS_IL":"","FCLASS_PS":"","FCLASS_SA":"","FCLASS_EG":"","FCLASS_MA":"","FCLASS_PT":"","FCLASS_AR":"","FCLASS_JP":"","FCLASS_KO":"","FCLASS_VN":"","FCLASS_TR":"","FCLASS_ID":"","FCLASS_PL":"","FCLASS_GR":"","FCLASS_IT":"","FCLASS_NL":"","FCLASS_SE":"","FCLASS_BD":"","FCLASS_UA":"","FCLASS_TLC":""}},{"type":"Point","coordinates":[27.5646813,53.9019233],"properties":{"SCALERANK":3,"NATSCALE":110,"LABELRANK":6,"FEATURECLA":"Admin-0 capital","NAME":"Minsk","NAMEPAR":"","NAMEALT":"","NAMEASCII":"Minsk","ADM0CAP":1,"CAPIN":"","WORLDCITY":0,"MEGACITY":1,"SOV0NAME":"Belarus","SOV_A3":"BLR","ADM0NAME":"Belarus","ADM0_A3":"BLR","ADM1NAME":"Minsk","ISO_A2":"BY","NOTE":"","LATITUDE":53.901923,"LONGITUDE":27.564681,"POP_MAX":1805000,"POP_MIN":1577138,"POP_OTHER":1557919,"RANK_MAX":12,"RANK_MIN":12,"MEGANAME":"Minsk","LS_NAME":"Minsk","MAX_POP10":1577138,"MAX_POP20":1577138,"MAX_POP50":1577138,"MAX_POP300":1577138,"MAX_POP310":0,"MAX_NATSCA":100,"MIN_AREAKM":211,"MAX_AREAKM":211,"MIN_AREAMI":82,"MAX_AREAMI":82,"MIN_PERKM":196,"MAX_PERKM":196,"MIN_PERMI":122,"MAX_PERMI":122,"MIN_BBXMIN":27.408333,"MAX_BBXMIN":27.408333,"MIN_BBXMAX":27.716667,"MAX_BBXMAX":27.716667,"MIN_BBYMIN":53.8,"MAX_BBYMIN":53.8,"MIN_BBYMAX":53.983333,"MAX_BBYMAX":53.983333,"MEAN_BBXC":27.562159,"MEAN_BBYC":53.893169,"TIMEZONE":"Europe/Minsk","UN_FID":4,"POP1950":284,"POP1955":414,"POP1960":551,"POP1965":719,"POP1970":932,"POP1975":1120,"POP1980":1318,"POP1985":1474,"POP1990":1607,"POP1995":1649,"POP2000":1700,"POP2005":1775,"POP2010":1805,"POP2015":1846,"POP2020":1879,"POP2025":1883,"POP2050":1883,"MIN_ZOOM":5,"WIKIDATAID":"Q2280","WOF_ID":890443331,"CAPALT":0,"NAME_EN":"Minsk","NAME_DE":"Minsk","NAME_ES":"Minsk","NAME_FR":"Minsk","NAME_PT":"Minsk","NAME_RU":"Минск","NAME_ZH":"明斯克","LABEL":"","NAME_AR":"مينسك","NAME_BN":"মিন্স্ক","NAME_EL":"Μινσκ","NAME_HI":"मिन्स्क","NAME_HU":"Minszk","NAME_ID":"Minsk","NAME_IT":"Minsk","NAME_JA":"ミンスク","NAME_KO":"민스크","NAME_NL":"Minsk","NAME_PL":"Mińsk","NAME_SV":"Minsk","NAME_TR":"Minsk","NAME_VI":"Minsk","NE_ID":1159151149,"NAME_FA":"مینسک","NAME_HE":"מינסק","NAME_UK":"Мінськ","NAME_UR":"منسک","NAME_ZHT":"明斯克","GEONAMESID":625144,"FCLASS_ISO":"","FCLASS_US":"","FCLASS_FR":"","FCLASS_RU":"","FCLASS_ES":"","FCLASS_CN":"","FCLASS_TW":"","FCLASS_IN":"","FCLASS_NP":"","FCLASS_PK":"","FCLASS_DE":"","FCLASS_GB":"","FCLASS_BR":"","FCLASS_IL":"","FCLASS_PS":"","FCLASS_SA":"","FCLASS_EG":"","FCLASS_MA":"","FCLASS_PT":"","FCLASS_AR":"","FCLASS_JP":"","FCLASS_KO":"","FCLASS_VN":"","FCLASS_TR":"","FCLASS_ID":"","FCLASS_PL":"","FCLASS_GR":"","FCLASS_IT":"","FCLASS_NL":"","FCLASS_SE":"","FCLASS_BD":"","FCLASS_UA":"","FCLASS_TLC":""}},{"type":"Point","coordinates":[18.3830017,43.8500224],"properties":{"SCALERANK":3,"NATSCALE":110,"LABELRANK":8,"FEATURECLA":"Admin-0 capital","NAME":"Sarajevo","NAMEPAR":"","NAMEALT":"","NAMEASCII":"Sarajevo","ADM0CAP":1,"CAPIN":"","WORLDCITY":0,"MEGACITY":0,"SOV0NAME":"Bosnia and Herzegovina","SOV_A3":"BIH","ADM0NAME":"Bosnia and Herzegovina","ADM0_A3":"BIH","ADM1NAME":"Sarajevo","ISO_A2":"BA","NOTE":"","LATITUDE":43.850022,"LONGITUDE":18.383002,"POP_MAX":696731,"POP_MIN":628902,"POP_OTHER":627065,"RANK_MAX":11,"RANK_MIN":11,"MEGANAME":"","LS_NAME":"Sarajevo","MAX_POP10":628902,"MAX_POP20":628902,"MAX_POP50":628902,"MAX_POP300":628902,"MAX_POP310":0,"MAX_NATSCA":100,"MIN_AREAKM":104,"MAX_AREAKM":104,"MIN_AREAMI":40,"MAX_AREAMI":40,"MIN_PERKM":112,"MAX_PERKM":112,"MIN_PERMI":70,"MAX_PERMI":70,"MIN_BBXMIN":18.216667,"MAX_BBXMIN":18.216667,"MIN_BBXMAX":18.466667,"MAX_BBXMAX":18.466667,"MIN_BBYMIN":43.783333,"MAX_BBYMIN":43.783333,"MIN_BBYMAX":43.9,"MAX_BBYMAX":43.9,"MEAN_BBXC":18.351272,"MEAN_BBYC":43.846183,"TIMEZONE":"Europe/Sarajevo","UN_FID":0,"POP1950":0,"POP1955":0,"POP1960":0,"POP1965":0,"POP1970":0,"POP1975":0,"POP1980":0,"POP1985":0,"POP1990":0,"POP1995":0,"POP2000":0,"POP2005":0,"POP2010":0,"POP2015":0,"POP2020":0,"POP2025":0,"POP2050":0,"MIN_ZOOM":5,"WIKIDATAID":"Q11194","WOF_ID":890518775,"CAPALT":0,"NAME_EN":"Sarajevo","NAME_DE":"Sarajevo","NAME_ES":"Sarajevo","NAME_FR":"Sarajevo","NAME_PT":"Sarajevo","NAME_RU":"Сараево","NAME_ZH":"萨拉热窝","LABEL":"","NAME_AR":"سراييفو","NAME_BN":"সারায়েভো","NAME_EL":"Σαράγιεβο","NAME_HI":"साराजेवो","NAME_HU":"Szarajevó","NAME_ID":"Sarajevo","NAME_IT":"Sarajevo","NAME_JA":"サラエヴォ","NAME_KO":"사라예보","NAME_NL":"Sarajevo","NAME_PL":"Sarajewo","NAME_SV":"Sarajevo","NAME_TR":"Saraybosna","NAME_VI":"Sarajevo","NE_ID":1159151177,"NAME_FA":"سارایوو","NAME_HE":"סרייבו","NAME_UK":"Сараєво","NAME_UR":"سرائیوو","NAME_ZHT":"塞拉耶佛","GEONAMESID":3191281,"FCLASS_ISO":"","FCLASS_US":"","FCLASS_FR":"","FCLASS_RU":"","FCLASS_ES":"","FCLASS_CN":"","FCLASS_TW":"","FCLASS_IN":"","FCLASS_NP":"","FCLASS_PK":"","FCLASS_DE":"","FCLASS_GB":"","FCLASS_BR":"","FCLASS_IL":"","FCLASS_PS":"","FCLASS_SA":"","FCLASS_EG":"","FCLASS_MA":"","FCLASS_PT":"","FCLASS_AR":"","FCLASS_JP":"","FCLASS_KO":"","FCLASS_VN":"","FCLASS_TR":"","FCLASS_ID":"","FCLASS_PL":"","FCLASS_GR":"","FCLASS_IT":"","FCLASS_NL":"","FCLASS_SE":"","FCLASS_BD":"","FCLASS_UA":"","FCLASS_TLC":""}},{"type":"Point","coordinates":[14.5147107,35.8997325],"properties":{"SCALERANK":3,"NATSCALE":110,"LABELRANK":0,"FEATURECLA":"Admin-0 capital","NAME":"Valletta","NAMEPAR":"","NAMEALT":"","NAMEASCII":"Valletta","ADM0CAP":1,"CAPIN":"","WORLDCITY":0,"MEGACITY":0,"SOV0NAME":"Malta","SOV_A3":"MLT","ADM0NAME":"Malta","ADM0_A3":"MLT","ADM1NAME":"","ISO_A2":"MT","NOTE":"","LATITUDE":35.899733,"LONGITUDE":14.514711,"POP_MAX":368250,"POP_MIN":6966,"POP_OTHER":336174,"RANK_MAX":10,"RANK_MIN":5,"MEGANAME":"","LS_NAME":"Valletta","MAX_POP10":336921,"MAX_POP20":336921,"MAX_POP50":336921,"MAX_POP300":336921,"MAX_POP310":0,"MAX_NATSCA":100,"MIN_AREAKM":106,"MAX_AREAKM":106,"MIN_AREAMI":41,"MAX_AREAMI":41,"MIN_PERKM":87,"MAX_PERKM":87,"MIN_PERMI":54,"MAX_PERMI":54,"MIN_BBXMIN":14.408333,"MAX_BBXMIN":14.408333,"MIN_BBXMAX":14.55,"MAX_BBXMAX":14.55,"MIN_BBYMIN":35.816667,"MAX_BBYMIN":35.816667,"MIN_BBYMAX":35.941667,"MAX_BBYMAX":35.941667,"MEAN_BBXC":14.483034,"MEAN_BBYC":35.881672,"TIMEZONE":"Europe/Malta","UN_FID":0,"POP1950":0,"POP1955":0,"POP1960":0,"POP1965":0,"POP1970":0,"POP1975":0,"POP1980":0,"POP1985":0,"POP1990":0,"POP1995":0,"POP2000":0,"POP2005":0,"POP2010":0,"POP2015":0,"POP2020":0,"POP2025":0,"POP2050":0,"MIN_ZOOM":5,"WIKIDATAID":"Q23800","WOF_ID":101752423,"CAPALT":0,"NAME_EN":"Valletta","NAME_DE":"Valletta","NAME_ES":"La Valeta","NAME_FR":"La Valette","NAME_PT":"Valeta","NAME_RU":"Валлетта","NAME_ZH":"瓦莱塔","LABEL":"","NAME_AR":"فاليتا","NAME_BN":"ভাল্লেত্তা","NAME_EL":"Βαλέτα","NAME_HI":"वैलेटा","NAME_HU":"Valletta","NAME_ID":"Valletta","NAME_IT":"La Valletta","NAME_JA":"バレッタ","NAME_KO":"발레타","NAME_NL":"Valletta","NAME_PL":"Valletta","NAME_SV":"Valletta","NAME_TR":"Valletta","NAME_VI":"Valletta","NE_ID":1159151199,"NAME_FA":"والتا","NAME_HE":"ולטה","NAME_UK":"Валлетта","NAME_UR":"والیٹا","NAME_ZHT":"瓦萊塔","GEONAMESID":2562305,"FCLASS_ISO":"","FCLASS_US":"","FCLASS_FR":"","FCLASS_RU":"","FCLASS_ES":"","FCLASS_CN":"","FCLASS_TW":"","FCLASS_IN":"","FCLASS_NP":"","FCLASS_PK":"","FCLASS_DE":"","FCLASS_GB":"","FCLASS_BR":"","FCLASS_IL":"","FCLASS_PS":"","FCLASS_SA":"","FCLASS_EG":"","FCLASS_MA":"","FCLASS_PT":"","FCLASS_AR":"","FCLASS_JP":"","FCLASS_KO":"","FCLASS_VN":"","FCLASS_TR":"","FCLASS_ID":"","FCLASS_PL":"","FCLASS_GR":"","FCLASS_IT":"","FCLASS_NL":"","FCLASS_SE":"","FCLASS_BD":"","FCLASS_UA":"","FCLASS_TLC":""}},{"type":"Point","coordinates":[33.3666349,35.1666765],"properties":{"SCALERANK":3,"NATSCALE":110,"LABELRANK":0,"FEATURECLA":"Admin-0 capital","NAME":"Nicosia","NAMEPAR":"","NAMEALT":"","NAMEASCII":"Nicosia","ADM0CAP":1,"CAPIN":"Capital of both","WORLDCITY":0,"MEGACITY":0,"SOV0NAME":"Cyprus","SOV_A3":"CYP","ADM0NAME":"Cyprus","ADM0_A3":"CYP","ADM1NAME":"","ISO_A2":"CY","NOTE":"","LATITUDE":35.166677,"LONGITUDE":33.366635,"POP_MAX":224300,"POP_MIN":200452,"POP_OTHER":222985,"RANK_MAX":10,"RANK_MIN":10,"MEGANAME":"","LS_NAME":"Nicosia","MAX_POP10":224300,"MAX_POP20":224300,"MAX_POP50":224300,"MAX_POP300":224300,"MAX_POP310":0,"MAX_NATSCA":100,"MIN_AREAKM":128,"MAX_AREAKM":128,"MIN_AREAMI":49,"MAX_AREAMI":49,"MIN_PERKM":109,"MAX_PERKM":109,"MIN_PERMI":68,"MAX_PERMI":68,"MIN_BBXMIN":33.275,"MAX_BBXMIN":33.275,"MIN_BBXMAX":33.425,"MAX_BBXMAX":33.425,"MIN_BBYMIN":35.041667,"MAX_BBYMIN":35.041667,"MIN_BBYMAX":35.225,"MAX_BBYMAX":35.225,"MEAN_BBXC":33.352244,"MEAN_BBYC":35.15,"TIMEZONE":"Asia/Nicosia","UN_FID":0,"POP1950":0,"POP1955":0,"POP1960":0,"POP1965":0,"POP1970":0,"POP1975":0,"POP1980":0,"POP1985":0,"POP1990":0,"POP1995":0,"POP2000":0,"POP2005":0,"POP2010":0,"POP2015":0,"POP2020":0,"POP2025":0,"POP2050":0,"MIN_ZOOM":5,"WIKIDATAID":"Q3856","WOF_ID":101749141,"CAPALT":0,"NAME_EN":"Nicosia","NAME_DE":"Nikosia","NAME_ES":"Nicosia","NAME_FR":"Nicosie","NAME_PT":"Nicósia","NAME_RU":"Никосия","NAME_ZH":"尼科西亚","LABEL":"","NAME_AR":"نيقوسيا","NAME_BN":"নিকোসিয়া","NAME_EL":"Λευκωσία","NAME_HI":"निकोसिया","NAME_HU":"Nicosia","NAME_ID":"Nikosia","NAME_IT":"Nicosia","NAME_JA":"ニコシア","NAME_KO":"니코시아","NAME_NL":"Nicosia","NAME_PL":"Nikozja","NAME_SV":"Nicosia","NAME_TR":"Lefkoşa","NAME_VI":"Nicosia","NE_ID":1159151209,"NAME_FA":"نیکوزیا","NAME_HE":"ניקוסיה","NAME_UK":"Нікосія","NAME_UR":"نیکوسیا","NAME_ZHT":"尼古西亞","GEONAMESID":146268,"FCLASS_ISO":"","FCLASS_US":"","FCLASS_FR":"","FCLASS_RU":"","FCLASS_ES":"","FCLASS_CN":"","FCLASS_TW":"","FCLASS_IN":"","FCLASS_NP":"","FCLASS_PK":"","FCLASS_DE":"","FCLASS_GB":"","FCLASS_BR":"","FCLASS_IL":"","FCLASS_PS":"","FCLASS_SA":"","FCLASS_EG":"","FCLASS_MA":"","FCLASS_PT":"","FCLASS_AR":"","FCLASS_JP":"","FCLASS_KO":"","FCLASS_VN":"","FCLASS_TR":"","FCLASS_ID":"","FCLASS_PL":"","FCLASS_GR":"","FCLASS_IT":"","FCLASS_NL":"","FCLASS_SE":"","FCLASS_BD":"","FCLASS_UA":"","FCLASS_TLC":""}},{"type":"Point","coordinates":[32.8624458,39.9291844],"properties":{"SCALERANK":2,"NATSCALE":200,"LABELRANK":5,"FEATURECLA":"Admin-0 capital","NAME":"Ankara","NAMEPAR":"","NAMEALT":"","NAMEASCII":"Ankara","ADM0CAP":1,"CAPIN":"","WORLDCITY":0,"MEGACITY":1,"SOV0NAME":"Turkey","SOV_A3":"TUR","ADM0NAME":"Turkey","ADM0_A3":"TUR","ADM1NAME":"Ankara","ISO_A2":"TR","NOTE":"","LATITUDE":39.929184,"LONGITUDE":32.862446,"POP_MAX":3716000,"POP_MIN":3307379,"POP_OTHER":3267576,"RANK_MAX":12,"RANK_MIN":12,"MEGANAME":"Ankara","LS_NAME":"Ankara","MAX_POP10":3307379,"MAX_POP20":3306823,"MAX_POP50":3306823,"MAX_POP300":3306823,"MAX_POP310":0,"MAX_NATSCA":100,"MIN_AREAKM":531,"MAX_AREAKM":534,"MIN_AREAMI":205,"MAX_AREAMI":206,"MIN_PERKM":355,"MAX_PERKM":365,"MIN_PERMI":221,"MAX_PERMI":227,"MIN_BBXMIN":32.425,"MAX_BBXMIN":32.425,"MIN_BBXMAX":33.008333,"MAX_BBXMAX":33.008333,"MIN_BBYMIN":39.841667,"MAX_BBYMIN":39.841667,"MIN_BBYMAX":40.116667,"MAX_BBYMAX":40.116667,"MEAN_BBXC":32.753878,"MEAN_BBYC":39.957843,"TIMEZONE":"Europe/Istanbul","UN_FID":500,"POP1950":281,"POP1955":439,"POP1960":635,"POP1965":954,"POP1970":1341,"POP1975":1709,"POP1980":1891,"POP1985":2213,"POP1990":2561,"POP1995":2842,"POP2000":3179,"POP2005":3572,"POP2010":3716,"POP2015":3908,"POP2020":4178,"POP2025":4403,"POP2050":4589,"MIN_ZOOM":4,"WIKIDATAID":"Q3640","WOF_ID":890460453,"CAPALT":0,"NAME_EN":"Ankara","NAME_DE":"Ankara","NAME_ES":"Ankara","NAME_FR":"Ankara","NAME_PT":"Ancara","NAME_RU":"Анкара","NAME_ZH":"安卡拉","LABEL":"","NAME_AR":"أنقرة","NAME_BN":"আঙ্কারা","NAME_EL":"Άγκυρα","NAME_HI":"अंकारा","NAME_HU":"Ankara","NAME_ID":"Ankara","NAME_IT":"Ankara","NAME_JA":"アンカラ","NAME_KO":"앙카라","NAME_NL":"Ankara","NAME_PL":"Ankara","NAME_SV":"Ankara","NAME_TR":"Ankara","NAME_VI":"Ankara","NE_ID":1159151255,"NAME_FA":"آنکارا","NAME_HE":"אנקרה","NAME_UK":"Анкара","NAME_UR":"انقرہ","NAME_ZHT":"安卡拉","GEONAMESID":323786,"FCLASS_ISO":"","FCLASS_US":"","FCLASS_FR":"","FCLASS_RU":"","FCLASS_ES":"","FCLASS_CN":"","FCLASS_TW":"","FCLASS_IN":"","FCLASS_NP":"","FCLASS_PK":"","FCLASS_DE":"","FCLASS_GB":"","FCLASS_BR":"","FCLASS_IL":"","FCLASS_PS":"","FCLASS_SA":"","FCLASS_EG":"","FCLASS_MA":"","FCLASS_PT":"","FCLASS_AR":"","FCLASS_JP":"","FCLASS_KO":"","FCLASS_VN":"","FCLASS_TR":"","FCLASS_ID":"","FCLASS_PL":"","FCLASS_GR":"","FCLASS_IT":"","FCLASS_NL":"","FCLASS_SE":"","FCLASS_BD":"","FCLASS_UA":"","FCLASS_TLC":""}},{"type":"Point","coordinates":[19.0813748,47.5019522],"properties":{"SCALERANK":2,"NATSCALE":200,"LABELRANK":6,"FEATURECLA":"Admin-0 capital","NAME":"Budapest","NAMEPAR":"","NAMEALT":"","NAMEASCII":"Budapest","ADM0CAP":1,"CAPIN":"","WORLDCITY":1,"MEGACITY":1,"SOV0NAME":"Hungary","SOV_A3":"HUN","ADM0NAME":"Hungary","ADM0_A3":"HUN","ADM1NAME":"Budapest","ISO_A2":"HU","NOTE":"","LATITUDE":47.501952,"LONGITUDE":19.081375,"POP_MAX":1679000,"POP_MIN":1679000,"POP_OTHER":1718895,"RANK_MAX":12,"RANK_MIN":12,"MEGANAME":"Budapest","LS_NAME":"Budapest","MAX_POP10":1788020,"MAX_POP20":1788020,"MAX_POP50":1788020,"MAX_POP300":1788020,"MAX_POP310":0,"MAX_NATSCA":100,"MIN_AREAKM":556,"MAX_AREAKM":556,"MIN_AREAMI":215,"MAX_AREAMI":215,"MIN_PERKM":460,"MAX_PERKM":460,"MIN_PERMI":286,"MAX_PERMI":286,"MIN_BBXMIN":18.85,"MAX_BBXMIN":18.85,"MIN_BBXMAX":19.416667,"MAX_BBXMAX":19.416667,"MIN_BBYMIN":47.35,"MAX_BBYMIN":47.35,"MIN_BBYMAX":47.658333,"MAX_BBYMAX":47.658333,"MEAN_BBXC":19.106763,"MEAN_BBYC":47.478602,"TIMEZONE":"Europe/Budapest","UN_FID":211,"POP1950":1618,"POP1955":1714,"POP1960":1811,"POP1965":1878,"POP1970":1946,"POP1975":2005,"POP1980":2057,"POP1985":2036,"POP1990":2005,"POP1995":1893,"POP2000":1787,"POP2005":1693,"POP2010":1679,"POP2015":1664,"POP2020":1655,"POP2025":1655,"POP2050":1655,"MIN_ZOOM":4.7,"WIKIDATAID":"Q1781","WOF_ID":101751703,"CAPALT":0,"NAME_EN":"Budapest","NAME_DE":"Budapest","NAME_ES":"Budapest","NAME_FR":"Budapest","NAME_PT":"Budapeste","NAME_RU":"Будапешт","NAME_ZH":"布达佩斯","LABEL":"","NAME_AR":"بودابست","NAME_BN":"বুদাপেস্ট","NAME_EL":"Βουδαπέστη","NAME_HI":"बुडापेस्ट","NAME_HU":"Budapest","NAME_ID":"Budapest","NAME_IT":"Budapest","NAME_JA":"ブダペスト","NAME_KO":"부다페스트","NAME_NL":"Boedapest","NAME_PL":"Budapeszt","NAME_SV":"Budapest","NAME_TR":"Budapeşte","NAME_VI":"Budapest","NE_ID":1159151257,"NAME_FA":"بوداپست","NAME_HE":"בודפשט","NAME_UK":"Будапешт","NAME_UR":"بوداپست","NAME_ZHT":"布達佩斯","GEONAMESID":3054643,"FCLASS_ISO":"","FCLASS_US":"","FCLASS_FR":"","FCLASS_RU":"","FCLASS_ES":"","FCLASS_CN":"","FCLASS_TW":"","FCLASS_IN":"","FCLASS_NP":"","FCLASS_PK":"","FCLASS_DE":"","FCLASS_GB":"","FCLASS_BR":"","FCLASS_IL":"","FCLASS_PS":"","FCLASS_SA":"","FCLASS_EG":"","FCLASS_MA":"","FCLASS_PT":"","FCLASS_AR":"","FCLASS_JP":"","FCLASS_KO":"","FCLASS_VN":"","FCLASS_TR":"","FCLASS_ID":"","FCLASS_PL":"","FCLASS_GR":"","FCLASS_IT":"","FCLASS_NL":"","FCLASS_SE":"","FCLASS_BD":"","FCLASS_UA":"","FCLASS_TLC":""}},{"type":"Point","coordinates":[26.0980008,44.4353177],"properties":{"SCALERANK":2,"NATSCALE":200,"LABELRANK":6,"FEATURECLA":"Admin-0 capital","NAME":"Bucharest","NAMEPAR":"Bucuresti","NAMEALT":"","NAMEASCII":"Bucharest","ADM0CAP":1,"CAPIN":"","WORLDCITY":1,"MEGACITY":1,"SOV0NAME":"Romania","SOV_A3":"ROU","ADM0NAME":"Romania","ADM0_A3":"ROU","ADM1NAME":"Bucharest","ISO_A2":"RO","NOTE":"","LATITUDE":44.435318,"LONGITUDE":26.098001,"POP_MAX":1942000,"POP_MIN":1742194,"POP_OTHER":1636574,"RANK_MAX":12,"RANK_MIN":12,"MEGANAME":"Bucuresti","LS_NAME":"Bucharest","MAX_POP10":1742194,"MAX_POP20":1742194,"MAX_POP50":1742194,"MAX_POP300":1742194,"MAX_POP310":0,"MAX_NATSCA":100,"MIN_AREAKM":345,"MAX_AREAKM":345,"MIN_AREAMI":133,"MAX_AREAMI":133,"MIN_PERKM":357,"MAX_PERKM":357,"MIN_PERMI":222,"MAX_PERMI":222,"MIN_BBXMIN":25.866667,"MAX_BBXMIN":25.866667,"MIN_BBXMAX":26.25,"MAX_BBXMAX":26.25,"MIN_BBYMIN":44.316667,"MAX_BBYMIN":44.316667,"MIN_BBYMAX":44.641667,"MAX_BBYMAX":44.641667,"MEAN_BBXC":26.082182,"MEAN_BBYC":44.44411,"TIMEZONE":"Europe/Bucharest","UN_FID":422,"POP1950":652,"POP1955":856,"POP1960":1002,"POP1965":1154,"POP1970":1396,"POP1975":1702,"POP1980":1865,"POP1985":1950,"POP1990":2040,"POP1995":2018,"POP2000":1949,"POP2005":1936,"POP2010":1942,"POP2015":1947,"POP2020":1949,"POP2025":1949,"POP2050":1949,"MIN_ZOOM":4,"WIKIDATAID":"Q19660","WOF_ID":101751949,"CAPALT":0,"NAME_EN":"Bucharest","NAME_DE":"Bukarest","NAME_ES":"Bucarest","NAME_FR":"Bucarest","NAME_PT":"Bucareste","NAME_RU":"Бухарест","NAME_ZH":"布加勒斯特","LABEL":"","NAME_AR":"بوخارست","NAME_BN":"বুখারেস্ট","NAME_EL":"Βουκουρέστι","NAME_HI":"बुखारेस्ट","NAME_HU":"Bukarest","NAME_ID":"Bukares","NAME_IT":"Bucarest","NAME_JA":"ブカレスト","NAME_KO":"부쿠레슈티","NAME_NL":"Boekarest","NAME_PL":"Bukareszt","NAME_SV":"Bukarest","NAME_TR":"Bükreș","NAME_VI":"Bucharest","NE_ID":1159151263,"NAME_FA":"بخارست","NAME_HE":"בוקרשט","NAME_UK":"Бухарест","NAME_UR":"بخارسٹ","NAME_ZHT":"布加勒斯特","GEONAMESID":683506,"FCLASS_ISO":"","FCLASS_US":"","FCLASS_FR":"","FCLASS_RU":"","FCLASS_ES":"","FCLASS_CN":"","FCLASS_TW":"","FCLASS_IN":"","FCLASS_NP":"","FCLASS_PK":"","FCLASS_DE":"","FCLASS_GB":"","FCLASS_BR":"","FCLASS_IL":"","FCLASS_PS":"","FCLASS_SA":"","FCLASS_EG":"","FCLASS_MA":"","FCLASS_PT":"","FCLASS_AR":"","FCLASS_JP":"","FCLASS_KO":"","FCLASS_VN":"","FCLASS_TR":"","FCLASS_ID":"","FCLASS_PL":"","FCLASS_GR":"","FCLASS_IT":"","FCLASS_NL":"","FCLASS_SE":"","FCLASS_BD":"","FCLASS_UA":"","FCLASS_TLC":""}},{"type":"Point","coordinates":[-9.1468122,38.7246687],"properties":{"SCALERANK":2,"NATSCALE":200,"LABELRANK":6,"FEATURECLA":"Admin-0 capital","NAME":"Lisbon","NAMEPAR":"Lisboa","NAMEALT":"","NAMEASCII":"Lisbon","ADM0CAP":1,"CAPIN":"","WORLDCITY":1,"MEGACITY":1,"SOV0NAME":"Portugal","SOV_A3":"PRT","ADM0NAME":"Portugal","ADM0_A3":"PRT","ADM1NAME":"Lisboa","ISO_A2":"PT","NOTE":"","LATITUDE":38.724669,"LONGITUDE":-9.146812,"POP_MAX":2812000,"POP_MIN":517802,"POP_OTHER":1795582,"RANK_MAX":12,"RANK_MIN":11,"MEGANAME":"Lisboa","LS_NAME":"Lisbon","MAX_POP10":1832316,"MAX_POP20":1831921,"MAX_POP50":1831921,"MAX_POP300":1831921,"MAX_POP310":0,"MAX_NATSCA":100,"MIN_AREAKM":506,"MAX_AREAKM":508,"MIN_AREAMI":196,"MAX_AREAMI":196,"MIN_PERKM":355,"MAX_PERKM":360,"MIN_PERMI":221,"MAX_PERMI":224,"MIN_BBXMIN":-9.466667,"MAX_BBXMIN":-9.466667,"MIN_BBXMAX":-8.958333,"MAX_BBXMAX":-8.958333,"MIN_BBYMIN":38.675,"MAX_BBYMIN":38.675,"MIN_BBYMAX":39.008333,"MAX_BBYMAX":39.008333,"MEAN_BBXC":-9.232769,"MEAN_BBYC":38.783256,"TIMEZONE":"Europe/Lisbon","UN_FID":419,"POP1950":1304,"POP1955":1405,"POP1960":1514,"POP1965":1657,"POP1970":1817,"POP1975":2103,"POP1980":2449,"POP1985":2518,"POP1990":2537,"POP1995":2600,"POP2000":2672,"POP2005":2762,"POP2010":2812,"POP2015":2890,"POP2020":2996,"POP2025":3058,"POP2050":3086,"MIN_ZOOM":4,"WIKIDATAID":"Q597","WOF_ID":101752087,"CAPALT":0,"NAME_EN":"Lisbon","NAME_DE":"Lissabon","NAME_ES":"Lisboa","NAME_FR":"Lisbonne","NAME_PT":"Lisboa","NAME_RU":"Лиссабон","NAME_ZH":"里斯本","LABEL":"","NAME_AR":"لشبونة","NAME_BN":"লিসবন","NAME_EL":"Λισαβόνα","NAME_HI":"लिस्बन","NAME_HU":"Lisszabon","NAME_ID":"Lisboa","NAME_IT":"Lisbona","NAME_JA":"リスボン","NAME_KO":"리스본","NAME_NL":"Lissabon","NAME_PL":"Lizbona","NAME_SV":"Lissabon","NAME_TR":"Lizbon","NAME_VI":"Lisboa","NE_ID":1159151273,"NAME_FA":"لیسبون","NAME_HE":"ליסבון","NAME_UK":"Лісабон","NAME_UR":"لزبن","NAME_ZHT":"里斯本","GEONAMESID":2267057,"FCLASS_ISO":"","FCLASS_US":"","FCLASS_FR":"","FCLASS_RU":"","FCLASS_ES":"","FCLASS_CN":"","FCLASS_TW":"","FCLASS_IN":"","FCLASS_NP":"","FCLASS_PK":"","FCLASS_DE":"","FCLASS_GB":"","FCLASS_BR":"","FCLASS_IL":"","FCLASS_PS":"","FCLASS_SA":"","FCLASS_EG":"","FCLASS_MA":"","FCLASS_PT":"","FCLASS_AR":"","FCLASS_JP":"","FCLASS_KO":"","FCLASS_VN":"","FCLASS_TR":"","FCLASS_ID":"","FCLASS_PL":"","FCLASS_GR":"","FCLASS_IT":"","FCLASS_NL":"","FCLASS_SE":"","FCLASS_BD":"","FCLASS_UA":"","FCLASS_TLC":""}},{"type":"Point","coordinates":[10.7480333,59.9186361],"properties":{"SCALERANK":2,"NATSCALE":200,"LABELRANK":7,"FEATURECLA":"Admin-0 capital","NAME":"Oslo","NAMEPAR":"","NAMEALT":"","NAMEASCII":"Oslo","ADM0CAP":1,"CAPIN":"","WORLDCITY":1,"MEGACITY":1,"SOV0NAME":"Kingdom of Norway","SOV_A3":"NOR","ADM0NAME":"Norway","ADM0_A3":"NOR","ADM1NAME":"Oslo","ISO_A2":"NO","NOTE":"","LATITUDE":59.918636,"LONGITUDE":10.748033,"POP_MAX":835000,"POP_MIN":580000,"POP_OTHER":701804,"RANK_MAX":11,"RANK_MIN":11,"MEGANAME":"Oslo","LS_NAME":"Oslo","MAX_POP10":731563,"MAX_POP20":731563,"MAX_POP50":762374,"MAX_POP300":762374,"MAX_POP310":0,"MAX_NATSCA":100,"MIN_AREAKM":329,"MAX_AREAKM":362,"MIN_AREAMI":127,"MAX_AREAMI":140,"MIN_PERKM":340,"MAX_PERKM":390,"MIN_PERMI":211,"MAX_PERMI":243,"MIN_BBXMIN":10.333333,"MAX_BBXMIN":10.440355,"MIN_BBXMAX":11.091667,"MAX_BBXMAX":11.091667,"MIN_BBYMIN":59.708333,"MAX_BBYMIN":59.708333,"MIN_BBYMAX":60.066667,"MAX_BBYMAX":60.066667,"MEAN_BBXC":10.756508,"MEAN_BBYC":59.906118,"TIMEZONE":"Europe/Oslo","UN_FID":397,"POP1950":468,"POP1955":533,"POP1960":578,"POP1965":610,"POP1970":643,"POP1975":644,"POP1980":643,"POP1985":662,"POP1990":684,"POP1995":729,"POP2000":774,"POP2005":816,"POP2010":835,"POP2015":858,"POP2020":885,"POP2025":909,"POP2050":936,"MIN_ZOOM":4,"WIKIDATAID":"Q585","WOF_ID":1495123997,"CAPALT":0,"NAME_EN":"Oslo","NAME_DE":"Oslo","NAME_ES":"Oslo","NAME_FR":"Oslo","NAME_PT":"Oslo","NAME_RU":"Осло","NAME_ZH":"奥斯陆","LABEL":"","NAME_AR":"أوسلو","NAME_BN":"অসলো","NAME_EL":"Όσλο","NAME_HI":"ओस्लो","NAME_HU":"Oslo","NAME_ID":"Oslo","NAME_IT":"Oslo","NAME_JA":"オスロ","NAME_KO":"오슬로","NAME_NL":"Oslo","NAME_PL":"Oslo","NAME_SV":"Oslo","NAME_TR":"Oslo","NAME_VI":"Oslo","NE_ID":1159151281,"NAME_FA":"اسلو","NAME_HE":"אוסלו","NAME_UK":"Осло","NAME_UR":"اوسلو","NAME_ZHT":"奧斯陸","GEONAMESID":3143244,"FCLASS_ISO":"","FCLASS_US":"","FCLASS_FR":"","FCLASS_RU":"","FCLASS_ES":"","FCLASS_CN":"","FCLASS_TW":"","FCLASS_IN":"","FCLASS_NP":"","FCLASS_PK":"","FCLASS_DE":"","FCLASS_GB":"","FCLASS_BR":"","FCLASS_IL":"","FCLASS_PS":"","FCLASS_SA":"","FCLASS_EG":"","FCLASS_MA":"","FCLASS_PT":"","FCLASS_AR":"","FCLASS_JP":"","FCLASS_KO":"","FCLASS_VN":"","FCLASS_TR":"","FCLASS_ID":"","FCLASS_PL":"","FCLASS_GR":"","FCLASS_IT":"","FCLASS_NL":"","FCLASS_SE":"","FCLASS_BD":"","FCLASS_UA":"","FCLASS_TLC":""}},{"type":"Point","coordinates":[21.005346737742283,52.23087197353951],"properties":{"SCALERANK":2,"NATSCALE":200,"LABELRANK":5,"FEATURECLA":"Admin-0 capital","NAME":"Warsaw","NAMEPAR":"Warszawa","NAMEALT":"","NAMEASCII":"Warsaw","ADM0CAP":1,"CAPIN":"","WORLDCITY":1,"MEGACITY":1,"SOV0NAME":"Poland","SOV_A3":"POL","ADM0NAME":"Poland","ADM0_A3":"POL","ADM1NAME":"Masovian","ISO_A2":"PL","NOTE":"","LATITUDE":52.251947,"LONGITUDE":20.998054,"POP_MAX":1707000,"POP_MIN":1702139,"POP_OTHER":2012431,"RANK_MAX":12,"RANK_MIN":12,"MEGANAME":"Warszawa","LS_NAME":"Warsaw","MAX_POP10":2129163,"MAX_POP20":2129163,"MAX_POP50":2129163,"MAX_POP300":2129163,"MAX_POP310":0,"MAX_NATSCA":100,"MIN_AREAKM":802,"MAX_AREAKM":802,"MIN_AREAMI":310,"MAX_AREAMI":310,"MIN_PERKM":759,"MAX_PERKM":759,"MIN_PERMI":471,"MAX_PERMI":471,"MIN_BBXMIN":20.666667,"MAX_BBXMIN":20.666667,"MIN_BBXMAX":21.358333,"MAX_BBXMAX":21.358333,"MIN_BBYMIN":52.033333,"MAX_BBYMIN":52.033333,"MIN_BBYMAX":52.433333,"MAX_BBYMAX":52.433333,"MEAN_BBXC":21.031458,"MEAN_BBYC":52.230916,"TIMEZONE":"Europe/Warsaw","UN_FID":418,"POP1950":768,"POP1955":942,"POP1960":1119,"POP1965":1212,"POP1970":1300,"POP1975":1444,"POP1980":1565,"POP1985":1596,"POP1990":1628,"POP1995":1652,"POP2000":1666,"POP2005":1693,"POP2010":1707,"POP2015":1724,"POP2020":1735,"POP2025":1736,"POP2050":1736,"MIN_ZOOM":4,"WIKIDATAID":"Q270","WOF_ID":101752777,"CAPALT":0,"NAME_EN":"Warsaw","NAME_DE":"Warschau","NAME_ES":"Varsovia","NAME_FR":"Varsovie","NAME_PT":"Varsóvia","NAME_RU":"Варшава","NAME_ZH":"华沙","LABEL":"","NAME_AR":"وارسو","NAME_BN":"ওয়ারশ","NAME_EL":"Βαρσοβία","NAME_HI":"वारसॉ","NAME_HU":"Varsó","NAME_ID":"Warsawa","NAME_IT":"Varsavia","NAME_JA":"ワルシャワ","NAME_KO":"바르샤바","NAME_NL":"Warschau","NAME_PL":"Warszawa","NAME_SV":"Warszawa","NAME_TR":"Varşova","NAME_VI":"Warszawa","NE_ID":1159151299,"NAME_FA":"ورشو","NAME_HE":"ורשה","NAME_UK":"Варшава","NAME_UR":"وارسا","NAME_ZHT":"華沙","GEONAMESID":756135,"FCLASS_ISO":"","FCLASS_US":"","FCLASS_FR":"","FCLASS_RU":"","FCLASS_ES":"","FCLASS_CN":"","FCLASS_TW":"","FCLASS_IN":"","FCLASS_NP":"","FCLASS_PK":"","FCLASS_DE":"","FCLASS_GB":"","FCLASS_BR":"","FCLASS_IL":"","FCLASS_PS":"","FCLASS_SA":"","FCLASS_EG":"","FCLASS_MA":"","FCLASS_PT":"","FCLASS_AR":"","FCLASS_JP":"","FCLASS_KO":"","FCLASS_VN":"","FCLASS_TR":"","FCLASS_ID":"","FCLASS_PL":"","FCLASS_GR":"","FCLASS_IT":"","FCLASS_NL":"","FCLASS_SE":"","FCLASS_BD":"","FCLASS_UA":"","FCLASS_TLC":""}},{"type":"Point","coordinates":[-6.256979517281132,53.34673124898314],"properties":{"SCALERANK":2,"NATSCALE":200,"LABELRANK":8,"FEATURECLA":"Admin-0 capital","NAME":"Dublin","NAMEPAR":"","NAMEALT":"","NAMEASCII":"Dublin","ADM0CAP":1,"CAPIN":"","WORLDCITY":1,"MEGACITY":1,"SOV0NAME":"Ireland","SOV_A3":"IRL","ADM0NAME":"Ireland","ADM0_A3":"IRL","ADM1NAME":"Dublin","ISO_A2":"IE","NOTE":"","LATITUDE":53.335007,"LONGITUDE":-6.250852,"POP_MAX":1059000,"POP_MIN":968976,"POP_OTHER":22478,"RANK_MAX":12,"RANK_MIN":11,"MEGANAME":"Dublin","LS_NAME":"Dublin2","MAX_POP10":968976,"MAX_POP20":968976,"MAX_POP50":968976,"MAX_POP300":968976,"MAX_POP310":968976,"MAX_NATSCA":300,"MIN_AREAKM":351,"MAX_AREAKM":351,"MIN_AREAMI":135,"MAX_AREAMI":135,"MIN_PERKM":250,"MAX_PERKM":250,"MIN_PERMI":155,"MAX_PERMI":155,"MIN_BBXMIN":-6.533333,"MAX_BBXMIN":-6.533333,"MIN_BBXMAX":-6.041667,"MAX_BBXMAX":-6.041667,"MIN_BBYMIN":53.175,"MAX_BBYMIN":53.175,"MIN_BBYMAX":53.433333,"MAX_BBYMAX":53.433333,"MEAN_BBXC":-6.278983,"MEAN_BBYC":53.329717,"TIMEZONE":"Europe/Dublin","UN_FID":302,"POP1950":626,"POP1955":647,"POP1960":661,"POP1965":723,"POP1970":771,"POP1975":833,"POP1980":903,"POP1985":920,"POP1990":916,"POP1995":946,"POP2000":989,"POP2005":1037,"POP2010":1059,"POP2015":1098,"POP2020":1177,"POP2025":1257,"POP2050":1332,"MIN_ZOOM":4,"WIKIDATAID":"Q1761","WOF_ID":101751737,"CAPALT":0,"NAME_EN":"Dublin","NAME_DE":"Dublin","NAME_ES":"Dublín","NAME_FR":"Dublin","NAME_PT":"Dublin","NAME_RU":"Дублин","NAME_ZH":"都柏林","LABEL":"","NAME_AR":"دبلن","NAME_BN":"ডাবলিন","NAME_EL":"Δουβλίνο","NAME_HI":"डबलिन","NAME_HU":"Dublin","NAME_ID":"Dublin","NAME_IT":"Dublino","NAME_JA":"ダブリン","NAME_KO":"더블린","NAME_NL":"Dublin","NAME_PL":"Dublin","NAME_SV":"Dublin","NAME_TR":"Dublin","NAME_VI":"Dublin","NE_ID":1159151309,"NAME_FA":"دوبلین","NAME_HE":"דבלין","NAME_UK":"Дублін","NAME_UR":"ڈبلن","NAME_ZHT":"都柏林","GEONAMESID":2964574,"FCLASS_ISO":"","FCLASS_US":"","FCLASS_FR":"","FCLASS_RU":"","FCLASS_ES":"","FCLASS_CN":"","FCLASS_TW":"","FCLASS_IN":"","FCLASS_NP":"","FCLASS_PK":"","FCLASS_DE":"","FCLASS_GB":"","FCLASS_BR":"","FCLASS_IL":"","FCLASS_PS":"","FCLASS_SA":"","FCLASS_EG":"","FCLASS_MA":"","FCLASS_PT":"","FCLASS_AR":"","FCLASS_JP":"","FCLASS_KO":"","FCLASS_VN":"","FCLASS_TR":"","FCLASS_ID":"","FCLASS_PL":"","FCLASS_GR":"","FCLASS_IT":"","FCLASS_NL":"","FCLASS_SE":"","FCLASS_BD":"","FCLASS_UA":"","FCLASS_TLC":""}},{"type":"Point","coordinates":[14.422939486203868,50.0869665373215],"properties":{"SCALERANK":2,"NATSCALE":200,"LABELRANK":7,"FEATURECLA":"Admin-0 capital","NAME":"Prague","NAMEPAR":"Praha","NAMEALT":"","NAMEASCII":"Prague","ADM0CAP":1,"CAPIN":"","WORLDCITY":1,"MEGACITY":1,"SOV0NAME":"Czechia","SOV_A3":"CZE","ADM0NAME":"Czechia","ADM0_A3":"CZE","ADM1NAME":"Prague","ISO_A2":"CZ","NOTE":"","LATITUDE":50.085283,"LONGITUDE":14.464034,"POP_MAX":1162000,"POP_MIN":2087,"POP_OTHER":1088042,"RANK_MAX":12,"RANK_MIN":4,"MEGANAME":"Praha","LS_NAME":"Prague","MAX_POP10":1115771,"MAX_POP20":1115771,"MAX_POP50":1115771,"MAX_POP300":1115771,"MAX_POP310":0,"MAX_NATSCA":100,"MIN_AREAKM":317,"MAX_AREAKM":317,"MIN_AREAMI":122,"MAX_AREAMI":122,"MIN_PERKM":249,"MAX_PERKM":249,"MIN_PERMI":155,"MAX_PERMI":155,"MIN_BBXMIN":14.266667,"MAX_BBXMIN":14.266667,"MIN_BBXMAX":14.616667,"MAX_BBXMAX":14.616667,"MIN_BBYMIN":49.95,"MAX_BBYMIN":49.95,"MIN_BBYMAX":50.183333,"MAX_BBYMAX":50.183333,"MEAN_BBXC":14.445557,"MEAN_BBYC":50.073451,"TIMEZONE":"America/Chicago","UN_FID":173,"POP1950":935,"POP1955":967,"POP1960":1001,"POP1965":1038,"POP1970":1076,"POP1975":1126,"POP1980":1179,"POP1985":1197,"POP1990":1212,"POP1995":1194,"POP2000":1172,"POP2005":1164,"POP2010":1162,"POP2015":1160,"POP2020":1159,"POP2025":1159,"POP2050":1159,"MIN_ZOOM":4.7,"WIKIDATAID":"Q1085","WOF_ID":101748113,"CAPALT":0,"NAME_EN":"Prague","NAME_DE":"Prag","NAME_ES":"Praga","NAME_FR":"Prague","NAME_PT":"Praga","NAME_RU":"Прага","NAME_ZH":"布拉格","LABEL":"","NAME_AR":"براغ","NAME_BN":"প্রাগ","NAME_EL":"Πράγα","NAME_HI":"प्राग","NAME_HU":"Prága","NAME_ID":"Praha","NAME_IT":"Praga","NAME_JA":"プラハ","NAME_KO":"프라하","NAME_NL":"Praag","NAME_PL":"Praga","NAME_SV":"Prag","NAME_TR":"Prag","NAME_VI":"Praha","NE_ID":1159151359,"NAME_FA":"پراگ","NAME_HE":"פראג","NAME_UK":"Прага","NAME_UR":"پراگ","NAME_ZHT":"布拉格","GEONAMESID":4548393,"FCLASS_ISO":"","FCLASS_US":"","FCLASS_FR":"","FCLASS_RU":"","FCLASS_ES":"","FCLASS_CN":"","FCLASS_TW":"","FCLASS_IN":"","FCLASS_NP":"","FCLASS_PK":"","FCLASS_DE":"","FCLASS_GB":"","FCLASS_BR":"","FCLASS_IL":"","FCLASS_PS":"","FCLASS_SA":"","FCLASS_EG":"","FCLASS_MA":"","FCLASS_PT":"","FCLASS_AR":"","FCLASS_JP":"","FCLASS_KO":"","FCLASS_VN":"","FCLASS_TR":"","FCLASS_ID":"","FCLASS_PL":"","FCLASS_GR":"","FCLASS_IT":"","FCLASS_NL":"","FCLASS_SE":"","FCLASS_BD":"","FCLASS_UA":"","FCLASS_TLC":""}},{"type":"Point","coordinates":[13.1800118,32.8925],"properties":{"SCALERANK":2,"NATSCALE":200,"LABELRANK":7,"FEATURECLA":"Admin-0 capital","NAME":"Tripoli","NAMEPAR":"","NAMEALT":"","NAMEASCII":"Tripoli","ADM0CAP":1,"CAPIN":"","WORLDCITY":0,"MEGACITY":1,"SOV0NAME":"Libya","SOV_A3":"LBY","ADM0NAME":"Libya","ADM0_A3":"LBY","ADM1NAME":"Tajura' wa an Nawahi al Arba","ISO_A2":"LY","NOTE":"","LATITUDE":32.8925,"LONGITUDE":13.180012,"POP_MAX":2189000,"POP_MIN":229398,"POP_OTHER":1149981,"RANK_MAX":12,"RANK_MIN":10,"MEGANAME":"Tarabulus","LS_NAME":"Tripoli1","MAX_POP10":1173386,"MAX_POP20":1173386,"MAX_POP50":1173386,"MAX_POP300":1173386,"MAX_POP310":0,"MAX_NATSCA":100,"MIN_AREAKM":195,"MAX_AREAKM":195,"MIN_AREAMI":75,"MAX_AREAMI":75,"MIN_PERKM":142,"MAX_PERKM":142,"MIN_PERMI":88,"MAX_PERMI":88,"MIN_BBXMIN":12.983333,"MAX_BBXMIN":12.983333,"MIN_BBXMAX":13.408333,"MAX_BBXMAX":13.408333,"MIN_BBYMIN":32.808333,"MAX_BBYMIN":32.808333,"MIN_BBYMAX":32.908333,"MAX_BBYMAX":32.908333,"MEAN_BBXC":13.19322,"MEAN_BBYC":32.86207,"TIMEZONE":"","UN_FID":344,"POP1950":106,"POP1955":136,"POP1960":174,"POP1965":235,"POP1970":398,"POP1975":611,"POP1980":797,"POP1985":1056,"POP1990":1500,"POP1995":1678,"POP2000":1877,"POP2005":2098,"POP2010":2189,"POP2015":2322,"POP2020":2532,"POP2025":2713,"POP2050":2855,"MIN_ZOOM":4,"WIKIDATAID":"Q3579","WOF_ID":1141909421,"CAPALT":0,"NAME_EN":"Tripoli","NAME_DE":"Tripolis","NAME_ES":"Trípoli","NAME_FR":"Tripoli","NAME_PT":"Trípoli","NAME_RU":"Триполи","NAME_ZH":"的黎波里","LABEL":"","NAME_AR":"طرابلس","NAME_BN":"ত্রিপোলি","NAME_EL":"Τρίπολη","NAME_HI":"ताराबूलस","NAME_HU":"Tripoli","NAME_ID":"Tripoli","NAME_IT":"Tripoli","NAME_JA":"トリポリ","NAME_KO":"트리폴리","NAME_NL":"Tripoli","NAME_PL":"Trypolis","NAME_SV":"Tripoli","NAME_TR":"Trablus","NAME_VI":"Tripoli","NE_ID":1159151415,"NAME_FA":"طرابلس","NAME_HE":"טריפולי","NAME_UK":"Триполі","NAME_UR":"طرابلس","NAME_ZHT":"的黎波里","GEONAMESID":-1,"FCLASS_ISO":"","FCLASS_US":"","FCLASS_FR":"","FCLASS_RU":"","FCLASS_ES":"","FCLASS_CN":"","FCLASS_TW":"","FCLASS_IN":"","FCLASS_NP":"","FCLASS_PK":"","FCLASS_DE":"","FCLASS_GB":"","FCLASS_BR":"","FCLASS_IL":"","FCLASS_PS":"","FCLASS_SA":"","FCLASS_EG":"","FCLASS_MA":"","FCLASS_PT":"","FCLASS_AR":"","FCLASS_JP":"","FCLASS_KO":"","FCLASS_VN":"","FCLASS_TR":"","FCLASS_ID":"","FCLASS_PL":"","FCLASS_GR":"","FCLASS_IT":"","FCLASS_NL":"","FCLASS_SE":"","FCLASS_BD":"","FCLASS_UA":"","FCLASS_TLC":""}},{"type":"Point","coordinates":[24.932456915043964,60.16380384948568],"properties":{"SCALERANK":2,"NATSCALE":200,"LABELRANK":7,"FEATURECLA":"Admin-0 capital","NAME":"Helsinki","NAMEPAR":"","NAMEALT":"","NAMEASCII":"Helsinki","ADM0CAP":1,"CAPIN":"","WORLDCITY":1,"MEGACITY":1,"SOV0NAME":"Finland","SOV_A3":"FIN","ADM0NAME":"Finland","ADM0_A3":"FIN","ADM1NAME":"Southern Finland","ISO_A2":"FI","NOTE":"","LATITUDE":60.177509,"LONGITUDE":24.932181,"POP_MAX":1115000,"POP_MIN":558457,"POP_OTHER":762958,"RANK_MAX":12,"RANK_MIN":11,"MEGANAME":"Helsinki","LS_NAME":"Helsinki","MAX_POP10":852233,"MAX_POP20":852233,"MAX_POP50":852233,"MAX_POP300":852233,"MAX_POP310":0,"MAX_NATSCA":100,"MIN_AREAKM":513,"MAX_AREAKM":513,"MIN_AREAMI":198,"MAX_AREAMI":198,"MIN_PERKM":550,"MAX_PERKM":550,"MIN_PERMI":342,"MAX_PERMI":342,"MIN_BBXMIN":24.558333,"MAX_BBXMIN":24.558333,"MIN_BBXMAX":25.191667,"MAX_BBXMAX":25.191667,"MIN_BBYMIN":60.116667,"MAX_BBYMIN":60.116667,"MIN_BBYMAX":60.433333,"MAX_BBYMAX":60.433333,"MEAN_BBXC":24.910042,"MEAN_BBYC":60.254779,"TIMEZONE":"Europe/Helsinki","UN_FID":183,"POP1950":366,"POP1955":405,"POP1960":448,"POP1965":478,"POP1970":507,"POP1975":582,"POP1980":674,"POP1985":724,"POP1990":872,"POP1995":943,"POP2000":1019,"POP2005":1094,"POP2010":1115,"POP2015":1139,"POP2020":1169,"POP2025":1195,"POP2050":1220,"MIN_ZOOM":4,"WIKIDATAID":"Q1757","WOF_ID":101748417,"CAPALT":0,"NAME_EN":"Helsinki","NAME_DE":"Helsinki","NAME_ES":"Helsinki","NAME_FR":"Helsinki","NAME_PT":"Helsínquia","NAME_RU":"Хельсинки","NAME_ZH":"赫尔辛基","LABEL":"","NAME_AR":"هلسنكي","NAME_BN":"হেলসিঙ্কি","NAME_EL":"Ελσίνκι","NAME_HI":"हेलसिंकी","NAME_HU":"Helsinki","NAME_ID":"Helsinki","NAME_IT":"Helsinki","NAME_JA":"ヘルシンキ","NAME_KO":"헬싱키","NAME_NL":"Helsinki","NAME_PL":"Helsinki","NAME_SV":"Helsingfors","NAME_TR":"Helsinki","NAME_VI":"Helsinki","NE_ID":1159151419,"NAME_FA":"هلسینکی","NAME_HE":"הלסינקי","NAME_UK":"Гельсінкі","NAME_UR":"ہلسنکی","NAME_ZHT":"赫爾辛基","GEONAMESID":658225,"FCLASS_ISO":"","FCLASS_US":"","FCLASS_FR":"","FCLASS_RU":"","FCLASS_ES":"","FCLASS_CN":"","FCLASS_TW":"","FCLASS_IN":"","FCLASS_NP":"","FCLASS_PK":"","FCLASS_DE":"","FCLASS_GB":"","FCLASS_BR":"","FCLASS_IL":"","FCLASS_PS":"","FCLASS_SA":"","FCLASS_EG":"","FCLASS_MA":"","FCLASS_PT":"","FCLASS_AR":"","FCLASS_JP":"","FCLASS_KO":"","FCLASS_VN":"","FCLASS_TR":"","FCLASS_ID":"","FCLASS_PL":"","FCLASS_GR":"","FCLASS_IT":"","FCLASS_NL":"","FCLASS_SE":"","FCLASS_BD":"","FCLASS_UA":"","FCLASS_TLC":""}},{"type":"Point","coordinates":[12.5615399,55.68051],"properties":{"SCALERANK":2,"NATSCALE":200,"LABELRANK":8,"FEATURECLA":"Admin-0 capital","NAME":"København","NAMEPAR":"Copenhagen","NAMEALT":"","NAMEASCII":"Kobenhavn","ADM0CAP":1,"CAPIN":"","WORLDCITY":1,"MEGACITY":1,"SOV0NAME":"Denmark","SOV_A3":"DNK","ADM0NAME":"Denmark","ADM0_A3":"DNK","ADM1NAME":"Hovedstaden","ISO_A2":"DK","NOTE":"","LATITUDE":55.68051,"LONGITUDE":12.56154,"POP_MAX":1085000,"POP_MIN":1085000,"POP_OTHER":1038288,"RANK_MAX":12,"RANK_MIN":12,"MEGANAME":"K","LS_NAME":"Copenhagen","MAX_POP10":1124323,"MAX_POP20":1230007,"MAX_POP50":1256924,"MAX_POP300":1256924,"MAX_POP310":1256924,"MAX_NATSCA":300,"MIN_AREAKM":438,"MAX_AREAKM":577,"MIN_AREAMI":169,"MAX_AREAMI":223,"MIN_PERKM":348,"MAX_PERKM":542,"MIN_PERMI":216,"MAX_PERMI":337,"MIN_BBXMIN":12.116667,"MAX_BBXMIN":12.316667,"MIN_BBXMAX":12.658333,"MAX_BBXMAX":12.658333,"MIN_BBYMIN":55.4,"MAX_BBYMIN":55.583333,"MIN_BBYMAX":55.927962,"MAX_BBYMAX":56.008333,"MEAN_BBXC":12.437175,"MEAN_BBYC":55.716213,"TIMEZONE":"Europe/Copenhagen","UN_FID":175,"POP1950":1216,"POP1955":1227,"POP1960":1284,"POP1965":1373,"POP1970":1380,"POP1975":1172,"POP1980":1096,"POP1985":1056,"POP1990":1035,"POP1995":1048,"POP2000":1077,"POP2005":1085,"POP2010":1085,"POP2015":1087,"POP2020":1092,"POP2025":1095,"POP2050":1096,"MIN_ZOOM":4,"WIKIDATAID":"Q1748","WOF_ID":101749159,"CAPALT":0,"NAME_EN":"Copenhagen","NAME_DE":"Kopenhagen","NAME_ES":"Copenhague","NAME_FR":"Copenhague","NAME_PT":"Copenhaga","NAME_RU":"Копенгаген","NAME_ZH":"哥本哈根","LABEL":"","NAME_AR":"كوبنهاغن","NAME_BN":"কোপেনহেগেন","NAME_EL":"Κοπεγχάγη","NAME_HI":"कोपनहेगन","NAME_HU":"Koppenhága","NAME_ID":"Kopenhagen","NAME_IT":"Copenaghen","NAME_JA":"コペンハーゲン","NAME_KO":"코펜하겐","NAME_NL":"Kopenhagen","NAME_PL":"Kopenhaga","NAME_SV":"Köpenhamn","NAME_TR":"Kopenhag","NAME_VI":"Copenhagen","NE_ID":1159151437,"NAME_FA":"کپنهاگ","NAME_HE":"קופנהגן","NAME_UK":"Копенгаген","NAME_UR":"کوپن ہیگن","NAME_ZHT":"哥本哈根","GEONAMESID":2618425,"FCLASS_ISO":"","FCLASS_US":"","FCLASS_FR":"","FCLASS_RU":"","FCLASS_ES":"","FCLASS_CN":"","FCLASS_TW":"","FCLASS_IN":"","FCLASS_NP":"","FCLASS_PK":"","FCLASS_DE":"","FCLASS_GB":"","FCLASS_BR":"","FCLASS_IL":"","FCLASS_PS":"","FCLASS_SA":"","FCLASS_EG":"","FCLASS_MA":"","FCLASS_PT":"","FCLASS_AR":"","FCLASS_JP":"","FCLASS_KO":"","FCLASS_VN":"","FCLASS_TR":"","FCLASS_ID":"","FCLASS_PL":"","FCLASS_GR":"","FCLASS_IT":"","FCLASS_NL":"","FCLASS_SE":"","FCLASS_BD":"","FCLASS_UA":"","FCLASS_TLC":""}},{"type":"Point","coordinates":[4.3313707,50.8352629],"properties":{"SCALERANK":2,"NATSCALE":200,"LABELRANK":8,"FEATURECLA":"Admin-0 capital","NAME":"Brussels","NAMEPAR":"","NAMEALT":"Bruxelles-Brussel","NAMEASCII":"Brussels","ADM0CAP":1,"CAPIN":"","WORLDCITY":1,"MEGACITY":1,"SOV0NAME":"Belgium","SOV_A3":"BEL","ADM0NAME":"Belgium","ADM0_A3":"BEL","ADM1NAME":"Brussels","ISO_A2":"BE","NOTE":"","LATITUDE":50.835263,"LONGITUDE":4.331371,"POP_MAX":1743000,"POP_MIN":1019022,"POP_OTHER":1490164,"RANK_MAX":12,"RANK_MIN":12,"MEGANAME":"Bruxelles-Brussel","LS_NAME":"Brussels","MAX_POP10":1759840,"MAX_POP20":1874437,"MAX_POP50":3576473,"MAX_POP300":3576473,"MAX_POP310":3576473,"MAX_NATSCA":300,"MIN_AREAKM":900,"MAX_AREAKM":2344,"MIN_AREAMI":347,"MAX_AREAMI":905,"MIN_PERKM":997,"MAX_PERKM":2982,"MIN_PERMI":620,"MAX_PERMI":1853,"MIN_BBXMIN":3.575,"MAX_BBXMIN":3.983529,"MIN_BBXMAX":4.666667,"MAX_BBXMAX":5,"MIN_BBYMIN":50.6,"MAX_BBYMIN":50.65,"MIN_BBYMAX":51.016667,"MAX_BBYMAX":51.408333,"MEAN_BBXC":4.329159,"MEAN_BBYC":50.919556,"TIMEZONE":"Europe/Brussels","UN_FID":384,"POP1950":1415,"POP1955":1449,"POP1960":1485,"POP1965":1525,"POP1970":1568,"POP1975":1610,"POP1980":1654,"POP1985":1654,"POP1990":1680,"POP1995":1715,"POP2000":1733,"POP2005":1742,"POP2010":1743,"POP2015":1744,"POP2020":1744,"POP2025":1744,"POP2050":1744,"MIN_ZOOM":4.7,"WIKIDATAID":"Q239","WOF_ID":1175610569,"CAPALT":0,"NAME_EN":"Brussels","NAME_DE":"Brüssel","NAME_ES":"Bruselas","NAME_FR":"Bruxelles","NAME_PT":"Bruxelas","NAME_RU":"Брюссель","NAME_ZH":"布鲁塞尔","LABEL":"","NAME_AR":"مدينة بروكسل","NAME_BN":"ব্রাসেলস","NAME_EL":"Βρυξέλλες","NAME_HI":"ब्रसेल्स","NAME_HU":"Brüsszel","NAME_ID":"Brussel","NAME_IT":"Bruxelles","NAME_JA":"ブリュッセル＝ヴィル","NAME_KO":"브뤼셀 시","NAME_NL":"Brussel","NAME_PL":"Bruksela","NAME_SV":"Bryssel","NAME_TR":"Brüksel","NAME_VI":"Bruxelles","NE_ID":1159151465,"NAME_FA":"شهر بروکسل","NAME_HE":"בריסל","NAME_UK":"Брюссель","NAME_UR":"برسلز شہر","NAME_ZHT":"布魯塞爾市","GEONAMESID":2800866,"FCLASS_ISO":"","FCLASS_US":"","FCLASS_FR":"","FCLASS_RU":"","FCLASS_ES":"","FCLASS_CN":"","FCLASS_TW":"","FCLASS_IN":"","FCLASS_NP":"","FCLASS_PK":"","FCLASS_DE":"","FCLASS_GB":"","FCLASS_BR":"","FCLASS_IL":"","FCLASS_PS":"","FCLASS_SA":"","FCLASS_EG":"","FCLASS_MA":"","FCLASS_PT":"","FCLASS_AR":"","FCLASS_JP":"","FCLASS_KO":"","FCLASS_VN":"","FCLASS_TR":"","FCLASS_ID":"","FCLASS_PL":"","FCLASS_GR":"","FCLASS_IT":"","FCLASS_NL":"","FCLASS_SE":"","FCLASS_BD":"","FCLASS_UA":"","FCLASS_TLC":""}},{"type":"Point","coordinates":[3.0486067,36.7650107],"properties":{"SCALERANK":2,"NATSCALE":200,"LABELRANK":5,"FEATURECLA":"Admin-0 capital","NAME":"Algiers","NAMEPAR":"","NAMEALT":"El Djazacr","NAMEASCII":"Algiers","ADM0CAP":1,"CAPIN":"","WORLDCITY":0,"MEGACITY":1,"SOV0NAME":"Algeria","SOV_A3":"DZA","ADM0NAME":"Algeria","ADM0_A3":"DZA","ADM1NAME":"Alger","ISO_A2":"DZ","NOTE":"","LATITUDE":36.765011,"LONGITUDE":3.048607,"POP_MAX":3354000,"POP_MIN":1977663,"POP_OTHER":3332619,"RANK_MAX":12,"RANK_MIN":12,"MEGANAME":"El Djazasr","LS_NAME":"Algiers","MAX_POP10":3368320,"MAX_POP20":3698473,"MAX_POP50":4203253,"MAX_POP300":4203253,"MAX_POP310":0,"MAX_NATSCA":100,"MIN_AREAKM":886,"MAX_AREAKM":1275,"MIN_AREAMI":342,"MAX_AREAMI":492,"MIN_PERKM":798,"MAX_PERKM":1192,"MIN_PERMI":496,"MAX_PERMI":741,"MIN_BBXMIN":2.641667,"MAX_BBXMIN":2.808333,"MIN_BBXMAX":3.548211,"MAX_BBXMAX":3.741667,"MIN_BBYMIN":36.45,"MAX_BBYMIN":36.508333,"MIN_BBYMAX":36.816667,"MAX_BBYMAX":36.816667,"MEAN_BBXC":3.101671,"MEAN_BBYC":36.673641,"TIMEZONE":"Africa/Algiers","UN_FID":6,"POP1950":516,"POP1955":623,"POP1960":872,"POP1965":1049,"POP1970":1254,"POP1975":1499,"POP1980":1621,"POP1985":1672,"POP1990":1908,"POP1995":2295,"POP2000":2754,"POP2005":3199,"POP2010":3354,"POP2015":3574,"POP2020":3922,"POP2025":4235,"POP2050":4499,"MIN_ZOOM":4,"WIKIDATAID":"Q3561","WOF_ID":421174649,"CAPALT":0,"NAME_EN":"Algiers","NAME_DE":"Algier","NAME_ES":"Argel","NAME_FR":"Alger","NAME_PT":"Argel","NAME_RU":"Алжир","NAME_ZH":"阿尔及尔","LABEL":"","NAME_AR":"الجزائر","NAME_BN":"আলজিয়ার্স","NAME_EL":"Αλγέρι","NAME_HI":"अल्जीयर्स","NAME_HU":"Algír","NAME_ID":"Aljir","NAME_IT":"Algeri","NAME_JA":"アルジェ","NAME_KO":"알제","NAME_NL":"Algiers","NAME_PL":"Algier","NAME_SV":"Alger","NAME_TR":"Cezayir","NAME_VI":"Algiers","NE_ID":1159151471,"NAME_FA":"الجزیره","NAME_HE":"אלג'יר","NAME_UK":"Алжир","NAME_UR":"الجزائر شہر","NAME_ZHT":"阿爾及爾","GEONAMESID":2507480,"FCLASS_ISO":"","FCLASS_US":"","FCLASS_FR":"","FCLASS_RU":"","FCLASS_ES":"","FCLASS_CN":"","FCLASS_TW":"","FCLASS_IN":"","FCLASS_NP":"","FCLASS_PK":"","FCLASS_DE":"","FCLASS_GB":"","FCLASS_BR":"","FCLASS_IL":"","FCLASS_PS":"","FCLASS_SA":"","FCLASS_EG":"","FCLASS_MA":"","FCLASS_PT":"","FCLASS_AR":"","FCLASS_JP":"","FCLASS_KO":"","FCLASS_VN":"","FCLASS_TR":"","FCLASS_ID":"","FCLASS_PL":"","FCLASS_GR":"","FCLASS_IT":"","FCLASS_NL":"","FCLASS_SE":"","FCLASS_BD":"","FCLASS_UA":"","FCLASS_TLC":""}},{"type":"Point","coordinates":[30.5146821,50.4353132],"properties":{"SCALERANK":1,"NATSCALE":300,"LABELRANK":5,"FEATURECLA":"Admin-0 capital","NAME":"Kyiv","NAMEPAR":"","NAMEALT":"Kyiv","NAMEASCII":"Kiev","ADM0CAP":1,"CAPIN":"","WORLDCITY":0,"MEGACITY":1,"SOV0NAME":"Ukraine","SOV_A3":"UKR","ADM0NAME":"Ukraine","ADM0_A3":"UKR","ADM1NAME":"Kiev","ISO_A2":"UA","NOTE":"","LATITUDE":50.435313,"LONGITUDE":30.514682,"POP_MAX":2709000,"POP_MIN":1662508,"POP_OTHER":1611692,"RANK_MAX":12,"RANK_MIN":12,"MEGANAME":"Kyiv","LS_NAME":"Kiev","MAX_POP10":1662508,"MAX_POP20":1662508,"MAX_POP50":1662508,"MAX_POP300":1662508,"MAX_POP310":0,"MAX_NATSCA":100,"MIN_AREAKM":217,"MAX_AREAKM":217,"MIN_AREAMI":84,"MAX_AREAMI":84,"MIN_PERKM":120,"MAX_PERKM":120,"MIN_PERMI":75,"MAX_PERMI":75,"MIN_BBXMIN":30.325,"MAX_BBXMIN":30.325,"MIN_BBXMAX":30.575,"MAX_BBXMAX":30.575,"MIN_BBYMIN":50.366667,"MAX_BBYMIN":50.366667,"MIN_BBYMAX":50.541667,"MAX_BBYMAX":50.541667,"MEAN_BBXC":30.45263,"MEAN_BBYC":50.451094,"TIMEZONE":"Europe/Kiev","UN_FID":511,"POP1950":815,"POP1955":974,"POP1960":1163,"POP1965":1389,"POP1970":1655,"POP1975":1926,"POP1980":2201,"POP1985":2410,"POP1990":2574,"POP1995":2590,"POP2000":2606,"POP2005":2672,"POP2010":2709,"POP2015":2748,"POP2020":2770,"POP2025":2772,"POP2050":2772,"MIN_ZOOM":3.7,"WIKIDATAID":"Q1899","WOF_ID":101752489,"CAPALT":0,"NAME_EN":"Kyiv","NAME_DE":"Kiew","NAME_ES":"Kiev","NAME_FR":"Kiev","NAME_PT":"Kiev","NAME_RU":"Киев","NAME_ZH":"基辅","LABEL":"","NAME_AR":"كييف","NAME_BN":"কিয়েভ","NAME_EL":"Κίεβο","NAME_HI":"कीव","NAME_HU":"Kijev","NAME_ID":"Kiev","NAME_IT":"Kiev","NAME_JA":"キエフ","NAME_KO":"키예프","NAME_NL":"Kiev","NAME_PL":"Kijów","NAME_SV":"Kiev","NAME_TR":"Kiev","NAME_VI":"Kiev","NE_ID":1159151495,"NAME_FA":"کییف","NAME_HE":"קייב","NAME_UK":"Київ","NAME_UR":"کیف","NAME_ZHT":"基輔","GEONAMESID":703448,"FCLASS_ISO":"","FCLASS_US":"","FCLASS_FR":"","FCLASS_RU":"","FCLASS_ES":"","FCLASS_CN":"","FCLASS_TW":"","FCLASS_IN":"","FCLASS_NP":"","FCLASS_PK":"","FCLASS_DE":"","FCLASS_GB":"","FCLASS_BR":"","FCLASS_IL":"","FCLASS_PS":"","FCLASS_SA":"","FCLASS_EG":"","FCLASS_MA":"","FCLASS_PT":"","FCLASS_AR":"","FCLASS_JP":"","FCLASS_KO":"","FCLASS_VN":"","FCLASS_TR":"","FCLASS_ID":"","FCLASS_PL":"","FCLASS_GR":"","FCLASS_IT":"","FCLASS_NL":"","FCLASS_SE":"","FCLASS_BD":"","FCLASS_UA":"","FCLASS_TLC":""}},{"type":"Point","coordinates":[-3.6852975,40.4019721],"properties":{"SCALERANK":1,"NATSCALE":300,"LABELRANK":3,"FEATURECLA":"Admin-0 capital","NAME":"Madrid","NAMEPAR":"","NAMEALT":"","NAMEASCII":"Madrid","ADM0CAP":1,"CAPIN":"","WORLDCITY":1,"MEGACITY":1,"SOV0NAME":"Kingdom of Spain","SOV_A3":"ESP","ADM0NAME":"Spain","ADM0_A3":"ESP","ADM1NAME":"Comunidad de Madrid","ISO_A2":"ES","NOTE":"","LATITUDE":40.401972,"LONGITUDE":-3.685298,"POP_MAX":5567000,"POP_MIN":50437,"POP_OTHER":3673427,"RANK_MAX":13,"RANK_MIN":8,"MEGANAME":"Madrid","LS_NAME":"Madrid","MAX_POP10":3767139,"MAX_POP20":3767139,"MAX_POP50":3767139,"MAX_POP300":3767139,"MAX_POP310":3767139,"MAX_NATSCA":300,"MIN_AREAKM":690,"MAX_AREAKM":690,"MIN_AREAMI":266,"MAX_AREAMI":266,"MIN_PERKM":558,"MAX_PERKM":558,"MIN_PERMI":347,"MAX_PERMI":347,"MIN_BBXMIN":-4.025,"MAX_BBXMIN":-4.025,"MIN_BBXMAX":-3.433333,"MAX_BBXMAX":-3.433333,"MIN_BBYMIN":40.225,"MAX_BBYMIN":40.225,"MIN_BBYMAX":40.616667,"MAX_BBYMAX":40.616667,"MEAN_BBXC":-3.749399,"MEAN_BBYC":40.425498,"TIMEZONE":"Europe/Madrid","UN_FID":464,"POP1950":1700,"POP1955":2018,"POP1960":2392,"POP1965":2898,"POP1970":3521,"POP1975":3890,"POP1980":4253,"POP1985":4355,"POP1990":4414,"POP1995":4701,"POP2000":5045,"POP2005":5414,"POP2010":5567,"POP2015":5764,"POP2020":5918,"POP2025":5934,"POP2050":5935,"MIN_ZOOM":3,"WIKIDATAID":"Q2807","WOF_ID":101748283,"CAPALT":0,"NAME_EN":"Madrid","NAME_DE":"Madrid","NAME_ES":"Madrid","NAME_FR":"Madrid","NAME_PT":"Madrid","NAME_RU":"Мадрид","NAME_ZH":"马德里","LABEL":"","NAME_AR":"مدريد","NAME_BN":"মাদ্রিদ","NAME_EL":"Μαδρίτη","NAME_HI":"मद्रिद","NAME_HU":"Madrid","NAME_ID":"Madrid","NAME_IT":"Madrid","NAME_JA":"マドリード","NAME_KO":"마드리드","NAME_NL":"Madrid","NAME_PL":"Madryt","NAME_SV":"Madrid","NAME_TR":"Madrid","NAME_VI":"Madrid","NE_ID":1159151503,"NAME_FA":"مادرید","NAME_HE":"מדריד","NAME_UK":"Мадрид","NAME_UR":"میدرد","NAME_ZHT":"馬德里","GEONAMESID":3117735,"FCLASS_ISO":"","FCLASS_US":"","FCLASS_FR":"","FCLASS_RU":"","FCLASS_ES":"","FCLASS_CN":"","FCLASS_TW":"","FCLASS_IN":"","FCLASS_NP":"","FCLASS_PK":"","FCLASS_DE":"","FCLASS_GB":"","FCLASS_BR":"","FCLASS_IL":"","FCLASS_PS":"","FCLASS_SA":"","FCLASS_EG":"","FCLASS_MA":"","FCLASS_PT":"","FCLASS_AR":"","FCLASS_JP":"","FCLASS_KO":"","FCLASS_VN":"","FCLASS_TR":"","FCLASS_ID":"","FCLASS_PL":"","FCLASS_GR":"","FCLASS_IT":"","FCLASS_NL":"","FCLASS_SE":"","FCLASS_BD":"","FCLASS_UA":"","FCLASS_TLC":""}},{"type":"Point","coordinates":[6.140028,46.2100075],"properties":{"SCALERANK":1,"NATSCALE":300,"LABELRANK":7,"FEATURECLA":"Admin-1 capital","NAME":"Geneva","NAMEPAR":"","NAMEALT":"","NAMEASCII":"Geneva","ADM0CAP":0,"CAPIN":"","WORLDCITY":1,"MEGACITY":0,"SOV0NAME":"Switzerland","SOV_A3":"CHE","ADM0NAME":"Switzerland","ADM0_A3":"CHE","ADM1NAME":"Genève","ISO_A2":"CH","NOTE":"","LATITUDE":46.210008,"LONGITUDE":6.140028,"POP_MAX":1240000,"POP_MIN":192385,"POP_OTHER":508284,"RANK_MAX":12,"RANK_MIN":9,"MEGANAME":"","LS_NAME":"Geneva","MAX_POP10":530422,"MAX_POP20":530422,"MAX_POP50":530422,"MAX_POP300":0,"MAX_POP310":0,"MAX_NATSCA":50,"MIN_AREAKM":179,"MAX_AREAKM":179,"MIN_AREAMI":69,"MAX_AREAMI":69,"MIN_PERKM":215,"MAX_PERKM":215,"MIN_PERMI":134,"MAX_PERMI":134,"MIN_BBXMIN":5.966667,"MAX_BBXMIN":5.966667,"MIN_BBXMAX":6.325,"MAX_BBXMAX":6.325,"MIN_BBYMIN":46.133333,"MAX_BBYMIN":46.133333,"MIN_BBYMAX":46.291667,"MAX_BBYMAX":46.291667,"MEAN_BBXC":6.1424,"MEAN_BBYC":46.209427,"TIMEZONE":"Europe/Zurich","UN_FID":0,"POP1950":0,"POP1955":0,"POP1960":0,"POP1965":0,"POP1970":0,"POP1975":0,"POP1980":0,"POP1985":0,"POP1990":0,"POP1995":0,"POP2000":0,"POP2005":0,"POP2010":0,"POP2015":0,"POP2020":0,"POP2025":0,"POP2050":0,"MIN_ZOOM":3.7,"WIKIDATAID":"Q71","WOF_ID":101748445,"CAPALT":0,"NAME_EN":"Geneva","NAME_DE":"Genf","NAME_ES":"Ginebra","NAME_FR":"Genève","NAME_PT":"Genebra","NAME_RU":"Женева","NAME_ZH":"日内瓦","LABEL":"","NAME_AR":"جنيف","NAME_BN":"জেনেভা","NAME_EL":"Γενεύη","NAME_HI":"जिनेवा","NAME_HU":"Genf","NAME_ID":"Jenewa","NAME_IT":"Ginevra","NAME_JA":"ジュネーヴ","NAME_KO":"제네바","NAME_NL":"Genève","NAME_PL":"Genewa","NAME_SV":"Genève","NAME_TR":"Cenevre","NAME_VI":"Genève","NE_ID":1159151505,"NAME_FA":"ژنو","NAME_HE":"ז'נבה","NAME_UK":"Женева","NAME_UR":"جنیوا","NAME_ZHT":"日內瓦","GEONAMESID":2660646,"FCLASS_ISO":"","FCLASS_US":"","FCLASS_FR":"","FCLASS_RU":"","FCLASS_ES":"","FCLASS_CN":"","FCLASS_TW":"","FCLASS_IN":"","FCLASS_NP":"","FCLASS_PK":"","FCLASS_DE":"","FCLASS_GB":"","FCLASS_BR":"","FCLASS_IL":"","FCLASS_PS":"","FCLASS_SA":"","FCLASS_EG":"","FCLASS_MA":"","FCLASS_PT":"","FCLASS_AR":"","FCLASS_JP":"","FCLASS_KO":"","FCLASS_VN":"","FCLASS_TR":"","FCLASS_ID":"","FCLASS_PL":"","FCLASS_GR":"","FCLASS_IT":"","FCLASS_NL":"","FCLASS_SE":"","FCLASS_BD":"","FCLASS_UA":"","FCLASS_TLC":""}},{"type":"Point","coordinates":[18.066300168534497,59.324127204007475],"properties":{"SCALERANK":1,"NATSCALE":300,"LABELRANK":7,"FEATURECLA":"Admin-0 capital","NAME":"Stockholm","NAMEPAR":"","NAMEALT":"","NAMEASCII":"Stockholm","ADM0CAP":1,"CAPIN":"","WORLDCITY":1,"MEGACITY":1,"SOV0NAME":"Sweden","SOV_A3":"SWE","ADM0NAME":"Sweden","ADM0_A3":"SWE","ADM1NAME":"Stockholm","ISO_A2":"SE","NOTE":"","LATITUDE":59.352706,"LONGITUDE":18.095389,"POP_MAX":1264000,"POP_MIN":1253309,"POP_OTHER":0,"RANK_MAX":12,"RANK_MIN":12,"MEGANAME":"Stockholm","LS_NAME":"Stockholm","MAX_POP10":1337078,"MAX_POP20":1337078,"MAX_POP50":1337078,"MAX_POP300":1337078,"MAX_POP310":1337078,"MAX_NATSCA":300,"MIN_AREAKM":694,"MAX_AREAKM":694,"MIN_AREAMI":268,"MAX_AREAMI":268,"MIN_PERKM":629,"MAX_PERKM":629,"MIN_PERMI":391,"MAX_PERMI":391,"MIN_BBXMIN":17.775,"MAX_BBXMIN":17.775,"MIN_BBXMAX":18.408333,"MAX_BBXMAX":18.408333,"MIN_BBYMIN":59.091667,"MAX_BBYMIN":59.091667,"MIN_BBYMAX":59.558333,"MAX_BBYMAX":59.558333,"MEAN_BBXC":18.044982,"MEAN_BBYC":59.32868,"TIMEZONE":"Europe/Stockholm","UN_FID":467,"POP1950":741,"POP1955":772,"POP1960":805,"POP1965":1003,"POP1970":1035,"POP1975":1015,"POP1980":992,"POP1985":1012,"POP1990":1038,"POP1995":1138,"POP2000":1206,"POP2005":1248,"POP2010":1264,"POP2015":1285,"POP2020":1308,"POP2025":1326,"POP2050":1343,"MIN_ZOOM":3,"WIKIDATAID":"Q1754","WOF_ID":101752307,"CAPALT":0,"NAME_EN":"Stockholm","NAME_DE":"Stockholm","NAME_ES":"Estocolmo","NAME_FR":"Stockholm","NAME_PT":"Estocolmo","NAME_RU":"Стокгольм","NAME_ZH":"斯德哥尔摩","LABEL":"","NAME_AR":"ستوكهولم","NAME_BN":"স্টকহোম","NAME_EL":"Στοκχόλμη","NAME_HI":"स्टॉकहोम","NAME_HU":"Stockholm","NAME_ID":"Stockholm","NAME_IT":"Stoccolma","NAME_JA":"ストックホルム","NAME_KO":"스톡홀름","NAME_NL":"Stockholm","NAME_PL":"Sztokholm","NAME_SV":"Stockholm","NAME_TR":"Stockholm","NAME_VI":"Stockholm","NE_ID":1159151507,"NAME_FA":"استکهلم","NAME_HE":"סטוקהולם","NAME_UK":"Стокгольм","NAME_UR":"اسٹاک ہوم","NAME_ZHT":"斯德哥爾摩","GEONAMESID":2673730,"FCLASS_ISO":"","FCLASS_US":"","FCLASS_FR":"","FCLASS_RU":"","FCLASS_ES":"","FCLASS_CN":"","FCLASS_TW":"","FCLASS_IN":"","FCLASS_NP":"","FCLASS_PK":"","FCLASS_DE":"","FCLASS_GB":"","FCLASS_BR":"","FCLASS_IL":"","FCLASS_PS":"","FCLASS_SA":"","FCLASS_EG":"","FCLASS_MA":"","FCLASS_PT":"","FCLASS_AR":"","FCLASS_JP":"","FCLASS_KO":"","FCLASS_VN":"","FCLASS_TR":"","FCLASS_ID":"","FCLASS_PL":"","FCLASS_GR":"","FCLASS_IT":"","FCLASS_NL":"","FCLASS_SE":"","FCLASS_BD":"","FCLASS_UA":"","FCLASS_TLC":""}},{"type":"Point","coordinates":[4.9146943,52.3519145],"properties":{"SCALERANK":1,"NATSCALE":300,"LABELRANK":8,"FEATURECLA":"Admin-0 capital","NAME":"Amsterdam","NAMEPAR":"","NAMEALT":"","NAMEASCII":"Amsterdam","ADM0CAP":1,"CAPIN":"De facto capita","WORLDCITY":1,"MEGACITY":1,"SOV0NAME":"Kingdom of the Netherlands","SOV_A3":"NLD","ADM0NAME":"Netherlands","ADM0_A3":"NLD","ADM1NAME":"Noord-Holland","ISO_A2":"NL","NOTE":"","LATITUDE":52.351915,"LONGITUDE":4.914694,"POP_MAX":1031000,"POP_MIN":741636,"POP_OTHER":962488,"RANK_MAX":12,"RANK_MIN":11,"MEGANAME":"Amsterdam","LS_NAME":"Amsterdam","MAX_POP10":1072902,"MAX_POP20":1072902,"MAX_POP50":1108173,"MAX_POP300":1108173,"MAX_POP310":1108173,"MAX_NATSCA":300,"MIN_AREAKM":275,"MAX_AREAKM":300,"MIN_AREAMI":106,"MAX_AREAMI":116,"MIN_PERKM":293,"MAX_PERKM":343,"MIN_PERMI":182,"MAX_PERMI":213,"MIN_BBXMIN":4.725,"MAX_BBXMIN":4.757753,"MIN_BBXMAX":5.058333,"MAX_BBXMAX":5.058333,"MIN_BBYMIN":52.183333,"MAX_BBYMIN":52.183333,"MIN_BBYMAX":52.508333,"MAX_BBYMAX":52.533333,"MEAN_BBXC":4.871429,"MEAN_BBYC":52.348868,"TIMEZONE":"Europe/Amsterdam","UN_FID":379,"POP1950":851,"POP1955":871,"POP1960":895,"POP1965":942,"POP1970":927,"POP1975":978,"POP1980":941,"POP1985":907,"POP1990":936,"POP1995":988,"POP2000":1005,"POP2005":1023,"POP2010":1031,"POP2015":1044,"POP2020":1064,"POP2025":1078,"POP2050":1089,"MIN_ZOOM":3.7,"WIKIDATAID":"Q727","WOF_ID":101751893,"CAPALT":0,"NAME_EN":"Amsterdam","NAME_DE":"Amsterdam","NAME_ES":"Ámsterdam","NAME_FR":"Amsterdam","NAME_PT":"Amesterdão","NAME_RU":"Амстердам","NAME_ZH":"阿姆斯特丹","LABEL":"","NAME_AR":"أمستردام","NAME_BN":"আমস্টারডাম","NAME_EL":"Άμστερνταμ","NAME_HI":"ऐम्स्टर्डैम","NAME_HU":"Amszterdam","NAME_ID":"Amsterdam","NAME_IT":"Amsterdam","NAME_JA":"アムステルダム","NAME_KO":"암스테르담","NAME_NL":"Amsterdam","NAME_PL":"Amsterdam","NAME_SV":"Amsterdam","NAME_TR":"Amsterdam","NAME_VI":"Amsterdam","NE_ID":1159151519,"NAME_FA":"آمستردام","NAME_HE":"אמסטרדם","NAME_UK":"Амстердам","NAME_UR":"ایمسٹرڈیم","NAME_ZHT":"阿姆斯特丹","GEONAMESID":2759794,"FCLASS_ISO":"","FCLASS_US":"","FCLASS_FR":"","FCLASS_RU":"","FCLASS_ES":"","FCLASS_CN":"","FCLASS_TW":"","FCLASS_IN":"","FCLASS_NP":"","FCLASS_PK":"","FCLASS_DE":"","FCLASS_GB":"","FCLASS_BR":"","FCLASS_IL":"","FCLASS_PS":"","FCLASS_SA":"","FCLASS_EG":"","FCLASS_MA":"","FCLASS_PT":"","FCLASS_AR":"","FCLASS_JP":"","FCLASS_KO":"","FCLASS_VN":"","FCLASS_TR":"","FCLASS_ID":"","FCLASS_PL":"","FCLASS_GR":"","FCLASS_IT":"","FCLASS_NL":"","FCLASS_SE":"","FCLASS_BD":"","FCLASS_UA":"","FCLASS_TLC":""}},{"type":"Point","coordinates":[-7.6183133,33.6019221],"properties":{"SCALERANK":1,"NATSCALE":300,"LABELRANK":5,"FEATURECLA":"Admin-1 capital","NAME":"Casablanca","NAMEPAR":"","NAMEALT":"Dar-el-Beida","NAMEASCII":"Casablanca","ADM0CAP":0,"CAPIN":"","WORLDCITY":1,"MEGACITY":1,"SOV0NAME":"Morocco","SOV_A3":"MAR","ADM0NAME":"Morocco","ADM0_A3":"MAR","ADM1NAME":"Grand Casablanca","ISO_A2":"MA","NOTE":"","LATITUDE":33.601922,"LONGITUDE":-7.618313,"POP_MAX":3181000,"POP_MIN":3144909,"POP_OTHER":3718797,"RANK_MAX":12,"RANK_MIN":12,"MEGANAME":"Dar-el-Beida","LS_NAME":"Casablanca","MAX_POP10":3796279,"MAX_POP20":3796279,"MAX_POP50":3796279,"MAX_POP300":3796279,"MAX_POP310":0,"MAX_NATSCA":100,"MIN_AREAKM":436,"MAX_AREAKM":436,"MIN_AREAMI":168,"MAX_AREAMI":168,"MIN_PERKM":261,"MAX_PERKM":261,"MIN_PERMI":162,"MAX_PERMI":162,"MIN_BBXMIN":-7.7,"MAX_BBXMIN":-7.7,"MIN_BBXMAX":-7.325,"MAX_BBXMAX":-7.325,"MIN_BBYMIN":33.391667,"MAX_BBYMIN":33.391667,"MIN_BBYMAX":33.733333,"MAX_BBYMAX":33.733333,"MEAN_BBXC":-7.518511,"MEAN_BBYC":33.557664,"TIMEZONE":"Africa/Casablanca","UN_FID":372,"POP1950":625,"POP1955":778,"POP1960":967,"POP1965":1206,"POP1970":1505,"POP1975":1793,"POP1980":2109,"POP1985":2406,"POP1990":2682,"POP1995":2951,"POP2000":3043,"POP2005":3138,"POP2010":3181,"POP2015":3267,"POP2020":3475,"POP2025":3716,"POP2050":3949,"MIN_ZOOM":3.7,"WIKIDATAID":"Q7903","WOF_ID":890434661,"CAPALT":0,"NAME_EN":"Casablanca","NAME_DE":"Casablanca","NAME_ES":"Casablanca","NAME_FR":"Casablanca","NAME_PT":"Casablanca","NAME_RU":"Касабланка","NAME_ZH":"卡萨布兰卡","LABEL":"","NAME_AR":"الدار البيضاء","NAME_BN":"কাসাব্লাঙ্কা","NAME_EL":"Καζαμπλάνκα","NAME_HI":"कासाब्लांका","NAME_HU":"Casablanca","NAME_ID":"Casablanca","NAME_IT":"Casablanca","NAME_JA":"カサブランカ","NAME_KO":"카사블랑카","NAME_NL":"Casablanca","NAME_PL":"Casablanca","NAME_SV":"Casablanca","NAME_TR":"Kazablanka","NAME_VI":"Casablanca","NE_ID":1159151521,"NAME_FA":"کازابلانکا","NAME_HE":"קזבלנקה","NAME_UK":"Касабланка","NAME_UR":"دار البیضاء","NAME_ZHT":"卡薩布蘭卡","GEONAMESID":2553604,"FCLASS_ISO":"","FCLASS_US":"","FCLASS_FR":"","FCLASS_RU":"","FCLASS_ES":"","FCLASS_CN":"","FCLASS_TW":"","FCLASS_IN":"","FCLASS_NP":"","FCLASS_PK":"","FCLASS_DE":"","FCLASS_GB":"","FCLASS_BR":"","FCLASS_IL":"","FCLASS_PS":"","FCLASS_SA":"","FCLASS_EG":"","FCLASS_MA":"","FCLASS_PT":"","FCLASS_AR":"","FCLASS_JP":"","FCLASS_KO":"","FCLASS_VN":"","FCLASS_TR":"","FCLASS_ID":"","FCLASS_PL":"","FCLASS_GR":"","FCLASS_IT":"","FCLASS_NL":"","FCLASS_SE":"","FCLASS_BD":"","FCLASS_UA":"","FCLASS_TLC":""}},{"type":"Point","coordinates":[13.3996028,52.5237645],"properties":{"SCALERANK":1,"NATSCALE":300,"LABELRANK":3,"FEATURECLA":"Admin-0 capital","NAME":"Berlin","NAMEPAR":"","NAMEALT":"","NAMEASCII":"Berlin","ADM0CAP":1,"CAPIN":"","WORLDCITY":1,"MEGACITY":1,"SOV0NAME":"Germany","SOV_A3":"DEU","ADM0NAME":"Germany","ADM0_A3":"DEU","ADM1NAME":"Berlin","ISO_A2":"DE","NOTE":"","LATITUDE":52.523765,"LONGITUDE":13.399603,"POP_MAX":3406000,"POP_MIN":3094014,"POP_OTHER":3013258,"RANK_MAX":12,"RANK_MIN":12,"MEGANAME":"Berlin","LS_NAME":"Berlin","MAX_POP10":3094014,"MAX_POP20":3093307,"MAX_POP50":3503466,"MAX_POP300":3503466,"MAX_POP310":3503466,"MAX_NATSCA":300,"MIN_AREAKM":811,"MAX_AREAKM":1021,"MIN_AREAMI":313,"MAX_AREAMI":394,"MIN_PERKM":482,"MAX_PERKM":709,"MIN_PERMI":300,"MAX_PERMI":441,"MIN_BBXMIN":12.958333,"MAX_BBXMIN":13.193843,"MIN_BBXMAX":13.925,"MAX_BBXMAX":13.925,"MIN_BBYMIN":52.275,"MAX_BBYMIN":52.275,"MIN_BBYMAX":52.708333,"MAX_BBYMAX":52.708333,"MEAN_BBXC":13.418329,"MEAN_BBYC":52.503658,"TIMEZONE":"Europe/Berlin","UN_FID":192,"POP1950":3352,"POP1955":3299,"POP1960":3260,"POP1965":3232,"POP1970":3206,"POP1975":3130,"POP1980":3056,"POP1985":3060,"POP1990":3422,"POP1995":3471,"POP2000":3384,"POP2005":3391,"POP2010":3406,"POP2015":3423,"POP2020":3434,"POP2025":3436,"POP2050":3436,"MIN_ZOOM":2.7,"WIKIDATAID":"Q64","WOF_ID":101748799,"CAPALT":0,"NAME_EN":"Berlin","NAME_DE":"Berlin","NAME_ES":"Berlín","NAME_FR":"Berlin","NAME_PT":"Berlim","NAME_RU":"Берлин","NAME_ZH":"柏林","LABEL":"","NAME_AR":"برلين","NAME_BN":"বার্লিন","NAME_EL":"Βερολίνο","NAME_HI":"बर्लिन","NAME_HU":"Berlin","NAME_ID":"Berlin","NAME_IT":"Berlino","NAME_JA":"ベルリン","NAME_KO":"베를린","NAME_NL":"Berlijn","NAME_PL":"Berlin","NAME_SV":"Berlin","NAME_TR":"Berlin","NAME_VI":"Berlin","NE_ID":1159151529,"NAME_FA":"برلین","NAME_HE":"ברלין","NAME_UK":"Берлін","NAME_UR":"برلن","NAME_ZHT":"柏林","GEONAMESID":2950159,"FCLASS_ISO":"","FCLASS_US":"","FCLASS_FR":"","FCLASS_RU":"","FCLASS_ES":"","FCLASS_CN":"","FCLASS_TW":"","FCLASS_IN":"","FCLASS_NP":"","FCLASS_PK":"","FCLASS_DE":"","FCLASS_GB":"","FCLASS_BR":"","FCLASS_IL":"","FCLASS_PS":"","FCLASS_SA":"","FCLASS_EG":"","FCLASS_MA":"","FCLASS_PT":"","FCLASS_AR":"","FCLASS_JP":"","FCLASS_KO":"","FCLASS_VN":"","FCLASS_TR":"","FCLASS_ID":"","FCLASS_PL":"","FCLASS_GR":"","FCLASS_IT":"","FCLASS_NL":"","FCLASS_SE":"","FCLASS_BD":"","FCLASS_UA":"","FCLASS_TLC":""}},{"type":"Point","coordinates":[23.7313752,37.9852721],"properties":{"SCALERANK":1,"NATSCALE":300,"LABELRANK":6,"FEATURECLA":"Admin-0 capital","NAME":"Athens","NAMEPAR":"Athenai","NAMEALT":"Athinai","NAMEASCII":"Athens","ADM0CAP":1,"CAPIN":"","WORLDCITY":1,"MEGACITY":1,"SOV0NAME":"Greece","SOV_A3":"GRC","ADM0NAME":"Greece","ADM0_A3":"GRC","ADM1NAME":"Attiki","ISO_A2":"GR","NOTE":"","LATITUDE":37.985272,"LONGITUDE":23.731375,"POP_MAX":3242000,"POP_MIN":729137,"POP_OTHER":112572,"RANK_MAX":12,"RANK_MIN":11,"MEGANAME":"Athnnai","LS_NAME":"Athens2","MAX_POP10":2352834,"MAX_POP20":3010089,"MAX_POP50":3010089,"MAX_POP300":3010089,"MAX_POP310":0,"MAX_NATSCA":100,"MIN_AREAKM":340,"MAX_AREAKM":509,"MIN_AREAMI":131,"MAX_AREAMI":196,"MIN_PERKM":199,"MAX_PERKM":296,"MIN_PERMI":124,"MAX_PERMI":184,"MIN_BBXMIN":23.483333,"MAX_BBXMIN":23.591667,"MIN_BBXMAX":23.916667,"MAX_BBXMAX":23.916667,"MIN_BBYMIN":37.9,"MAX_BBYMIN":37.908333,"MIN_BBYMAX":38.158333,"MAX_BBYMAX":38.158333,"MEAN_BBXC":23.741514,"MEAN_BBYC":38.032045,"TIMEZONE":"Europe/Athens","UN_FID":198,"POP1950":1347,"POP1955":1563,"POP1960":1814,"POP1965":2121,"POP1970":2485,"POP1975":2738,"POP1980":2987,"POP1985":3047,"POP1990":3070,"POP1995":3122,"POP2000":3179,"POP2005":3230,"POP2010":3242,"POP2015":3256,"POP2020":3278,"POP2025":3300,"POP2050":3326,"MIN_ZOOM":3.7,"WIKIDATAID":"Q1524","WOF_ID":1175612731,"CAPALT":0,"NAME_EN":"Athens","NAME_DE":"Athen","NAME_ES":"Atenas","NAME_FR":"Athènes","NAME_PT":"Atenas","NAME_RU":"Афины","NAME_ZH":"雅典","LABEL":"","NAME_AR":"أثينا","NAME_BN":"অ্যাথেন্স","NAME_EL":"Αθήνα","NAME_HI":"एथेंस","NAME_HU":"Athén","NAME_ID":"Athena","NAME_IT":"Atene","NAME_JA":"アテネ","NAME_KO":"아테네","NAME_NL":"Athene","NAME_PL":"Ateny","NAME_SV":"Aten","NAME_TR":"Atina","NAME_VI":"Athena","NE_ID":1159151545,"NAME_FA":"آتن","NAME_HE":"אתונה","NAME_UK":"Афіни","NAME_UR":"ایتھنز","NAME_ZHT":"雅典","GEONAMESID":264371,"FCLASS_ISO":"","FCLASS_US":"","FCLASS_FR":"","FCLASS_RU":"","FCLASS_ES":"","FCLASS_CN":"","FCLASS_TW":"","FCLASS_IN":"","FCLASS_NP":"","FCLASS_PK":"","FCLASS_DE":"","FCLASS_GB":"","FCLASS_BR":"","FCLASS_IL":"","FCLASS_PS":"","FCLASS_SA":"","FCLASS_EG":"","FCLASS_MA":"","FCLASS_PT":"","FCLASS_AR":"","FCLASS_JP":"","FCLASS_KO":"","FCLASS_VN":"","FCLASS_TR":"","FCLASS_ID":"","FCLASS_PL":"","FCLASS_GR":"","FCLASS_IT":"","FCLASS_NL":"","FCLASS_SE":"","FCLASS_BD":"","FCLASS_UA":"","FCLASS_TLC":""}},{"type":"Point","coordinates":[16.3646931,48.2019611],"properties":{"SCALERANK":1,"NATSCALE":300,"LABELRANK":7,"FEATURECLA":"Admin-0 capital","NAME":"Vienna","NAMEPAR":"Wien","NAMEALT":"","NAMEASCII":"Vienna","ADM0CAP":1,"CAPIN":"","WORLDCITY":1,"MEGACITY":1,"SOV0NAME":"Austria","SOV_A3":"AUT","ADM0NAME":"Austria","ADM0_A3":"AUT","ADM1NAME":"Wien","ISO_A2":"AT","NOTE":"","LATITUDE":48.201961,"LONGITUDE":16.364693,"POP_MAX":2400000,"POP_MIN":1731000,"POP_OTHER":1480886,"RANK_MAX":12,"RANK_MIN":12,"MEGANAME":"Wien","LS_NAME":"Vienna","MAX_POP10":1561335,"MAX_POP20":1610331,"MAX_POP50":1610331,"MAX_POP300":1610331,"MAX_POP310":1610331,"MAX_NATSCA":300,"MIN_AREAKM":488,"MAX_AREAKM":533,"MIN_AREAMI":189,"MAX_AREAMI":206,"MIN_PERKM":444,"MAX_PERKM":497,"MIN_PERMI":276,"MAX_PERMI":309,"MIN_BBXMIN":16.133333,"MAX_BBXMIN":16.133333,"MIN_BBXMAX":16.583333,"MAX_BBXMAX":16.583333,"MIN_BBYMIN":47.916667,"MAX_BBYMIN":48.008333,"MIN_BBYMAX":48.383333,"MAX_BBYMAX":48.383333,"MEAN_BBXC":16.351672,"MEAN_BBYC":48.18247,"TIMEZONE":"Europe/Vienna","UN_FID":321,"POP1950":2086,"POP1955":2087,"POP1960":2089,"POP1965":2080,"POP1970":2070,"POP1975":2059,"POP1980":2049,"POP1985":2069,"POP1990":2096,"POP1995":2127,"POP2000":2158,"POP2005":2264,"POP2010":2315,"POP2015":2385,"POP2020":2451,"POP2025":2476,"POP2050":2496,"MIN_ZOOM":3.7,"WIKIDATAID":"Q1741","WOF_ID":101748073,"CAPALT":0,"NAME_EN":"Vienna","NAME_DE":"Wien","NAME_ES":"Viena","NAME_FR":"Vienne","NAME_PT":"Viena","NAME_RU":"Вена","NAME_ZH":"维也纳","LABEL":"","NAME_AR":"فيينا","NAME_BN":"ভিয়েনা","NAME_EL":"Βιέννη","NAME_HI":"वियना","NAME_HU":"Bécs","NAME_ID":"Wina","NAME_IT":"Vienna","NAME_JA":"ウィーン","NAME_KO":"빈","NAME_NL":"Wenen","NAME_PL":"Wiedeń","NAME_SV":"Wien","NAME_TR":"Viyana","NAME_VI":"Viên","NE_ID":1159151563,"NAME_FA":"وین","NAME_HE":"וינה","NAME_UK":"Відень","NAME_UR":"ویانا","NAME_ZHT":"維也納","GEONAMESID":2761369,"FCLASS_ISO":"","FCLASS_US":"","FCLASS_FR":"","FCLASS_RU":"","FCLASS_ES":"","FCLASS_CN":"","FCLASS_TW":"","FCLASS_IN":"","FCLASS_NP":"","FCLASS_PK":"","FCLASS_DE":"","FCLASS_GB":"","FCLASS_BR":"","FCLASS_IL":"","FCLASS_PS":"","FCLASS_SA":"","FCLASS_EG":"","FCLASS_MA":"","FCLASS_PT":"","FCLASS_AR":"","FCLASS_JP":"","FCLASS_KO":"","FCLASS_VN":"","FCLASS_TR":"","FCLASS_ID":"","FCLASS_PL":"","FCLASS_GR":"","FCLASS_IT":"","FCLASS_NL":"","FCLASS_SE":"","FCLASS_BD":"","FCLASS_UA":"","FCLASS_TLC":""}},{"type":"Point","coordinates":[-0.1186677,51.5019406],"properties":{"SCALERANK":0,"NATSCALE":600,"LABELRANK":5,"FEATURECLA":"Admin-0 capital","NAME":"London","NAMEPAR":"","NAMEALT":"","NAMEASCII":"London","ADM0CAP":1,"CAPIN":"","WORLDCITY":1,"MEGACITY":1,"SOV0NAME":"United Kingdom","SOV_A3":"GBR","ADM0NAME":"United Kingdom","ADM0_A3":"GBR","ADM1NAME":"Westminster","ISO_A2":"GB","NOTE":"","LATITUDE":51.501941,"LONGITUDE":-0.118668,"POP_MAX":8567000,"POP_MIN":7421209,"POP_OTHER":326670,"RANK_MAX":13,"RANK_MIN":13,"MEGANAME":"London","LS_NAME":"London2","MAX_POP10":7721282,"MAX_POP20":8370578,"MAX_POP50":10011551,"MAX_POP300":10011551,"MAX_POP310":10011551,"MAX_NATSCA":300,"MIN_AREAKM":1914,"MAX_AREAKM":3198,"MIN_AREAMI":739,"MAX_AREAMI":1235,"MIN_PERKM":994,"MAX_PERKM":2440,"MIN_PERMI":618,"MAX_PERMI":1516,"MIN_BBXMIN":-1.091667,"MAX_BBXMIN":-0.546866,"MIN_BBXMAX":0.307108,"MAX_BBXMAX":0.816667,"MIN_BBYMIN":51.133333,"MAX_BBYMIN":51.208333,"MIN_BBYMAX":51.825,"MAX_BBYMAX":51.825,"MEAN_BBXC":-0.169651,"MEAN_BBYC":51.489624,"TIMEZONE":"Europe/London","UN_FID":519,"POP1950":8361,"POP1955":8278,"POP1960":8196,"POP1965":7869,"POP1970":7509,"POP1975":7546,"POP1980":7660,"POP1985":7667,"POP1990":7654,"POP1995":7908,"POP2000":8225,"POP2005":8505,"POP2010":8567,"POP2015":8607,"POP2020":8618,"POP2025":8618,"POP2050":8618,"MIN_ZOOM":1.7,"WIKIDATAID":"Q84","WOF_ID":101750367,"CAPALT":0,"NAME_EN":"London","NAME_DE":"London","NAME_ES":"Londres","NAME_FR":"Londres","NAME_PT":"Londres","NAME_RU":"Лондон","NAME_ZH":"伦敦","LABEL":"","NAME_AR":"لندن","NAME_BN":"লন্ডন","NAME_EL":"Λονδίνο","NAME_HI":"लंदन","NAME_HU":"London","NAME_ID":"London","NAME_IT":"Londra","NAME_JA":"ロンドン","NAME_KO":"런던","NAME_NL":"Londen","NAME_PL":"Londyn","NAME_SV":"London","NAME_TR":"Londra","NAME_VI":"Luân Đôn","NE_ID":1159151577,"NAME_FA":"لندن","NAME_HE":"לונדון","NAME_UK":"Лондон","NAME_UR":"لندن","NAME_ZHT":"倫敦","GEONAMESID":2643743,"FCLASS_ISO":"","FCLASS_US":"","FCLASS_FR":"","FCLASS_RU":"","FCLASS_ES":"","FCLASS_CN":"","FCLASS_TW":"","FCLASS_IN":"","FCLASS_NP":"","FCLASS_PK":"","FCLASS_DE":"","FCLASS_GB":"","FCLASS_BR":"","FCLASS_IL":"","FCLASS_PS":"","FCLASS_SA":"","FCLASS_EG":"","FCLASS_MA":"","FCLASS_PT":"","FCLASS_AR":"","FCLASS_JP":"","FCLASS_KO":"","FCLASS_VN":"","FCLASS_TR":"","FCLASS_ID":"","FCLASS_PL":"","FCLASS_GR":"","FCLASS_IT":"","FCLASS_NL":"","FCLASS_SE":"","FCLASS_BD":"","FCLASS_UA":"","FCLASS_TLC":""}},{"type":"Point","coordinates":[28.97427681675554,41.01760173507249],"properties":{"SCALERANK":0,"NATSCALE":600,"LABELRANK":5,"FEATURECLA":"Admin-1 capital","NAME":"Istanbul","NAMEPAR":"","NAMEALT":"","NAMEASCII":"Istanbul","ADM0CAP":0,"CAPIN":"","WORLDCITY":1,"MEGACITY":1,"SOV0NAME":"Turkey","SOV_A3":"TUR","ADM0NAME":"Turkey","ADM0_A3":"TUR","ADM1NAME":"Istanbul","ISO_A2":"TR","NOTE":"","LATITUDE":41.106942,"LONGITUDE":29.008056,"POP_MAX":10061000,"POP_MIN":9945610,"POP_OTHER":9651488,"RANK_MAX":14,"RANK_MIN":13,"MEGANAME":"Istanbul","LS_NAME":"Istanbul","MAX_POP10":9945610,"MAX_POP20":9945243,"MAX_POP50":10140950,"MAX_POP300":10140950,"MAX_POP310":10140950,"MAX_NATSCA":300,"MIN_AREAKM":1249,"MAX_AREAKM":1327,"MIN_AREAMI":482,"MAX_AREAMI":512,"MIN_PERKM":852,"MAX_PERKM":926,"MIN_PERMI":529,"MAX_PERMI":575,"MIN_BBXMIN":28.2,"MAX_BBXMIN":28.257268,"MIN_BBXMAX":29.45,"MAX_BBXMAX":29.558333,"MIN_BBYMIN":40.75,"MAX_BBYMIN":40.75,"MIN_BBYMAX":41.258333,"MAX_BBYMAX":41.258333,"MEAN_BBXC":29.008987,"MEAN_BBYC":41.004964,"TIMEZONE":"Europe/Istanbul","UN_FID":504,"POP1950":967,"POP1955":1249,"POP1960":1453,"POP1965":2001,"POP1970":2772,"POP1975":3600,"POP1980":4397,"POP1985":5407,"POP1990":6552,"POP1995":7665,"POP2000":8744,"POP2005":9709,"POP2010":10061,"POP2015":10530,"POP2020":11177,"POP2025":11695,"POP2050":12102,"MIN_ZOOM":3,"WIKIDATAID":"Q406","WOF_ID":890460455,"CAPALT":0,"NAME_EN":"Istanbul","NAME_DE":"Istanbul","NAME_ES":"Estambul","NAME_FR":"Istanbul","NAME_PT":"Istambul","NAME_RU":"Стамбул","NAME_ZH":"伊斯坦布尔","LABEL":"","NAME_AR":"إسطنبول","NAME_BN":"ইস্তাম্বুল","NAME_EL":"Κωνσταντινούπολη","NAME_HI":"इस्तांबुल","NAME_HU":"Isztambul","NAME_ID":"Istanbul","NAME_IT":"Istanbul","NAME_JA":"イスタンブール","NAME_KO":"이스탄불","NAME_NL":"Istanboel","NAME_PL":"Stambuł","NAME_SV":"Istanbul","NAME_TR":"İstanbul","NAME_VI":"Istanbul","NE_ID":1159151579,"NAME_FA":"استانبول","NAME_HE":"איסטנבול","NAME_UK":"Стамбул","NAME_UR":"استنبول","NAME_ZHT":"伊斯坦堡","GEONAMESID":745044,"FCLASS_ISO":"","FCLASS_US":"","FCLASS_FR":"","FCLASS_RU":"","FCLASS_ES":"","FCLASS_CN":"","FCLASS_TW":"","FCLASS_IN":"","FCLASS_NP":"","FCLASS_PK":"","FCLASS_DE":"","FCLASS_GB":"","FCLASS_BR":"","FCLASS_IL":"","FCLASS_PS":"","FCLASS_SA":"","FCLASS_EG":"","FCLASS_MA":"","FCLASS_PT":"","FCLASS_AR":"","FCLASS_JP":"","FCLASS_KO":"","FCLASS_VN":"","FCLASS_TR":"","FCLASS_ID":"","FCLASS_PL":"","FCLASS_GR":"","FCLASS_IT":"","FCLASS_NL":"","FCLASS_SE":"","FCLASS_BD":"","FCLASS_UA":"","FCLASS_TLC":""}},{"type":"Point","coordinates":[12.4813126,41.8979015],"properties":{"SCALERANK":0,"NATSCALE":600,"LABELRANK":3,"FEATURECLA":"Admin-0 capital","NAME":"Rome","NAMEPAR":"","NAMEALT":"","NAMEASCII":"Rome","ADM0CAP":1,"CAPIN":"","WORLDCITY":1,"MEGACITY":1,"SOV0NAME":"Italy","SOV_A3":"ITA","ADM0NAME":"Italy","ADM0_A3":"ITA","ADM1NAME":"Lazio","ISO_A2":"IT","NOTE":"","LATITUDE":41.897902,"LONGITUDE":12.481313,"POP_MAX":3339000,"POP_MIN":35452,"POP_OTHER":2050212,"RANK_MAX":12,"RANK_MIN":7,"MEGANAME":"Rome","LS_NAME":"Rome","MAX_POP10":2143900,"MAX_POP20":2143900,"MAX_POP50":2666328,"MAX_POP300":2666328,"MAX_POP310":2666328,"MAX_NATSCA":300,"MIN_AREAKM":505,"MAX_AREAKM":683,"MIN_AREAMI":195,"MAX_AREAMI":264,"MIN_PERKM":382,"MAX_PERKM":500,"MIN_PERMI":238,"MAX_PERMI":311,"MIN_BBXMIN":12.333333,"MAX_BBXMIN":12.450494,"MIN_BBXMAX":12.766667,"MAX_BBXMAX":12.766667,"MIN_BBYMIN":41.666667,"MAX_BBYMIN":41.666667,"MIN_BBYMAX":42.033333,"MAX_BBYMAX":42.05,"MEAN_BBXC":12.561474,"MEAN_BBYC":41.864442,"TIMEZONE":"Europe/Rome","UN_FID":308,"POP1950":1884,"POP1955":2143,"POP1960":2456,"POP1965":2780,"POP1970":3135,"POP1975":3300,"POP1980":3390,"POP1985":3429,"POP1990":3450,"POP1995":3425,"POP2000":3385,"POP2005":3348,"POP2010":3339,"POP2015":3333,"POP2020":3330,"POP2025":3330,"POP2050":3330,"MIN_ZOOM":2.7,"WIKIDATAID":"Q220","WOF_ID":101752607,"CAPALT":0,"NAME_EN":"Rome","NAME_DE":"Rom","NAME_ES":"Roma","NAME_FR":"Rome","NAME_PT":"Roma","NAME_RU":"Рим","NAME_ZH":"罗马","LABEL":"","NAME_AR":"روما","NAME_BN":"রোম","NAME_EL":"Ρώμη","NAME_HI":"रोम","NAME_HU":"Róma","NAME_ID":"Roma","NAME_IT":"Roma","NAME_JA":"ローマ","NAME_KO":"로마","NAME_NL":"Rome","NAME_PL":"Rzym","NAME_SV":"Rom","NAME_TR":"Roma","NAME_VI":"Roma","NE_ID":1159151593,"NAME_FA":"رم","NAME_HE":"רומא","NAME_UK":"Рим","NAME_UR":"روم","NAME_ZHT":"羅馬","GEONAMESID":3169070,"FCLASS_ISO":"","FCLASS_US":"","FCLASS_FR":"","FCLASS_RU":"","FCLASS_ES":"","FCLASS_CN":"","FCLASS_TW":"","FCLASS_IN":"","FCLASS_NP":"","FCLASS_PK":"","FCLASS_DE":"","FCLASS_GB":"","FCLASS_BR":"","FCLASS_IL":"","FCLASS_PS":"","FCLASS_SA":"","FCLASS_EG":"","FCLASS_MA":"","FCLASS_PT":"","FCLASS_AR":"","FCLASS_JP":"","FCLASS_KO":"","FCLASS_VN":"","FCLASS_TR":"","FCLASS_ID":"","FCLASS_PL":"","FCLASS_GR":"","FCLASS_IT":"","FCLASS_NL":"","FCLASS_SE":"","FCLASS_BD":"","FCLASS_UA":"","FCLASS_TLC":""}},{"type":"Point","coordinates":[2.3529924615392135,48.85809231626911],"properties":{"SCALERANK":0,"NATSCALE":600,"LABELRANK":3,"FEATURECLA":"Admin-0 capital","NAME":"Paris","NAMEPAR":"","NAMEALT":"","NAMEASCII":"Paris","ADM0CAP":1,"CAPIN":"","WORLDCITY":1,"MEGACITY":1,"SOV0NAME":"French Republic","SOV_A3":"FRA","ADM0NAME":"France","ADM0_A3":"FRA","ADM1NAME":"Île-de-France","ISO_A2":"FR","NOTE":"","LATITUDE":48.868639,"LONGITUDE":2.33139,"POP_MAX":9904000,"POP_MIN":11177,"POP_OTHER":7142744,"RANK_MAX":13,"RANK_MIN":6,"MEGANAME":"Paris","LS_NAME":"Paris","MAX_POP10":7454172,"MAX_POP20":7970513,"MAX_POP50":9960588,"MAX_POP300":9960588,"MAX_POP310":9960588,"MAX_NATSCA":300,"MIN_AREAKM":1121,"MAX_AREAKM":2415,"MIN_AREAMI":433,"MAX_AREAMI":932,"MIN_PERKM":542,"MAX_PERKM":1891,"MIN_PERMI":337,"MAX_PERMI":1175,"MIN_BBXMIN":1.658333,"MAX_BBXMIN":2.152754,"MIN_BBXMAX":2.658336,"MAX_BBXMAX":2.925,"MIN_BBYMIN":48.491667,"MAX_BBYMIN":48.591667,"MIN_BBYMAX":49.183333,"MAX_BBYMAX":49.183333,"MEAN_BBXC":2.352277,"MEAN_BBYC":48.839027,"TIMEZONE":"Europe/Paris","UN_FID":189,"POP1950":6522,"POP1955":6796,"POP1960":7411,"POP1965":7968,"POP1970":8350,"POP1975":8558,"POP1980":8669,"POP1985":8956,"POP1990":9330,"POP1995":9510,"POP2000":9692,"POP2005":9852,"POP2010":9904,"POP2015":9958,"POP2020":10007,"POP2025":10031,"POP2050":10036,"MIN_ZOOM":1.7,"WIKIDATAID":"Q90","WOF_ID":101751119,"CAPALT":0,"NAME_EN":"Paris","NAME_DE":"Paris","NAME_ES":"París","NAME_FR":"Paris","NAME_PT":"Paris","NAME_RU":"Париж","NAME_ZH":"巴黎","LABEL":"","NAME_AR":"باريس","NAME_BN":"প্যারিস","NAME_EL":"Παρίσι","NAME_HI":"पैरिस","NAME_HU":"Párizs","NAME_ID":"Paris","NAME_IT":"Parigi","NAME_JA":"パリ","NAME_KO":"파리","NAME_NL":"Parijs","NAME_PL":"Paryż","NAME_SV":"Paris","NAME_TR":"Paris","NAME_VI":"Paris","NE_ID":1159151613,"NAME_FA":"پاریس","NAME_HE":"פריז","NAME_UK":"Париж","NAME_UR":"پیرس","NAME_ZHT":"巴黎","GEONAMESID":2988507,"FCLASS_ISO":"","FCLASS_US":"","FCLASS_FR":"","FCLASS_RU":"","FCLASS_ES":"","FCLASS_CN":"","FCLASS_TW":"","FCLASS_IN":"","FCLASS_NP":"","FCLASS_PK":"","FCLASS_DE":"","FCLASS_GB":"","FCLASS_BR":"","FCLASS_IL":"","FCLASS_PS":"","FCLASS_SA":"","FCLASS_EG":"","FCLASS_MA":"","FCLASS_PT":"","FCLASS_AR":"","FCLASS_JP":"","FCLASS_KO":"","FCLASS_VN":"","FCLASS_TR":"","FCLASS_ID":"","FCLASS_PL":"","FCLASS_GR":"","FCLASS_IT":"","FCLASS_NL":"","FCLASS_SE":"","FCLASS_BD":"","FCLASS_UA":"","FCLASS_TLC":""}}]}}}