{"type":"Topology","arcs":[],"objects":{"ne_110m_populated_places":{"type":"GeometryCollection","geometries":[{"type":"Point","coordinates":[-75.7019612,45.4186427],"properties":{"SCALERANK":3,"NATSCALE":110,"LABELRANK":2,"FEATURECLA":"Admin-0 capital","NAME":"Ottawa","NAMEPAR":"","NAMEALT":"Ottawa-Gatineau","NAMEASCII":"Ottawa","ADM0CAP":1,"CAPIN":"","WORLDCITY":0,"MEGACITY":1,"SOV0NAME":"Canada","SOV_A3":"CAN","ADM0NAME":"Canada","ADM0_A3":"CAN","ADM1NAME":"Ontario","ISO_A2":"CA","NOTE":"","LATITUDE":45.418643,"LONGITUDE":-75.701961,"POP_MAX":1145000,"POP_MIN":812129,"POP_OTHER":872781,"RANK_MAX":12,"RANK_MIN":11,"MEGANAME":"Ottawa-Gatineau","LS_NAME":"Ottawa","MAX_POP10":885780,"MAX_POP20":885780,"MAX_POP50":885780,"MAX_POP300":885780,"MAX_POP310":0,"MAX_NATSCA":100,"MIN_AREAKM":504,"MAX_AREAKM":504,"MIN_AREAMI":195,"MAX_AREAMI":195,"MIN_PERKM":442,"MAX_PERKM":442,"MIN_PERMI":274,"MAX_PERMI":274,"MIN_BBXMIN":-75.983333,"MAX_BBXMIN":-75.983333,"MIN_BBXMAX":-75.45,"MAX_BBXMAX":-75.45,"MIN_BBYMIN":45.225,"MAX_BBYMIN":45.225,"MIN_BBYMAX":45.55,"MAX_BBYMAX":45.55,"MEAN_BBXC":-75.717666,"MEAN_BBYC":45.405246,"TIMEZONE":"America/Montreal","UN_FID":13,"POP1950":282,"POP1955":342,"POP1960":415,"POP1965":482,"POP1970":581,"POP1975":676,"POP1980":729,"POP1985":803,"POP1990":918,"POP1995":988,"POP2000":1079,"POP2005":1119,"POP2010":1145,"POP2015":1182,"POP2020":1232,"POP2025":1274,"POP2050":1315,"MIN_ZOOM":3,"WIKIDATAID":"Q1930","WOF_ID":101735873,"CAPALT":0,"NAME_EN":"Ottawa","NAME_DE":"Ottawa","NAME_ES":"Ottawa","NAME_FR":"Ottawa","NAME_PT":"Ottawa","NAME_RU":"Оттава","NAME_ZH":"渥太华","LABEL":"","NAME_AR":"أوتاوا","NAME_BN":"অটোয়া","NAME_EL":"Οττάβα","NAME_HI":"ओटावा","NAME_HU":"Ottawa","NAME_ID":"Ottawa","NAME_IT":"Ottawa","NAME_JA":"オタワ","NAME_KO":"오타와","NAME_NL":"Ottawa","NAME_PL":"Ottawa","NAME_SV":"Ottawa","NAME_TR":"Ottawa","NAME_VI":"Ottawa","NE_ID":1159151059,"NAME_FA":"اتاوا","NAME_HE":"אוטווה","NAME_UK":"Оттава","NAME_UR":"اوٹاوا","NAME_ZHT":"渥太華","GEONAMESID":6094817,"FCLASS_ISO":"","FCLASS_US":"","FCLASS_FR":"","FCLASS_RU":"","FCLASS_ES":"","FCLASS_CN":"","FCLASS_TW":"","FCLASS_IN":"","FCLASS_NP":"","FCLASS_PK":"","FCLASS_DE":"","FCLASS_GB":"","FCLASS_BR":"","FCLASS_IL":"","FCLASS_PS":"","FCLASS_SA":"","FCLASS_EG":"","FCLASS_MA":"","FCLASS_PT":"","FCLASS_AR":"","FCLASS_JP":"","FCLASS_KO":"","FCLASS_VN":"","FCLASS_TR":"","FCLASS_ID":"","FCLASS_PL":"","FCLASS_GR":"","FCLASS_IT":"","FCLASS_NL":"","FCLASS_SE":"","FCLASS_BD":"","FCLASS_UA":"","FCLASS_TLC":""}},{"type":"Point","coordinates":[-77.3500438,25.0833901],"properties":{"SCALERANK":3,"NATSCALE":110,"LABELRANK":0,"FEATURECLA":"Admin-0 capital","NAME":"Nassau","NAMEPAR":"","NAMEALT":"","NAMEASCII":"Nassau","ADM0CAP":1,"CAPIN":"","WORLDCITY":0,"MEGACITY":0,"SOV0NAME":"Bahamas, The","SOV_A3":"BHS","ADM0NAME":"The Bahamas","ADM0_A3":"BHS","ADM1NAME":"","ISO_A2":"BS","NOTE":"","LATITUDE":25.08339,"LONGITUDE":-77.350044,"POP_MAX":227940,"POP_MIN":160966,"POP_OTHER":0,"RANK_MAX":10,"RANK_MIN":9,"MEGANAME":"","LS_NAME":"Nassau","MAX_POP10":160966,"MAX_POP20":160966,"MAX_POP50":160966,"MAX_POP300":160966,"MAX_POP310":0,"MAX_NATSCA":100,"MIN_AREAKM":84,"MAX_AREAKM":84,"MIN_AREAMI":32,"MAX_AREAMI":32,"MIN_PERKM":66,"MAX_PERKM":66,"MIN_PERMI":41,"MAX_PERMI":41,"MIN_BBXMIN":-77.4,"MAX_BBXMIN":-77.4,"MIN_BBXMAX":-77.258333,"MAX_BBXMAX":-77.258333,"MIN_BBYMIN":25,"MAX_BBYMIN":25,"MIN_BBYMAX":25.091667,"MAX_BBYMAX":25.091667,"MEAN_BBXC":-77.335571,"MEAN_BBYC":25.04483,"TIMEZONE":"America/Nassau","UN_FID":0,"POP1950":0,"POP1955":0,"POP1960":0,"POP1965":0,"POP1970":0,"POP1975":0,"POP1980":0,"POP1985":0,"POP1990":0,"POP1995":0,"POP2000":0,"POP2005":0,"POP2010":0,"POP2015":0,"POP2020":0,"POP2025":0,"POP2050":0,"MIN_ZOOM":5,"WIKIDATAID":"Q2467","WOF_ID":1141909413,"CAPALT":0,"NAME_EN":"Nassau","NAME_DE":"Nassau","NAME_ES":"Nasáu","NAME_FR":"Nassau","NAME_PT":"Nassau","NAME_RU":"Нассау","NAME_ZH":"拿骚","LABEL":"","NAME_AR":"ناساو","NAME_BN":"নাসাউ","NAME_EL":"Νασσάου","NAME_HI":"नासाउ","NAME_HU":"Nassau","NAME_ID":"Nassau","NAME_IT":"Nassau","NAME_JA":"ナッソー","NAME_KO":"나소","NAME_NL":"Nassau","NAME_PL":"Nassau","NAME_SV":"Nassau","NAME_TR":"Nassau","NAME_VI":"Nassau","NE_ID":1159151207,"NAME_FA":"ناسائو","NAME_HE":"נסאו","NAME_UK":"Нассау","NAME_UR":"نساؤ","NAME_ZHT":"拿騷","GEONAMESID":3571824,"FCLASS_ISO":"","FCLASS_US":"","FCLASS_FR":"","FCLASS_RU":"","FCLASS_ES":"","FCLASS_CN":"","FCLASS_TW":"","FCLASS_IN":"","FCLASS_NP":"","FCLASS_PK":"","FCLASS_DE":"","FCLASS_GB":"","FCLASS_BR":"","FCLASS_IL":"","FCLASS_PS":"","FCLASS_SA":"","FCLASS_EG":"","FCLASS_MA":"","FCLASS_PT":"","FCLASS_AR":"","FCLASS_JP":"","FCLASS_KO":"","FCLASS_VN":"","FCLASS_TR":"","FCLASS_ID":"","FCLASS_PL":"","FCLASS_GR":"","FCLASS_IT":"","FCLASS_NL":"","FCLASS_SE":"","FCLASS_BD":"","FCLASS_UA":"","FCLASS_TLC":""}},{"type":"Point","coordinates":[-82.366128,23.1339047],"properties":{"SCALERANK":2,"NATSCALE":200,"LABELRANK":6,"FEATURECLA":"Admin-0 capital","NAME":"Havana","NAMEPAR":"","NAMEALT":"La Habana","NAMEASCII":"Havana","ADM0CAP":1,"CAPIN":"","WORLDCITY":0,"MEGACITY":1,"SOV0NAME":"Cuba","SOV_A3":"CUB","ADM0NAME":"Cuba","ADM0_A3":"CUB","ADM1NAME":"Ciudad de la Habana","ISO_A2":"CU","NOTE":"","LATITUDE":23.133905,"LONGITUDE":-82.366128,"POP_MAX":2174000,"POP_MIN":1990917,"POP_OTHER":1930305,"RANK_MAX":12,"RANK_MIN":12,"MEGANAME":"La Habana","LS_NAME":"Havana","MAX_POP10":1990917,"MAX_POP20":2051170,"MAX_POP50":2051170,"MAX_POP300":2051170,"MAX_POP310":0,"MAX_NATSCA":100,"MIN_AREAKM":323,"MAX_AREAKM":362,"MIN_AREAMI":125,"MAX_AREAMI":140,"MIN_PERKM":240,"MAX_PERKM":286,"MIN_PERMI":149,"MAX_PERMI":177,"MIN_BBXMIN":-82.533333,"MAX_BBXMIN":-82.533333,"MIN_BBXMAX":-82.208333,"MAX_BBXMAX":-82.208333,"MIN_BBYMIN":22.916667,"MAX_BBYMIN":22.975161,"MIN_BBYMAX":23.183333,"MAX_BBYMAX":23.183333,"MEAN_BBXC":-82.354344,"MEAN_BBYC":23.076845,"TIMEZONE":"America/Havana","UN_FID":172,"POP1950":1116,"POP1955":1289,"POP1960":1436,"POP1965":1598,"POP1970":1779,"POP1975":1848,"POP1980":1913,"POP1985":2005,"POP1990":2108,"POP1995":2183,"POP2000":2187,"POP2005":2189,"POP2010":2174,"POP2015":2159,"POP2020":2151,"POP2025":2150,"POP2050":2150,"MIN_ZOOM":4,"WIKIDATAID":"Q1563","WOF_ID":421186583,"CAPALT":0,"NAME_EN":"Havana","NAME_DE":"Havanna","NAME_ES":"La Habana","NAME_FR":"La Havane","NAME_PT":"Havana","NAME_RU":"Гавана","NAME_ZH":"哈瓦那","LABEL":"","NAME_AR":"هافانا","NAME_BN":"হাভানা","NAME_EL":"Αβάνα","NAME_HI":"हवाना","NAME_HU":"Havanna","NAME_ID":"Havana","NAME_IT":"L'Avana","NAME_JA":"ハバナ","NAME_KO":"아바나","NAME_NL":"Havana","NAME_PL":"Hawana","NAME_SV":"Havanna","NAME_TR":"Havana","NAME_VI":"La Habana","NE_ID":1159151347,"NAME_FA":"هاوانا","NAME_HE":"הוואנה","NAME_UK":"Гавана","NAME_UR":"ہوانا","NAME_ZHT":"哈瓦那","GEONAMESID":3553478,"FCLASS_ISO":"","FCLASS_US":"","FCLASS_FR":"","FCLASS_RU":"","FCLASS_ES":"","FCLASS_CN":"","FCLASS_TW":"","FCLASS_IN":"","FCLASS_NP":"","FCLASS_PK":"","FCLASS_DE":"","FCLASS_GB":"","FCLASS_BR":"","FCLASS_IL":"","FCLASS_PS":"","FCLASS_SA":"","FCLASS_EG":"","FCLASS_MA":"","FCLASS_PT":"","FCLASS_AR":"","FCLASS_JP":"","FCLASS_KO":"","FCLASS_VN":"","FCLASS_TR":"","FCLASS_ID":"","FCLASS_PL":"","FCLASS_GR":"","FCLASS_IT":"","FCLASS_NL":"","FCLASS_SE":"","FCLASS_BD":"","FCLASS_UA":"","FCLASS_TLC":""}},{"type":"Point","coordinates":[-122.39959956304557,37.784262651527904],"properties":{"SCALERANK":1,"NATSCALE":300,"LABELRANK":1,"FEATURECLA":"Populated place","NAME":"San Francisco","NAMEPAR":"","NAMEALT":"San Francisco-Oakland","NAMEASCII":"San Francisco","ADM0CAP":0,"CAPIN":"","WORLDCITY":1,"MEGACITY":1,"SOV0NAME":"United States","SOV_A3":"USA","ADM0NAME":"United States of America","ADM0_A3":"USA","ADM1NAME":"California","ISO_A2":"US","NOTE":"","LATITUDE":37.769196,"LONGITUDE":-122.417169,"POP_MAX":3450000,"POP_MIN":732072,"POP_OTHER":27400,"RANK_MAX":12,"RANK_MIN":11,"MEGANAME":"San Francisco-Oakland","LS_NAME":"San Francisco1","MAX_POP10":988636,"MAX_POP20":1130999,"MAX_POP50":1371285,"MAX_POP300":4561697,"MAX_POP310":4561697,"MAX_NATSCA":300,"MIN_AREAKM":218,"MAX_AREAKM":1748,"MIN_AREAMI":84,"MAX_AREAMI":675,"MIN_PERKM":126,"MAX_PERKM":755,"MIN_PERMI":78,"MAX_PERMI":469,"MIN_BBXMIN":-122.516667,"MAX_BBXMIN":-122.516667,"MIN_BBXMAX":-122.358333,"MAX_BBXMAX":-121.733333,"MIN_BBYMIN":37.191667,"MAX_BBYMIN":37.575,"MIN_BBYMAX":37.816667,"MAX_BBYMAX":38.041667,"MEAN_BBXC":-122.301354,"MEAN_BBYC":37.622288,"TIMEZONE":"America/Los_Angeles","UN_FID":570,"POP1950":1855,"POP1955":2021,"POP1960":2200,"POP1965":2361,"POP1970":2529,"POP1975":2590,"POP1980":2656,"POP1985":2805,"POP1990":2961,"POP1995":3095,"POP2000":3236,"POP2005":3387,"POP2010":3450,"POP2015":3544,"POP2020":3684,"POP2025":3803,"POP2050":3898,"MIN_ZOOM":2.7,"WIKIDATAID":"Q62","WOF_ID":85922583,"CAPALT":0,"NAME_EN":"San Francisco","NAME_DE":"San Francisco","NAME_ES":"San Francisco","NAME_FR":"San Francisco","NAME_PT":"São Francisco","NAME_RU":"Сан-Франциско","NAME_ZH":"旧金山","LABEL":"","NAME_AR":"سان فرانسيسكو","NAME_BN":"সান ফ্রান্সিস্কো","NAME_EL":"Σαν Φρανσίσκο","NAME_HI":"सैन फ्रांसिस्को","NAME_HU":"San Francisco","NAME_ID":"San Francisco","NAME_IT":"San Francisco","NAME_JA":"サンフランシスコ","NAME_KO":"샌프란시스코","NAME_NL":"San Francisco","NAME_PL":"San Francisco","NAME_SV":"San Francisco","NAME_TR":"San Francisco","NAME_VI":"San Francisco","NE_ID":1159151479,"NAME_FA":"سان فرانسیسکو","NAME_HE":"סן פרנסיסקו","NAME_UK":"Сан-Франциско","NAME_UR":"سان فرانسسکو","NAME_ZHT":"舊金山","GEONAMESID":5391959,"FCLASS_ISO":"","FCLASS_US":"","FCLASS_FR":"","FCLASS_RU":"","FCLASS_ES":"","FCLASS_CN":"","FCLASS_TW":"","FCLASS_IN":"","FCLASS_NP":"","FCLASS_PK":"","FCLASS_DE":"","FCLASS_GB":"","FCLASS_BR":"","FCLASS_IL":"","FCLASS_PS":"","FCLASS_SA":"","FCLASS_EG":"","FCLASS_MA":"","FCLASS_PT":"","FCLASS_AR":"","FCLASS_JP":"","FCLASS_KO":"","FCLASS_VN":"","FCLASS_TR":"","FCLASS_ID":"","FCLASS_PL":"","FCLASS_GR":"","FCLASS_IT":"","FCLASS_NL":"","FCLASS_SE":"","FCLASS_BD":"","FCLASS_UA":"","FCLASS_TLC":""}},{"type":"Point","coordinates":[-104.9859618,39.7411339],"properties":{"SCALERANK":1,"NATSCALE":300,"LABELRANK":1,"FEATURECLA":"Admin-1 capital","NAME":"Denver","NAMEPAR":"","NAMEALT":"Denver-Aurora","NAMEASCII":"Denver","ADM0CAP":0,"CAPIN":"","WORLDCITY":0,"MEGACITY":1,"SOV0NAME":"United States","SOV_A3":"USA","ADM0NAME":"United States of America","ADM0_A3":"USA","ADM1NAME":"Colorado","ISO_A2":"US","NOTE":"","LATITUDE":39.741134,"LONGITUDE":-104.985962,"POP_MAX":2313000,"POP_MIN":1548599,"POP_OTHER":1521278,"RANK_MAX":12,"RANK_MIN":12,"MEGANAME":"Denver-Aurora","LS_NAME":"Denver","MAX_POP10":1548599,"MAX_POP20":2100407,"MAX_POP50":2174327,"MAX_POP300":2174327,"MAX_POP310":0,"MAX_NATSCA":100,"MIN_AREAKM":909,"MAX_AREAKM":1345,"MIN_AREAMI":351,"MAX_AREAMI":519,"MIN_PERKM":371,"MAX_PERKM":606,"MIN_PERMI":231,"MAX_PERMI":376,"MIN_BBXMIN":-105.241667,"MAX_BBXMIN":-105.241667,"MIN_BBXMAX":-104.866667,"MAX_BBXMAX":-104.708333,"MIN_BBYMIN":39.5,"MAX_BBYMIN":39.5,"MIN_BBYMAX":39.958333,"MAX_BBYMAX":40.025,"MEAN_BBXC":-104.993967,"MEAN_BBYC":39.72985,"TIMEZONE":"","UN_FID":537,"POP1950":505,"POP1955":641,"POP1960":809,"POP1965":923,"POP1970":1054,"POP1975":1198,"POP1980":1356,"POP1985":1437,"POP1990":1528,"POP1995":1747,"POP2000":1998,"POP2005":2241,"POP2010":2313,"POP2015":2396,"POP2020":2502,"POP2025":2590,"POP2050":2661,"MIN_ZOOM":3.7,"WIKIDATAID":"Q16554","WOF_ID":85928879,"CAPALT":0,"NAME_EN":"Denver","NAME_DE":"Denver","NAME_ES":"Denver","NAME_FR":"Denver","NAME_PT":"Denver","NAME_RU":"Денвер","NAME_ZH":"丹佛","LABEL":"","NAME_AR":"دنفر","NAME_BN":"ডেনভার","NAME_EL":"Ντένβερ","NAME_HI":"डॅनवर","NAME_HU":"Denver","NAME_ID":"Denver","NAME_IT":"Denver","NAME_JA":"デンヴァー","NAME_KO":"덴버","NAME_NL":"Denver","NAME_PL":"Denver","NAME_SV":"Denver","NAME_TR":"Denver","NAME_VI":"Denver","NE_ID":1159151483,"NAME_FA":"دنور","NAME_HE":"דנוור","NAME_UK":"Денвер","NAME_UR":"ڈینور","NAME_ZHT":"丹佛","GEONAMESID":5419384,"FCLASS_ISO":"","FCLASS_US":"","FCLASS_FR":"","FCLASS_RU":"","FCLASS_ES":"","FCLASS_CN":"","FCLASS_TW":"","FCLASS_IN":"","FCLASS_NP":"","FCLASS_PK":"","FCLASS_DE":"","FCLASS_GB":"","FCLASS_BR":"","FCLASS_IL":"","FCLASS_PS":"","FCLASS_SA":"","FCLASS_EG":"","FCLASS_MA":"","FCLASS_PT":"","FCLASS_AR":"","FCLASS_JP":"","FCLASS_KO":"","FCLASS_VN":"","FCLASS_TR":"","FCLASS_ID":"","FCLASS_PL":"","FCLASS_GR":"","FCLASS_IT":"","FCLASS_NL":"","FCLASS_SE":"","FCLASS_BD":"","FCLASS_UA":"","FCLASS_TLC":""}},{"type":"Point","coordinates":[-95.34843625672217,29.741272831862542],"properties":{"SCALERANK":1,"NATSCALE":300,"LABELRANK":1,"FEATURECLA":"Populated place","NAME":"Houston","NAMEPAR":"","NAMEALT":"","NAMEASCII":"Houston","ADM0CAP":0,"CAPIN":"","WORLDCITY":0,"MEGACITY":1,"SOV0NAME":"United States","SOV_A3":"USA","ADM0NAME":"United States of America","ADM0_A3":"USA","ADM1NAME":"Texas","ISO_A2":"US","NOTE":"","LATITUDE":29.82192,"LONGITUDE":-95.341925,"POP_MAX":4459000,"POP_MIN":3647574,"POP_OTHER":3607616,"RANK_MAX":12,"RANK_MIN":12,"MEGANAME":"Houston","LS_NAME":"Houston","MAX_POP10":3647574,"MAX_POP20":4287078,"MAX_POP50":4352341,"MAX_POP300":4352341,"MAX_POP310":0,"MAX_NATSCA":100,"MIN_AREAKM":2388,"MAX_AREAKM":3041,"MIN_AREAMI":922,"MAX_AREAMI":1174,"MIN_PERKM":1257,"MAX_PERKM":1773,"MIN_PERMI":781,"MAX_PERMI":1101,"MIN_BBXMIN":-95.841667,"MAX_BBXMIN":-95.841667,"MIN_BBXMAX":-95.133333,"MAX_BBXMAX":-95,"MIN_BBYMIN":29.475,"MAX_BBYMIN":29.491667,"MIN_BBYMAX":30.258915,"MAX_BBYMAX":30.266667,"MEAN_BBXC":-95.431928,"MEAN_BBYC":29.810477,"TIMEZONE":"","UN_FID":542,"POP1950":709,"POP1955":904,"POP1960":1151,"POP1965":1396,"POP1970":1693,"POP1975":2030,"POP1980":2424,"POP1985":2658,"POP1990":2922,"POP1995":3353,"POP2000":3849,"POP2005":4324,"POP2010":4459,"POP2015":4609,"POP2020":4790,"POP2025":4936,"POP2050":5049,"MIN_ZOOM":3,"WIKIDATAID":"Q16555","WOF_ID":101725629,"CAPALT":0,"NAME_EN":"Houston","NAME_DE":"Houston","NAME_ES":"Houston","NAME_FR":"Houston","NAME_PT":"Houston","NAME_RU":"Хьюстон","NAME_ZH":"休斯敦","LABEL":"","NAME_AR":"هيوستن","NAME_BN":"হিউস্টন","NAME_EL":"Χιούστον","NAME_HI":"ह्युस्टन","NAME_HU":"Houston","NAME_ID":"Houston","NAME_IT":"Houston","NAME_JA":"ヒューストン","NAME_KO":"휴스턴","NAME_NL":"Houston","NAME_PL":"Houston","NAME_SV":"Houston","NAME_TR":"Houston","NAME_VI":"Houston","NE_ID":1159151485,"NAME_FA":"هیوستون","NAME_HE":"יוסטון","NAME_UK":"Х'юстон","NAME_UR":"ہوسٹن","NAME_ZHT":"休士頓","GEONAMESID":4699066,"FCLASS_ISO":"","FCLASS_US":"","FCLASS_FR":"","FCLASS_RU":"","FCLASS_ES":"","FCLASS_CN":"","FCLASS_TW":"","FCLASS_IN":"","FCLASS_NP":"","FCLASS_PK":"","FCLASS_DE":"","FCLASS_GB":"","FCLASS_BR":"","FCLASS_IL":"","FCLASS_PS":"","FCLASS_SA":"","FCLASS_EG":"","FCLASS_MA":"","FCLASS_PT":"","FCLASS_AR":"","FCLASS_JP":"","FCLASS_KO":"","FCLASS_VN":"","FCLASS_TR":"","FCLASS_ID":"","FCLASS_PL":"","FCLASS_GR":"","FCLASS_IT":"","FCLASS_NL":"","FCLASS_SE":"","FCLASS_BD":"","FCLASS_UA":"","FCLASS_TLC":""}},{"type":"Point","coordinates":[-80.2260519,25.7895566],"properties":{"SCALERANK":1,"NATSCALE":300,"LABELRANK":1,"FEATURECLA":"Populated place","NAME":"Miami","NAMEPAR":"","NAMEALT":"","NAMEASCII":"Miami","ADM0CAP":0,"CAPIN":"","WORLDCITY":1,"MEGACITY":1,"SOV0NAME":"United States","SOV_A3":"USA","ADM0NAME":"United States of America","ADM0_A3":"USA","ADM1NAME":"Florida","ISO_A2":"US","NOTE":"","LATITUDE":25.789557,"LONGITUDE":-80.226052,"POP_MAX":5585000,"POP_MIN":382894,"POP_OTHER":1037811,"RANK_MAX":13,"RANK_MIN":10,"MEGANAME":"Miami","LS_NAME":"Miami","MAX_POP10":1122682,"MAX_POP20":1443206,"MAX_POP50":5187749,"MAX_POP300":5187749,"MAX_POP310":5187749,"MAX_NATSCA":300,"MIN_AREAKM":380,"MAX_AREAKM":2907,"MIN_AREAMI":147,"MAX_AREAMI":1122,"MIN_PERKM":156,"MAX_PERKM":999,"MIN_PERMI":97,"MAX_PERMI":620,"MIN_BBXMIN":-80.466667,"MAX_BBXMIN":-80.441667,"MIN_BBXMAX":-80.175719,"MAX_BBXMAX":-80.025,"MIN_BBYMIN":25.55,"MAX_BBYMIN":25.725,"MIN_BBYMAX":26.01406,"MAX_BBYMAX":26.991667,"MEAN_BBXC":-80.236416,"MEAN_BBYC":26.067179,"TIMEZONE":"America/New_York","UN_FID":550,"POP1950":622,"POP1955":924,"POP1960":1361,"POP1965":1709,"POP1970":2141,"POP1975":2590,"POP1980":3122,"POP1985":3521,"POP1990":3969,"POP1995":4431,"POP2000":4946,"POP2005":5438,"POP2010":5585,"POP2015":5755,"POP2020":5969,"POP2025":6141,"POP2050":6272,"MIN_ZOOM":2.1,"WIKIDATAID":"Q8652","WOF_ID":85933669,"CAPALT":0,"NAME_EN":"Miami","NAME_DE":"Miami","NAME_ES":"Miami","NAME_FR":"Miami","NAME_PT":"Miami","NAME_RU":"Майами","NAME_ZH":"迈阿密","LABEL":"","NAME_AR":"ميامي","NAME_BN":"মায়ামি","NAME_EL":"Μαϊάμι","NAME_HI":"मियामी","NAME_HU":"Miami","NAME_ID":"Miami","NAME_IT":"Miami","NAME_JA":"マイアミ","NAME_KO":"마이애미","NAME_NL":"Miami","NAME_PL":"Miami","NAME_SV":"Miami","NAME_TR":"Miami","NAME_VI":"Miami","NE_ID":1159151487,"NAME_FA":"میامی","NAME_HE":"מיאמי","NAME_UK":"Маямі","NAME_UR":"میامی","NAME_ZHT":"邁阿密","GEONAMESID":4164138,"FCLASS_ISO":"","FCLASS_US":"","FCLASS_FR":"","FCLASS_RU":"","FCLASS_ES":"","FCLASS_CN":"","FCLASS_TW":"","FCLASS_IN":"","FCLASS_NP":"","FCLASS_PK":"","FCLASS_DE":"","FCLASS_GB":"","FCLASS_BR":"","FCLASS_IL":"","FCLASS_PS":"","FCLASS_SA":"","FCLASS_EG":"","FCLASS_MA":"","FCLASS_PT":"","FCLASS_AR":"","FCLASS_JP":"","FCLASS_KO":"","FCLASS_VN":"","FCLASS_TR":"","FCLASS_ID":"","FCLASS_PL":"","FCLASS_GR":"","FCLASS_IT":"","FCLASS_NL":"","FCLASS_SE":"","FCLASS_BD":"","FCLASS_UA":"","FCLASS_TLC":""}},{"type":"Point","coordinates":[-84.36764186571386,33.73945728378348],"properties":{"SCALERANK":1,"NATSCALE":300,"LABELRANK":1,"FEATURECLA":"Admin-1 capital","NAME":"Atlanta","NAMEPAR":"","NAMEALT":"","NAMEASCII":"Atlanta","ADM0CAP":0,"CAPIN":"","WORLDCITY":1,"MEGACITY":1,"SOV0NAME":"United States","SOV_A3":"USA","ADM0NAME":"United States of America","ADM0_A3":"USA","ADM1NAME":"Georgia","ISO_A2":"US","NOTE":"","LATITUDE":33.83196,"LONGITUDE":-84.401895,"POP_MAX":4506000,"POP_MIN":422908,"POP_OTHER":2874096,"RANK_MAX":12,"RANK_MIN":10,"MEGANAME":"Atlanta","LS_NAME":"Atlanta","MAX_POP10":2928128,"MAX_POP20":3896411,"MAX_POP50":3910939,"MAX_POP300":3910939,"MAX_POP310":3910939,"MAX_NATSCA":300,"MIN_AREAKM":2761,"MAX_AREAKM":4086,"MIN_AREAMI":1066,"MAX_AREAMI":1578,"MIN_PERKM":1494,"MAX_PERKM":2459,"MIN_PERMI":929,"MAX_PERMI":1528,"MIN_BBXMIN":-84.875,"MAX_BBXMIN":-84.608333,"MIN_BBXMAX":-83.879976,"MAX_BBXMAX":-83.858333,"MIN_BBYMIN":33.383333,"MAX_BBYMIN":33.383333,"MIN_BBYMAX":34.202715,"MAX_BBYMAX":34.275,"MEAN_BBXC":-84.328739,"MEAN_BBYC":33.851552,"TIMEZONE":"America/New_York","UN_FID":524,"POP1950":513,"POP1955":631,"POP1960":776,"POP1965":959,"POP1970":1182,"POP1975":1386,"POP1980":1625,"POP1985":1879,"POP1990":2184,"POP1995":2781,"POP2000":3542,"POP2005":4307,"POP2010":4506,"POP2015":4695,"POP2020":4888,"POP2025":5035,"POP2050":5151,"MIN_ZOOM":3,"WIKIDATAID":"Q23556","WOF_ID":85936429,"CAPALT":0,"NAME_EN":"Atlanta","NAME_DE":"Atlanta","NAME_ES":"Atlanta","NAME_FR":"Atlanta","NAME_PT":"Atlanta","NAME_RU":"Атланта","NAME_ZH":"亚特兰大","LABEL":"","NAME_AR":"أتلانتا","NAME_BN":"আটলান্টা","NAME_EL":"Ατλάντα","NAME_HI":"एटलांटा","NAME_HU":"Atlanta","NAME_ID":"Atlanta","NAME_IT":"Atlanta","NAME_JA":"アトランタ","NAME_KO":"애틀랜타","NAME_NL":"Atlanta","NAME_PL":"Atlanta","NAME_SV":"Atlanta","NAME_TR":"Atlanta","NAME_VI":"Atlanta","NE_ID":1159151489,"NAME_FA":"آتلانتا","NAME_HE":"אטלנטה","NAME_UK":"Атланта","NAME_UR":"اٹلانٹا","NAME_ZHT":"亞特蘭大","GEONAMESID":4180439,"FCLASS_ISO":"","FCLASS_US":"","FCLASS_FR":"","FCLASS_RU":"","FCLASS_ES":"","FCLASS_CN":"","FCLASS_TW":"","FCLASS_IN":"","FCLASS_NP":"","FCLASS_PK":"","FCLASS_DE":"","FCLASS_GB":"","FCLASS_BR":"","FCLASS_IL":"","FCLASS_PS":"","FCLASS_SA":"","FCLASS_EG":"","FCLASS_MA":"","FCLASS_PT":"","FCLASS_AR":"","FCLASS_JP":"","FCLASS_KO":"","FCLASS_VN":"","FCLASS_TR":"","FCLASS_ID":"","FCLASS_PL":"","FCLASS_GR":"","FCLASS_IT":"","FCLASS_NL":"","FCLASS_SE":"","FCLASS_BD":"","FCLASS_UA":"","FCLASS_TLC":""}},{"type":"Point","coordinates":[-87.63523655322338,41.847961283364114],"properties":{"SCALERANK":1,"NATSCALE":300,"LABELRANK":1,"FEATURECLA":"Populated place","NAME":"Chicago","NAMEPAR":"","NAMEALT":"","NAMEASCII":"Chicago","ADM0CAP":0,"CAPIN":"","WORLDCITY":1,"MEGACITY":1,"SOV0NAME":"United States","SOV_A3":"USA","ADM0NAME":"United States of America","ADM0_A3":"USA","ADM1NAME":"Illinois","ISO_A2":"US","NOTE":"","LATITUDE":41.831937,"LONGITUDE":-87.752001,"POP_MAX":8990000,"POP_MIN":2841952,"POP_OTHER":3635101,"RANK_MAX":13,"RANK_MIN":12,"MEGANAME":"Chicago","LS_NAME":"Chicago","MAX_POP10":3747798,"MAX_POP20":5069998,"MAX_POP50":8416660,"MAX_POP300":8416660,"MAX_POP310":8450289,"MAX_NATSCA":300,"MIN_AREAKM":1345,"MAX_AREAKM":4804,"MIN_AREAMI":519,"MAX_AREAMI":1855,"MIN_PERKM":471,"MAX_PERKM":2946,"MIN_PERMI":293,"MAX_PERMI":1830,"MIN_BBXMIN":-88.408333,"MAX_BBXMIN":-88.03629,"MIN_BBXMAX":-87.528138,"MAX_BBXMAX":-87.125,"MIN_BBYMIN":41.391667,"MAX_BBYMIN":41.458333,"MIN_BBYMAX":42.000972,"MAX_BBYMAX":42.491667,"MEAN_BBXC":-87.85874,"MEAN_BBYC":41.832719,"TIMEZONE":"America/Chicago","UN_FID":531,"POP1950":4999,"POP1955":5565,"POP1960":6183,"POP1965":6639,"POP1970":7106,"POP1975":7160,"POP1980":7216,"POP1985":7285,"POP1990":7374,"POP1995":7839,"POP2000":8333,"POP2005":8820,"POP2010":8990,"POP2015":9211,"POP2020":9516,"POP2025":9756,"POP2050":9932,"MIN_ZOOM":3,"WIKIDATAID":"Q1297","WOF_ID":85940195,"CAPALT":0,"NAME_EN":"Chicago","NAME_DE":"Chicago","NAME_ES":"Chicago","NAME_FR":"Chicago","NAME_PT":"Chicago","NAME_RU":"Чикаго","NAME_ZH":"芝加哥","LABEL":"","NAME_AR":"شيكاغو","NAME_BN":"শিকাগো","NAME_EL":"Σικάγο","NAME_HI":"शिकागो","NAME_HU":"Chicago","NAME_ID":"Chicago","NAME_IT":"Chicago","NAME_JA":"シカゴ","NAME_KO":"시카고","NAME_NL":"Chicago","NAME_PL":"Chicago","NAME_SV":"Chicago","NAME_TR":"Şikago","NAME_VI":"Chicago","NE_ID":1159151491,"NAME_FA":"شیکاگو","NAME_HE":"שיקגו","NAME_UK":"Чикаго","NAME_UR":"شکاگو","NAME_ZHT":"芝加哥","GEONAMESID":4887398,"FCLASS_ISO":"","FCLASS_US":"","FCLASS_FR":"","FCLASS_RU":"","FCLASS_ES":"","FCLASS_CN":"","FCLASS_TW":"","FCLASS_IN":"","FCLASS_NP":"","FCLASS_PK":"","FCLASS_DE":"","FCLASS_GB":"","FCLASS_BR":"","FCLASS_IL":"","FCLASS_PS":"","FCLASS_SA":"","FCLASS_EG":"","FCLASS_MA":"","FCLASS_PT":"","FCLASS_AR":"","FCLASS_JP":"","FCLASS_KO":"","FCLASS_VN":"","FCLASS_TR":"","FCLASS_ID":"","FCLASS_PL":"","FCLASS_GR":"","FCLASS_IT":"","FCLASS_NL":"","FCLASS_SE":"","FCLASS_BD":"","FCLASS_UA":"","FCLASS_TLC":""}},{"type":"Point","coordinates":[-100.3319306,25.671941],"properties":{"SCALERANK":1,"NATSCALE":300,"LABELRANK":2,"FEATURECLA":"Admin-1 capital","NAME":"Monterrey","NAMEPAR":"","NAMEALT":"","NAMEASCII":"Monterrey","ADM0CAP":0,"CAPIN":"","WORLDCITY":0,"MEGACITY":1,"SOV0NAME":"Mexico","SOV_A3":"MEX","ADM0NAME":"Mexico","ADM0_A3":"MEX","ADM1NAME":"Nuevo León","ISO_A2":"MX","NOTE":"","LATITUDE":25.671941,"LONGITUDE":-100.331931,"POP_MAX":3712000,"POP_MIN":1122874,"POP_OTHER":3225636,"RANK_MAX":12,"RANK_MIN":12,"MEGANAME":"Monterrey","LS_NAME":"Monterrey","MAX_POP10":3296184,"MAX_POP20":3296184,"MAX_POP50":3296184,"MAX_POP300":3296184,"MAX_POP310":0,"MAX_NATSCA":100,"MIN_AREAKM":594,"MAX_AREAKM":594,"MIN_AREAMI":229,"MAX_AREAMI":229,"MIN_PERKM":208,"MAX_PERKM":208,"MIN_PERMI":130,"MAX_PERMI":130,"MIN_BBXMIN":-100.5,"MAX_BBXMIN":-100.5,"MIN_BBXMAX":-100.125,"MAX_BBXMAX":-100.125,"MIN_BBYMIN":25.575,"MAX_BBYMIN":25.575,"MIN_BBYMAX":25.85,"MAX_BBYMAX":25.85,"MEAN_BBXC":-100.290632,"MEAN_BBYC":25.71613,"TIMEZONE":"America/Monterrey","UN_FID":359,"POP1950":356,"POP1955":498,"POP1960":698,"POP1965":943,"POP1970":1267,"POP1975":1589,"POP1980":1992,"POP1985":2273,"POP1990":2594,"POP1995":2961,"POP2000":3266,"POP2005":3579,"POP2010":3712,"POP2015":3901,"POP2020":4140,"POP2025":4298,"POP2050":4413,"MIN_ZOOM":3.7,"WIKIDATAID":"Q81033","WOF_ID":102000679,"CAPALT":0,"NAME_EN":"Monterrey","NAME_DE":"Monterrey","NAME_ES":"Monterrey","NAME_FR":"Monterrey","NAME_PT":"Monterrei","NAME_RU":"Монтеррей","NAME_ZH":"蒙特雷","LABEL":"","NAME_AR":"مونتيري","NAME_BN":"মোন্তেররেই","NAME_EL":"Μοντερρέι","NAME_HI":"मोंटेरे","NAME_HU":"Monterrey","NAME_ID":"Monterrey","NAME_IT":"Monterrey","NAME_JA":"モンテレイ","NAME_KO":"몬테레이","NAME_NL":"Monterrey","NAME_PL":"Monterrey","NAME_SV":"Monterrey","NAME_TR":"Monterrey","NAME_VI":"Monterrey","NE_ID":1159151527,"NAME_FA":"مونترری٬ نوئوو لئون","NAME_HE":"מונטריי","NAME_UK":"Монтеррей","NAME_UR":"مونترئی","NAME_ZHT":"蒙特雷","GEONAMESID":3995465,"FCLASS_ISO":"","FCLASS_US":"","FCLASS_FR":"","FCLASS_RU":"","FCLASS_ES":"","FCLASS_CN":"","FCLASS_TW":"","FCLASS_IN":"","FCLASS_NP":"","FCLASS_PK":"","FCLASS_DE":"","FCLASS_GB":"","FCLASS_BR":"","FCLASS_IL":"","FCLASS_PS":"","FCLASS_SA":"","FCLASS_EG":"","FCLASS_MA":"","FCLASS_PT":"","FCLASS_AR":"","FCLASS_JP":"","FCLASS_KO":"","FCLASS_VN":"","FCLASS_TR":"","FCLASS_ID":"","FCLASS_PL":"","FCLASS_GR":"","FCLASS_IT":"","FCLASS_NL":"","FCLASS_SE":"","FCLASS_BD":"","FCLASS_UA":"","FCLASS_TLC":""}},{"type":"Point","coordinates":[-123.1235901,49.2753624],"properties":{"SCALERANK":1,"NATSCALE":300,"LABELRANK":2,"FEATURECLA":"Populated place","NAME":"Vancouver","NAMEPAR":"","NAMEALT":"","NAMEASCII":"Vancouver","ADM0CAP":0,"CAPIN":"","WORLDCITY":0,"MEGACITY":1,"SOV0NAME":"Canada","SOV_A3":"CAN","ADM0NAME":"Canada","ADM0_A3":"CAN","ADM1NAME":"British Columbia","ISO_A2":"CA","NOTE":"","LATITUDE":49.275362,"LONGITUDE":-123.12359,"POP_MAX":2313328,"POP_MIN":603502,"POP_OTHER":482002,"RANK_MAX":12,"RANK_MIN":11,"MEGANAME":"Vancouver","LS_NAME":"Vancouver2","MAX_POP10":1590116,"MAX_POP20":1588839,"MAX_POP50":1590116,"MAX_POP300":1590116,"MAX_POP310":0,"MAX_NATSCA":100,"MIN_AREAKM":706,"MAX_AREAKM":708,"MIN_AREAMI":273,"MAX_AREAMI":273,"MIN_PERKM":398,"MAX_PERKM":405,"MIN_PERMI":248,"MAX_PERMI":251,"MIN_BBXMIN":-123.283333,"MAX_BBXMIN":-123.283333,"MIN_BBXMAX":-122.708333,"MAX_BBXMAX":-122.708333,"MIN_BBYMIN":49.1,"MAX_BBYMIN":49.1,"MIN_BBYMAX":49.383333,"MAX_BBYMAX":49.383333,"MEAN_BBXC":-122.982768,"MEAN_BBYC":49.228888,"TIMEZONE":"America/Vancouver","UN_FID":15,"POP1950":556,"POP1955":588,"POP1960":620,"POP1965":836,"POP1970":1045,"POP1975":1150,"POP1980":1247,"POP1985":1359,"POP1990":1559,"POP1995":1789,"POP2000":1959,"POP2005":2093,"POP2010":2146,"POP2015":2219,"POP2020":2310,"POP2025":2380,"POP2050":2444,"MIN_ZOOM":2.1,"WIKIDATAID":"Q24639","WOF_ID":101741075,"CAPALT":0,"NAME_EN":"Vancouver","NAME_DE":"Vancouver","NAME_ES":"Vancouver","NAME_FR":"Vancouver","NAME_PT":"Vancouver","NAME_RU":"Ванкувер","NAME_ZH":"温哥华","LABEL":"","NAME_AR":"فانكوفر","NAME_BN":"ভ্যানকুভার","NAME_EL":"Βανκούβερ","NAME_HI":"वैंकूवर","NAME_HU":"Vancouver","NAME_ID":"Vancouver","NAME_IT":"Vancouver","NAME_JA":"バンクーバー","NAME_KO":"밴쿠버","NAME_NL":"Vancouver","NAME_PL":"Vancouver","NAME_SV":"Vancouver","NAME_TR":"Vancouver","NAME_VI":"Vancouver","NE_ID":1159151555,"NAME_FA":"ونکوور","NAME_HE":"ונקובר","NAME_UK":"Ванкувер","NAME_UR":"وینکوور","NAME_ZHT":"溫哥華","GEONAMESID":6173331,"FCLASS_ISO":"","FCLASS_US":"","FCLASS_FR":"","FCLASS_RU":"","FCLASS_ES":"","FCLASS_CN":"","FCLASS_TW":"","FCLASS_IN":"","FCLASS_NP":"","FCLASS_PK":"","FCLASS_DE":"","FCLASS_GB":"","FCLASS_BR":"","FCLASS_IL":"","FCLASS_PS":"","FCLASS_SA":"","FCLASS_EG":"","FCLASS_MA":"","FCLASS_PT":"","FCLASS_AR":"","FCLASS_JP":"","FCLASS_KO":"","FCLASS_VN":"","FCLASS_TR":"","FCLASS_ID":"","FCLASS_PL":"","FCLASS_GR":"","FCLASS_IT":"","FCLASS_NL":"","FCLASS_SE":"","FCLASS_BD":"","FCLASS_UA":"","FCLASS_TLC":""}},{"type":"Point","coordinates":[-79.38945855491194,43.66464454743429],"properties":{"SCALERANK":1,"NATSCALE":300,"LABELRANK":2,"FEATURECLA":"Admin-1 capital","NAME":"Toronto","NAMEPAR":"","NAMEALT":"","NAMEASCII":"Toronto","ADM0CAP":0,"CAPIN":"","WORLDCITY":1,"MEGACITY":1,"SOV0NAME":"Canada","SOV_A3":"CAN","ADM0NAME":"Canada","ADM0_A3":"CAN","ADM1NAME":"Ontario","ISO_A2":"CA","NOTE":"","LATITUDE":43.701926,"LONGITUDE":-79.421967,"POP_MAX":5213000,"POP_MIN":3934421,"POP_OTHER":3749229,"RANK_MAX":13,"RANK_MIN":12,"MEGANAME":"Toronto","LS_NAME":"Toronto","MAX_POP10":3934421,"MAX_POP20":4377344,"MAX_POP50":5190755,"MAX_POP300":5190755,"MAX_POP310":5190755,"MAX_NATSCA":300,"MIN_AREAKM":1432,"MAX_AREAKM":2286,"MIN_AREAMI":553,"MAX_AREAMI":883,"MIN_PERKM":464,"MAX_PERKM":1161,"MIN_PERMI":289,"MAX_PERMI":721,"MIN_BBXMIN":-80.008333,"MAX_BBXMIN":-79.806554,"MIN_BBXMAX":-79.130272,"MAX_BBXMAX":-78.608333,"MIN_BBYMIN":43.141667,"MAX_BBYMIN":43.475,"MIN_BBYMAX":44.090162,"MAX_BBYMAX":44.125,"MEAN_BBXC":-79.464213,"MEAN_BBYC":43.712937,"TIMEZONE":"America/Toronto","UN_FID":14,"POP1950":1068,"POP1955":1365,"POP1960":1744,"POP1965":2093,"POP1970":2535,"POP1975":2770,"POP1980":3008,"POP1985":3355,"POP1990":3807,"POP1995":4197,"POP2000":4607,"POP2005":5035,"POP2010":5213,"POP2015":5447,"POP2020":5687,"POP2025":5827,"POP2050":5946,"MIN_ZOOM":2.1,"WIKIDATAID":"Q172","WOF_ID":101735835,"CAPALT":0,"NAME_EN":"Toronto","NAME_DE":"Toronto","NAME_ES":"Toronto","NAME_FR":"Toronto","NAME_PT":"Toronto","NAME_RU":"Торонто","NAME_ZH":"多伦多","LABEL":"","NAME_AR":"تورونتو","NAME_BN":"টরন্টো","NAME_EL":"Τορόντο","NAME_HI":"टोरण्टो","NAME_HU":"Toronto","NAME_ID":"Toronto","NAME_IT":"Toronto","NAME_JA":"トロント","NAME_KO":"토론토","NAME_NL":"Toronto","NAME_PL":"Toronto","NAME_SV":"Toronto","NAME_TR":"Toronto","NAME_VI":"Toronto","NE_ID":1159151557,"NAME_FA":"تورنتو","NAME_HE":"טורונטו","NAME_UK":"Торонто","NAME_UR":"ٹورانٹو","NAME_ZHT":"多倫多","GEONAMESID":6167865,"FCLASS_ISO":"","FCLASS_US":"","FCLASS_FR":"","FCLASS_RU":"","FCLASS_ES":"","FCLASS_CN":"","FCLASS_TW":"","FCLASS_IN":"","FCLASS_NP":"","FCLASS_PK":"","FCLASS_DE":"","FCLASS_GB":"","FCLASS_BR":"","FCLASS_IL":"","FCLASS_PS":"","FCLASS_SA":"","FCLASS_EG":"","FCLASS_MA":"","FCLASS_PT":"","FCLASS_AR":"","FCLASS_JP":"","FCLASS_KO":"","FCLASS_VN":"","FCLASS_TR":"","FCLASS_ID":"","FCLASS_PL":"","FCLASS_GR":"","FCLASS_IT":"","FCLASS_NL":"","FCLASS_SE":"","FCLASS_BD":"","FCLASS_UA":"","FCLASS_TLC":""}},{"type":"Point","coordinates":[-118.23198647223317,34.049219260337075],"properties":{"SCALERANK":0,"NATSCALE":600,"LABELRANK":1,"FEATURECLA":"Populated place","NAME":"Los Angeles","NAMEPAR":"","NAMEALT":"Los Angeles-Long Beach-Santa Ana","NAMEASCII":"Los Angeles","ADM0CAP":0,"CAPIN":"","WORLDCITY":1,"MEGACITY":1,"SOV0NAME":"United States","SOV_A3":"USA","ADM0NAME":"United States of America","ADM0_A3":"USA","ADM1NAME":"California","ISO_A2":"US","NOTE":"","LATITUDE":33.991924,"LONGITUDE":-118.181926,"POP_MAX":12500000,"POP_MIN":3694820,"POP_OTHER":142265,"RANK_MAX":14,"RANK_MIN":12,"MEGANAME":"Los Angeles-Long Beach-Santa Ana","LS_NAME":"Los Angeles1","MAX_POP10":4976870,"MAX_POP20":6558538,"MAX_POP50":14868745,"MAX_POP300":14870543,"MAX_POP310":14903021,"MAX_NATSCA":300,"MIN_AREAKM":1338,"MAX_AREAKM":5803,"MIN_AREAMI":517,"MAX_AREAMI":2241,"MIN_PERKM":534,"MAX_PERKM":2202,"MIN_PERMI":332,"MAX_PERMI":1369,"MIN_BBXMIN":-118.991667,"MAX_BBXMIN":-118.966667,"MIN_BBXMAX":-117.857183,"MAX_BBXMAX":-117.008333,"MIN_BBYMIN":33.391667,"MAX_BBYMIN":33.862631,"MIN_BBYMAX":34.241667,"MAX_BBYMAX":34.333333,"MEAN_BBXC":-118.107478,"MEAN_BBYC":33.980609,"TIMEZONE":"America/Los_Angeles","UN_FID":547,"POP1950":4046,"POP1955":5154,"POP1960":6530,"POP1965":7408,"POP1970":8378,"POP1975":8926,"POP1980":9512,"POP1985":10181,"POP1990":10883,"POP1995":11339,"POP2000":11814,"POP2005":12307,"POP2010":12500,"POP2015":12773,"POP2020":13160,"POP2025":13461,"POP2050":13672,"MIN_ZOOM":2,"WIKIDATAID":"Q65","WOF_ID":85923517,"CAPALT":0,"NAME_EN":"Los Angeles","NAME_DE":"Los Angeles","NAME_ES":"Los Ángeles","NAME_FR":"Los Angeles","NAME_PT":"Los Angeles","NAME_RU":"Лос-Анджелес","NAME_ZH":"洛杉矶","LABEL":"","NAME_AR":"لوس أنجلوس","NAME_BN":"লস অ্যাঞ্জেলেস","NAME_EL":"Λος Άντζελες","NAME_HI":"लॉस एंजेलिस","NAME_HU":"Los Angeles","NAME_ID":"Los Angeles","NAME_IT":"Los Angeles","NAME_JA":"ロサンゼルス","NAME_KO":"로스앤젤레스","NAME_NL":"Los Angeles","NAME_PL":"Los Angeles","NAME_SV":"Los Angeles","NAME_TR":"Los Angeles","NAME_VI":"Los Angeles","NE_ID":1159151569,"NAME_FA":"لس آنجلس","NAME_HE":"לוס אנג'לס","NAME_UK":"Лос-Анджелес","NAME_UR":"لاس اینجلس","NAME_ZHT":"洛杉磯","GEONAMESID":5368361,"FCLASS_ISO":"","FCLASS_US":"","FCLASS_FR":"","FCLASS_RU":"","FCLASS_ES":"","FCLASS_CN":"","FCLASS_TW":"","FCLASS_IN":"","FCLASS_NP":"","FCLASS_PK":"","FCLASS_DE":"","FCLASS_GB":"","FCLASS_BR":"","FCLASS_IL":"","FCLASS_PS":"","FCLASS_SA":"","FCLASS_EG":"","FCLASS_MA":"","FCLASS_PT":"","FCLASS_AR":"","FCLASS_JP":"","FCLASS_KO":"","FCLASS_VN":"","FCLASS_TR":"","FCLASS_ID":"","FCLASS_PL":"","FCLASS_GR":"","FCLASS_IT":"","FCLASS_NL":"","FCLASS_SE":"","FCLASS_BD":"","FCLASS_UA":"","FCLASS_TLC":""}},{"type":"Point","coordinates":[-77.0113644,38.9014952],"properties":{"SCALERANK":0,"NATSCALE":600,"LABELRANK":1,"FEATURECLA":"Admin-0 capital","NAME":"Washington,  D.C.","NAMEPAR":"","NAMEALT":"Washington D.C.","NAMEASCII":"Washington, D.C.","ADM0CAP":1,"CAPIN":"","WORLDCITY":1,"MEGACITY":1,"SOV0NAME":"United States","SOV_A3":"USA","ADM0NAME":"United States of America","ADM0_A3":"USA","ADM1NAME":"District of Columbia","ISO_A2":"US","NOTE":"","LATITUDE":38.901495,"LONGITUDE":-77.011364,"POP_MAX":4338000,"POP_MIN":552433,"POP_OTHER":2175991,"RANK_MAX":12,"RANK_MIN":11,"MEGANAME":"Washington, D.C.","LS_NAME":"Washington, D.C.","MAX_POP10":2182723,"MAX_POP20":2240256,"MAX_POP50":3764385,"MAX_POP300":5678280,"MAX_POP310":5678280,"MAX_NATSCA":300,"MIN_AREAKM":1114,"MAX_AREAKM":3447,"MIN_AREAMI":430,"MAX_AREAMI":1331,"MIN_PERKM":548,"MAX_PERKM":1898,"MIN_PERMI":341,"MAX_PERMI":1179,"MIN_BBXMIN":-77.533333,"MAX_BBXMIN":-77.308333,"MIN_BBXMAX":-76.752653,"MAX_BBXMAX":-76.4,"MIN_BBYMIN":38.666667,"MAX_BBYMIN":38.754222,"MIN_BBYMAX":39.241667,"MAX_BBYMAX":39.533333,"MEAN_BBXC":-77.002668,"MEAN_BBYC":39.007587,"TIMEZONE":"America/New_York","UN_FID":577,"POP1950":1298,"POP1955":1539,"POP1960":1823,"POP1965":2135,"POP1970":2488,"POP1975":2626,"POP1980":2777,"POP1985":3063,"POP1990":3376,"POP1995":3651,"POP2000":3949,"POP2005":4241,"POP2010":4338,"POP2015":4464,"POP2020":4636,"POP2025":4778,"POP2050":4889,"MIN_ZOOM":2.1,"WIKIDATAID":"Q61","WOF_ID":85931779,"CAPALT":0,"NAME_EN":"Washington","NAME_DE":"Washington","NAME_ES":"Washington D. C.","NAME_FR":"Washington","NAME_PT":"Washington","NAME_RU":"Вашингтон","NAME_ZH":"华盛顿哥伦比亚特区","LABEL":"","NAME_AR":"واشنطن","NAME_BN":"ওয়াশিংটন","NAME_EL":"Ουάσινγκτον","NAME_HI":"वॉशिंगटन डी॰ सी॰","NAME_HU":"Washington","NAME_ID":"Washington","NAME_IT":"Washington","NAME_JA":"ワシントンD.C.","NAME_KO":"워싱턴 D.C.","NAME_NL":"Washington D.C.","NAME_PL":"Waszyngton","NAME_SV":"Washington","NAME_TR":"Washington","NAME_VI":"Washington","NE_ID":1159151573,"NAME_FA":"واشینگتن","NAME_HE":"וושינגטון די. סי.","NAME_UK":"Вашингтон","NAME_UR":"واشنگٹن ڈی سی","NAME_ZHT":"華盛頓哥倫比亞特區","GEONAMESID":4140963,"FCLASS_ISO":"","FCLASS_US":"","FCLASS_FR":"","FCLASS_RU":"","FCLASS_ES":"","FCLASS_CN":"","FCLASS_TW":"","FCLASS_IN":"","FCLASS_NP":"","FCLASS_PK":"","FCLASS_DE":"","FCLASS_GB":"","FCLASS_BR":"","FCLASS_IL":"","FCLASS_PS":"","FCLASS_SA":"","FCLASS_EG":"","FCLASS_MA":"","FCLASS_PT":"","FCLASS_AR":"","FCLASS_JP":"","FCLASS_KO":"","FCLASS_VN":"","FCLASS_TR":"","FCLASS_ID":"","FCLASS_PL":"","FCLASS_GR":"","FCLASS_IT":"","FCLASS_NL":"","FCLASS_SE":"","FCLASS_BD":"","FCLASS_UA":"","FCLASS_TLC":""}},{"type":"Point","coordinates":[-73.99571754361698,40.72156174972766],"properties":{"SCALERANK":0,"NATSCALE":600,"LABELRANK":1,"FEATURECLA":"Populated place","NAME":"New York","NAMEPAR":"","NAMEALT":"New York-Newark","NAMEASCII":"New York","ADM0CAP":0,"CAPIN":"UN Headquarters","WORLDCITY":1,"MEGACITY":1,"SOV0NAME":"United States","SOV_A3":"USA","ADM0NAME":"United States of America","ADM0_A3":"USA","ADM1NAME":"New York","ISO_A2":"US","NOTE":"","LATITUDE":40.751925,"LONGITUDE":-73.981963,"POP_MAX":19040000,"POP_MIN":8008278,"POP_OTHER":9292603,"RANK_MAX":14,"RANK_MIN":13,"MEGANAME":"New York-Newark","LS_NAME":"New York","MAX_POP10":9376946,"MAX_POP20":11947707,"MAX_POP50":18788144,"MAX_POP300":18788144,"MAX_POP310":18924578,"MAX_NATSCA":300,"MIN_AREAKM":1137,"MAX_AREAKM":8185,"MIN_AREAMI":439,"MAX_AREAMI":3160,"MIN_PERKM":497,"MAX_PERKM":4993,"MIN_PERMI":309,"MAX_PERMI":3102,"MIN_BBXMIN":-74.75,"MAX_BBXMIN":-74.091431,"MIN_BBXMAX":-73.574946,"MAX_BBXMAX":-72.716667,"MIN_BBYMIN":39.808333,"MAX_BBYMIN":40.566667,"MIN_BBYMAX":41.057237,"MAX_BBYMAX":41.941667,"MEAN_BBXC":-73.815782,"MEAN_BBYC":40.813006,"TIMEZONE":"America/New_York","UN_FID":555,"POP1950":12338,"POP1955":13219,"POP1960":14164,"POP1965":15177,"POP1970":16191,"POP1975":15880,"POP1980":15601,"POP1985":15827,"POP1990":16086,"POP1995":16943,"POP2000":17846,"POP2005":18732,"POP2010":19040,"POP2015":19441,"POP2020":19974,"POP2025":20370,"POP2050":20628,"MIN_ZOOM":1.7,"WIKIDATAID":"Q60","WOF_ID":85977539,"CAPALT":0,"NAME_EN":"New York City","NAME_DE":"New York City","NAME_ES":"Nueva York","NAME_FR":"New York","NAME_PT":"Nova Iorque","NAME_RU":"Нью-Йорк","NAME_ZH":"纽约","LABEL":"","NAME_AR":"نيويورك","NAME_BN":"নিউ ইয়র্ক শহর","NAME_EL":"Νέα Υόρκη","NAME_HI":"न्यूयॉर्क नगर","NAME_HU":"New York","NAME_ID":"New York City","NAME_IT":"New York","NAME_JA":"ニューヨーク","NAME_KO":"뉴욕","NAME_NL":"New York","NAME_PL":"Nowy Jork","NAME_SV":"New York","NAME_TR":"New York","NAME_VI":"Thành phố New York","NE_ID":1159151575,"NAME_FA":"نیویورک","NAME_HE":"ניו יורק","NAME_UK":"Нью-Йорк","NAME_UR":"نیویارک شہر","NAME_ZHT":"紐約","GEONAMESID":5128581,"FCLASS_ISO":"","FCLASS_US":"","FCLASS_FR":"","FCLASS_RU":"","FCLASS_ES":"","FCLASS_CN":"","FCLASS_TW":"","FCLASS_IN":"","FCLASS_NP":"","FCLASS_PK":"","FCLASS_DE":"","FCLASS_GB":"","FCLASS_BR":"","FCLASS_IL":"","FCLASS_PS":"","FCLASS_SA":"","FCLASS_EG":"","FCLASS_MA":"","FCLASS_PT":"","FCLASS_AR":"","FCLASS_JP":"","FCLASS_KO":"","FCLASS_VN":"","FCLASS_TR":"","FCLASS_ID":"","FCLASS_PL":"","FCLASS_GR":"","FCLASS_IT":"","FCLASS_NL":"","FCLASS_SE":"","FCLASS_BD":"","FCLASS_UA":"","FCLASS_TLC":""}}]}}}